<?xml version="1.0" encoding="UTF-8"?>
<kml xmlns="http://www.opengis.net/kml/2.2">
  <Document>
    <name>Mangrove Gap Detections - 2022-01-01</name>
    <Style id="gapStyle">
      <LineStyle><color>ff00ff00</color><width>2</width></LineStyle>
      <PolyStyle><color>4000ff00</color></PolyStyle>
    </Style>
    <Placemark>
      <name>gap_0001</name>
      <description>confidence: 0.9208</description>
      <styleUrl>#gapStyle</styleUrl>
      <Polygon>
        <outerBoundaryIs><LinearRing><coordinates>
          114.02365887577616,22.51849545040386,0
          114.02390074541472,22.51849545040386,0
          114.02390074541472,22.518748468301055,0
          114.02365887577616,22.518748468301055,0
          114.02365887577616,22.51849545040386,0
        </coordinates></LinearRing></outerBoundaryIs>
      </Polygon>
    </Placemark>
    <Placemark>
      <name>gap_0002</name>
      <description>confidence: 0.8848</description>
      <styleUrl>#gapStyle</styleUrl>
      <Polygon>
        <outerBoundaryIs><LinearRing><coordinates>
          114.01999802325008,22.523505262033723,0
          114.02016965646908,22.523505262033723,0
          114.02016965646908,22.52367756645981,0
          114.01999802325008,22.52367756645981,0
          114.01999802325008,22.523505262033723,0
        </coordinates></LinearRing></outerBoundaryIs>
      </Polygon>
    </Placemark>
    <Placemark>
      <name>gap_0003</name>
      <description>confidence: 0.8764</description>
      <styleUrl>#gapStyle</styleUrl>
      <Polygon>
        <outerBoundaryIs><LinearRing><coordinates>
          114.03472552479798,22.515180019872787,0
          114.0348467408694,22.515180019872787,0
          114.0348467408694,22.515289000002667,0
          114.03472552479798,22.515289000002667,0
          114.03472552479798,22.515180019872787,0
        </coordinates></LinearRing></outerBoundaryIs>
      </Polygon>
    </Placemark>
    <Placemark>
      <name>gap_0004</name>
      <description>confidence: 0.8395</description>
      <styleUrl>#gapStyle</styleUrl>
      <Polygon>
        <outerBoundaryIs><LinearRing><coordinates>
          114.01949372178933,22.520835505711148,0
          114.01961005147314,22.520835505711148,0
          114.01961005147314,22.5209274997178,0
          114.01949372178933,22.5209274997178,0
          114.01949372178933,22.520835505711148,0
        </coordinates></LinearRing></outerBoundaryIs>
      </Polygon>
    </Placemark>
    <Placemark>
      <name>gap_0005</name>
      <description>confidence: 0.8387</description>
      <styleUrl>#gapStyle</styleUrl>
      <Polygon>
        <outerBoundaryIs><LinearRing><coordinates>
          114.02944974392085,22.518802211197908,0
          114.02965896342721,22.518802211197908,0
          114.02965896342721,22.519008540912182,0
          114.02944974392085,22.519008540912182,0
          114.02944974392085,22.518802211197908,0
        </coordinates></LinearRing></outerBoundaryIs>
      </Polygon>
    </Placemark>
    <Placemark>
      <name>gap_0006</name>
      <description>confidence: 0.8347</description>
      <styleUrl>#gapStyle</styleUrl>
      <Polygon>
        <outerBoundaryIs><LinearRing><coordinates>
          114.01626030973603,22.523077192672645,0
          114.01652592553546,22.523077192672645,0
          114.01652592553546,22.52331495517865,0
          114.01626030973603,22.52331495517865,0
          114.01626030973603,22.523077192672645,0
        </coordinates></LinearRing></outerBoundaryIs>
      </Polygon>
    </Placemark>
    <Placemark>
      <name>gap_0007</name>
      <description>confidence: 0.8250</description>
      <styleUrl>#gapStyle</styleUrl>
      <Polygon>
        <outerBoundaryIs><LinearRing><coordinates>
          114.0355764022388,22.512634213562706,0
          114.03574819392816,22.512634213562706,0
          114.03574819392816,22.512765988212777,0
          114.0355764022388,22.512765988212777,0
          114.0355764022388,22.512634213562706,0
        </coordinates></LinearRing></outerBoundaryIs>
      </Polygon>
    </Placemark>
    <Placemark>
      <name>gap_0008</name>
      <description>confidence: 0.8004</description>
      <styleUrl>#gapStyle</styleUrl>
      <Polygon>
        <outerBoundaryIs><LinearRing><coordinates>
          114.01790474181325,22.522899330651853,0
          114.01802237920492,22.522899330651853,0
          114.01802237920492,22.52299964271515,0
          114.01790474181325,22.52299964271515,0
          114.01790474181325,22.522899330651853,0
        </coordinates></LinearRing></outerBoundaryIs>
      </Polygon>
    </Placemark>
    <Placemark>
      <name>gap_0009</name>
      <description>confidence: 0.7877</description>
      <styleUrl>#gapStyle</styleUrl>
      <Polygon>
        <outerBoundaryIs><LinearRing><coordinates>
          114.03858369125373,22.51204032093483,0
          114.0389260324082,22.51204032093483,0
          114.0389260324082,22.512296902614253,0
          114.03858369125373,22.512296902614253,0
          114.03858369125373,22.51204032093483,0
        </coordinates></LinearRing></outerBoundaryIs>
      </Polygon>
    </Placemark>
    <Placemark>
      <name>gap_0010</name>
      <description>confidence: 0.7709</description>
      <styleUrl>#gapStyle</styleUrl>
      <Polygon>
        <outerBoundaryIs><LinearRing><coordinates>
          114.0279173547242,22.511409231155994,0
          114.02817990867334,22.511409231155994,0
          114.02817990867334,22.51158854985988,0
          114.0279173547242,22.51158854985988,0
          114.0279173547242,22.511409231155994,0
        </coordinates></LinearRing></outerBoundaryIs>
      </Polygon>
    </Placemark>
    <Placemark>
      <name>gap_0011</name>
      <description>confidence: 0.7637</description>
      <styleUrl>#gapStyle</styleUrl>
      <Polygon>
        <outerBoundaryIs><LinearRing><coordinates>
          114.03606207338498,22.517257680192415,0
          114.03630501341468,22.517257680192415,0
          114.03630501341468,22.51757618138072,0
          114.03606207338498,22.51757618138072,0
          114.03606207338498,22.517257680192415,0
        </coordinates></LinearRing></outerBoundaryIs>
      </Polygon>
    </Placemark>
    <Placemark>
      <name>gap_0012</name>
      <description>confidence: 0.7606</description>
      <styleUrl>#gapStyle</styleUrl>
      <Polygon>
        <outerBoundaryIs><LinearRing><coordinates>
          114.02263641357422,22.52344730117329,0
          114.02286637266343,22.52344730117329,0
          114.02286637266343,22.52367101220443,0
          114.02263641357422,22.52367101220443,0
          114.02263641357422,22.52344730117329,0
        </coordinates></LinearRing></outerBoundaryIs>
      </Polygon>
    </Placemark>
    <Placemark>
      <name>gap_0013</name>
      <description>confidence: 0.7558</description>
      <styleUrl>#gapStyle</styleUrl>
      <Polygon>
        <outerBoundaryIs><LinearRing><coordinates>
          114.03694065618765,22.513673322355316,0
          114.03710035698168,22.513673322355316,0
          114.03710035698168,22.513843959241058,0
          114.03694065618765,22.513843959241058,0
          114.03694065618765,22.513673322355316,0
        </coordinates></LinearRing></outerBoundaryIs>
      </Polygon>
    </Placemark>
    <Placemark>
      <name>gap_0014</name>
      <description>confidence: 0.7500</description>
      <styleUrl>#gapStyle</styleUrl>
      <Polygon>
        <outerBoundaryIs><LinearRing><coordinates>
          114.00728961789355,22.528061709126632,0
          114.00753199306564,22.528061709126632,0
          114.00753199306564,22.528268517526158,0
          114.00728961789355,22.528268517526158,0
          114.00728961789355,22.528061709126632,0
        </coordinates></LinearRing></outerBoundaryIs>
      </Polygon>
    </Placemark>
    <Placemark>
      <name>gap_0015</name>
      <description>confidence: 0.7181</description>
      <styleUrl>#gapStyle</styleUrl>
      <Polygon>
        <outerBoundaryIs><LinearRing><coordinates>
          114.03634791506875,22.512877665101314,0
          114.03647464553615,22.512877665101314,0
          114.03647464553615,22.513041494632375,0
          114.03634791506875,22.513041494632375,0
          114.03634791506875,22.512877665101314,0
        </coordinates></LinearRing></outerBoundaryIs>
      </Polygon>
    </Placemark>
    <Placemark>
      <name>gap_0016</name>
      <description>confidence: 0.7168</description>
      <styleUrl>#gapStyle</styleUrl>
      <Polygon>
        <outerBoundaryIs><LinearRing><coordinates>
          114.0161772261672,22.52442677370709,0
          114.0163499433038,22.52442677370709,0
          114.0163499433038,22.52462897762598,0
          114.0161772261672,22.52462897762598,0
          114.0161772261672,22.52442677370709,0
        </coordinates></LinearRing></outerBoundaryIs>
      </Polygon>
    </Placemark>
    <Placemark>
      <name>gap_0017</name>
      <description>confidence: 0.7153</description>
      <styleUrl>#gapStyle</styleUrl>
      <Polygon>
        <outerBoundaryIs><LinearRing><coordinates>
          114.03351023904179,22.508149801724358,0
          114.03375461539326,22.508149801724358,0
          114.03375461539326,22.508510989064234,0
          114.03351023904179,22.508510989064234,0
          114.03351023904179,22.508149801724358,0
        </coordinates></LinearRing></outerBoundaryIs>
      </Polygon>
    </Placemark>
    <Placemark>
      <name>gap_0018</name>
      <description>confidence: 0.7084</description>
      <styleUrl>#gapStyle</styleUrl>
      <Polygon>
        <outerBoundaryIs><LinearRing><coordinates>
          114.00946665598894,22.52598143862997,0
          114.00970727489039,22.52598143862997,0
          114.00970727489039,22.526166047427978,0
          114.00946665598894,22.526166047427978,0
          114.00946665598894,22.52598143862997,0
        </coordinates></LinearRing></outerBoundaryIs>
      </Polygon>
    </Placemark>
    <Placemark>
      <name>gap_0019</name>
      <description>confidence: 0.6845</description>
      <styleUrl>#gapStyle</styleUrl>
      <Polygon>
        <outerBoundaryIs><LinearRing><coordinates>
          114.0247456772704,22.522729240431545,0
          114.02504729318025,22.522729240431545,0
          114.02504729318025,22.523045444372656,0
          114.0247456772704,22.523045444372656,0
          114.0247456772704,22.522729240431545,0
        </coordinates></LinearRing></outerBoundaryIs>
      </Polygon>
    </Placemark>
    <Placemark>
      <name>gap_0020</name>
      <description>confidence: 0.6834</description>
      <styleUrl>#gapStyle</styleUrl>
      <Polygon>
        <outerBoundaryIs><LinearRing><coordinates>
          114.03296158880039,22.516828331936267,0
          114.03307592291185,22.516828331936267,0
          114.03307592291185,22.517003202010528,0
          114.03296158880039,22.517003202010528,0
          114.03296158880039,22.516828331936267,0
        </coordinates></LinearRing></outerBoundaryIs>
      </Polygon>
    </Placemark>
    <Placemark>
      <name>gap_0021</name>
      <description>confidence: 0.6810</description>
      <styleUrl>#gapStyle</styleUrl>
      <Polygon>
        <outerBoundaryIs><LinearRing><coordinates>
          114.02195164613659,22.52284973155838,0
          114.02215882189921,22.52284973155838,0
          114.02215882189921,22.52309555738975,0
          114.02195164613659,22.52309555738975,0
          114.02195164613659,22.52284973155838,0
        </coordinates></LinearRing></outerBoundaryIs>
      </Polygon>
    </Placemark>
    <Placemark>
      <name>gap_0022</name>
      <description>confidence: 0.6741</description>
      <styleUrl>#gapStyle</styleUrl>
      <Polygon>
        <outerBoundaryIs><LinearRing><coordinates>
          114.02833422507683,22.519426236194704,0
          114.02858549914527,22.519426236194704,0
          114.02858549914527,22.519674781867707,0
          114.02833422507683,22.519674781867707,0
          114.02833422507683,22.519426236194704,0
        </coordinates></LinearRing></outerBoundaryIs>
      </Polygon>
    </Placemark>
    <Placemark>
      <name>gap_0023</name>
      <description>confidence: 0.6632</description>
      <styleUrl>#gapStyle</styleUrl>
      <Polygon>
        <outerBoundaryIs><LinearRing><coordinates>
          114.01189025415079,22.526012480484496,0
          114.0121634413299,22.526012480484496,0
          114.0121634413299,22.52622393101774,0
          114.01189025415079,22.52622393101774,0
          114.01189025415079,22.526012480484496,0
        </coordinates></LinearRing></outerBoundaryIs>
      </Polygon>
    </Placemark>
    <Placemark>
      <name>gap_0024</name>
      <description>confidence: 0.6474</description>
      <styleUrl>#gapStyle</styleUrl>
      <Polygon>
        <outerBoundaryIs><LinearRing><coordinates>
          114.02829045991894,22.519892132331734,0
          114.02853702309585,22.519892132331734,0
          114.02853702309585,22.5200216900339,0
          114.02829045991894,22.5200216900339,0
          114.02829045991894,22.519892132331734,0
        </coordinates></LinearRing></outerBoundaryIs>
      </Polygon>
    </Placemark>
    <Placemark>
      <name>gap_0025</name>
      <description>confidence: 0.6407</description>
      <styleUrl>#gapStyle</styleUrl>
      <Polygon>
        <outerBoundaryIs><LinearRing><coordinates>
          114.02639234242088,22.509164072253043,0
          114.02651119715301,22.509164072253043,0
          114.02651119715301,22.509332883782918,0
          114.02639234242088,22.509332883782918,0
          114.02639234242088,22.509164072253043,0
        </coordinates></LinearRing></outerBoundaryIs>
      </Polygon>
    </Placemark>
    <Placemark>
      <name>gap_0026</name>
      <description>confidence: 0.6003</description>
      <styleUrl>#gapStyle</styleUrl>
      <Polygon>
        <outerBoundaryIs><LinearRing><coordinates>
          114.0382038777534,22.512995192992094,0
          114.03833693424531,22.512995192992094,0
          114.03833693424531,22.513127379861544,0
          114.0382038777534,22.513127379861544,0
          114.0382038777534,22.512995192992094,0
        </coordinates></LinearRing></outerBoundaryIs>
      </Polygon>
    </Placemark>
    <Placemark>
      <name>gap_0027</name>
      <description>confidence: 0.5919</description>
      <styleUrl>#gapStyle</styleUrl>
      <Polygon>
        <outerBoundaryIs><LinearRing><coordinates>
          114.02938495868511,22.50747048186895,0
          114.02970013821687,22.50747048186895,0
          114.02970013821687,22.507631779972144,0
          114.02938495868511,22.507631779972144,0
          114.02938495868511,22.50747048186895,0
        </coordinates></LinearRing></outerBoundaryIs>
      </Polygon>
    </Placemark>
    <Placemark>
      <name>gap_0028</name>
      <description>confidence: 0.5848</description>
      <styleUrl>#gapStyle</styleUrl>
      <Polygon>
        <outerBoundaryIs><LinearRing><coordinates>
          114.0046895454725,22.528712372695736,0
          114.00495479931124,22.528712372695736,0
          114.00495479931124,22.528832468342443,0
          114.0046895454725,22.528832468342443,0
          114.0046895454725,22.528712372695736,0
        </coordinates></LinearRing></outerBoundaryIs>
      </Polygon>
    </Placemark>
    <Placemark>
      <name>gap_0029</name>
      <description>confidence: 0.5806</description>
      <styleUrl>#gapStyle</styleUrl>
      <Polygon>
        <outerBoundaryIs><LinearRing><coordinates>
          114.02015123461752,22.52136363502359,0
          114.02021670710383,22.52136363502359,0
          114.02021670710383,22.5214245832467,0
          114.02015123461752,22.5214245832467,0
          114.02015123461752,22.52136363502359,0
        </coordinates></LinearRing></outerBoundaryIs>
      </Polygon>
    </Placemark>
    <Placemark>
      <name>gap_0030</name>
      <description>confidence: 0.5799</description>
      <styleUrl>#gapStyle</styleUrl>
      <Polygon>
        <outerBoundaryIs><LinearRing><coordinates>
          114.02436941963288,22.521965660471324,0
          114.0246126604984,22.521965660471324,0
          114.0246126604984,22.522172004100867,0
          114.02436941963288,22.522172004100867,0
          114.02436941963288,22.521965660471324,0
        </coordinates></LinearRing></outerBoundaryIs>
      </Polygon>
    </Placemark>
    <Placemark>
      <name>gap_0031</name>
      <description>confidence: 0.5654</description>
      <styleUrl>#gapStyle</styleUrl>
      <Polygon>
        <outerBoundaryIs><LinearRing><coordinates>
          113.99483061246428,22.52642730021762,0
          113.99507208199793,22.52642730021762,0
          113.99507208199793,22.526629128587956,0
          113.99483061246428,22.526629128587956,0
          113.99483061246428,22.52642730021762,0
        </coordinates></LinearRing></outerBoundaryIs>
      </Polygon>
    </Placemark>
    <Placemark>
      <name>gap_0032</name>
      <description>confidence: 0.5639</description>
      <styleUrl>#gapStyle</styleUrl>
      <Polygon>
        <outerBoundaryIs><LinearRing><coordinates>
          114.01183639616647,22.528637596296903,0
          114.01204286994471,22.528637596296903,0
          114.01204286994471,22.528783649649995,0
          114.01183639616647,22.528783649649995,0
          114.01183639616647,22.528637596296903,0
        </coordinates></LinearRing></outerBoundaryIs>
      </Polygon>
    </Placemark>
    <Placemark>
      <name>gap_0033</name>
      <description>confidence: 0.5493</description>
      <styleUrl>#gapStyle</styleUrl>
      <Polygon>
        <outerBoundaryIs><LinearRing><coordinates>
          114.03188281956773,22.515385136503028,0
          114.03209875797984,22.515385136503028,0
          114.03209875797984,22.51560225169669,0
          114.03188281956773,22.51560225169669,0
          114.03188281956773,22.515385136503028,0
        </coordinates></LinearRing></outerBoundaryIs>
      </Polygon>
    </Placemark>
    <Placemark>
      <name>gap_0034</name>
      <description>confidence: 0.5489</description>
      <styleUrl>#gapStyle</styleUrl>
      <Polygon>
        <outerBoundaryIs><LinearRing><coordinates>
          114.01329701237046,22.52449481004078,0
          114.01355667701864,22.52449481004078,0
          114.01355667701864,22.52471284888088,0
          114.01329701237046,22.52471284888088,0
          114.01329701237046,22.52449481004078,0
        </coordinates></LinearRing></outerBoundaryIs>
      </Polygon>
    </Placemark>
    <Placemark>
      <name>gap_0035</name>
      <description>confidence: 0.5487</description>
      <styleUrl>#gapStyle</styleUrl>
      <Polygon>
        <outerBoundaryIs><LinearRing><coordinates>
          114.02461088628115,22.521606050468108,0
          114.02486949255035,22.521606050468108,0
          114.02486949255035,22.521795955581183,0
          114.02461088628115,22.521795955581183,0
          114.02461088628115,22.521606050468108,0
        </coordinates></LinearRing></outerBoundaryIs>
      </Polygon>
    </Placemark>
    <Placemark>
      <name>gap_0036</name>
      <description>confidence: 0.5415</description>
      <styleUrl>#gapStyle</styleUrl>
      <Polygon>
        <outerBoundaryIs><LinearRing><coordinates>
          114.03465380533817,22.513586612221843,0
          114.03490733623812,22.513586612221843,0
          114.03490733623812,22.513781616544293,0
          114.03465380533817,22.513781616544293,0
          114.03465380533817,22.513586612221843,0
        </coordinates></LinearRing></outerBoundaryIs>
      </Polygon>
    </Placemark>
    <Placemark>
      <name>gap_0037</name>
      <description>confidence: 0.5355</description>
      <styleUrl>#gapStyle</styleUrl>
      <Polygon>
        <outerBoundaryIs><LinearRing><coordinates>
          113.9969619226531,22.52510372993129,0
          113.99724739660542,22.52510372993129,0
          113.99724739660542,22.52531698650273,0
          113.9969619226531,22.52531698650273,0
          113.9969619226531,22.52510372993129,0
        </coordinates></LinearRing></outerBoundaryIs>
      </Polygon>
    </Placemark>
    <Placemark>
      <name>gap_0038</name>
      <description>confidence: 0.5276</description>
      <styleUrl>#gapStyle</styleUrl>
      <Polygon>
        <outerBoundaryIs><LinearRing><coordinates>
          114.01571529211651,22.52501319097064,0
          114.0160309771818,22.52501319097064,0
          114.0160309771818,22.52520679983718,0
          114.01571529211651,22.52520679983718,0
          114.01571529211651,22.52501319097064,0
        </coordinates></LinearRing></outerBoundaryIs>
      </Polygon>
    </Placemark>
    <Placemark>
      <name>gap_0039</name>
      <description>confidence: 0.5041</description>
      <styleUrl>#gapStyle</styleUrl>
      <Polygon>
        <outerBoundaryIs><LinearRing><coordinates>
          114.03898313543323,22.513456052620313,0
          114.03917206811457,22.513456052620313,0
          114.03917206811457,22.51364937663311,0
          114.03898313543323,22.51364937663311,0
          114.03898313543323,22.513456052620313,0
        </coordinates></LinearRing></outerBoundaryIs>
      </Polygon>
    </Placemark>
    <Placemark>
      <name>gap_0040</name>
      <description>confidence: 0.4960</description>
      <styleUrl>#gapStyle</styleUrl>
      <Polygon>
        <outerBoundaryIs><LinearRing><coordinates>
          114.03739572870109,22.508979036174424,0
          114.03766289662599,22.508979036174424,0
          114.03766289662599,22.50929963087401,0
          114.03739572870109,22.50929963087401,0
          114.03739572870109,22.508979036174424,0
        </coordinates></LinearRing></outerBoundaryIs>
      </Polygon>
    </Placemark>
    <Placemark>
      <name>gap_0041</name>
      <description>confidence: 0.4886</description>
      <styleUrl>#gapStyle</styleUrl>
      <Polygon>
        <outerBoundaryIs><LinearRing><coordinates>
          114.01577069543237,22.526681193139666,0
          114.01618115117344,22.526681193139666,0
          114.01618115117344,22.52705972381591,0
          114.01577069543237,22.52705972381591,0
          114.01577069543237,22.526681193139666,0
        </coordinates></LinearRing></outerBoundaryIs>
      </Polygon>
    </Placemark>
    <Placemark>
      <name>gap_0042</name>
      <description>confidence: 0.4698</description>
      <styleUrl>#gapStyle</styleUrl>
      <Polygon>
        <outerBoundaryIs><LinearRing><coordinates>
          114.01754611678598,22.52602706434118,0
          114.01781753803562,22.52602706434118,0
          114.01781753803562,22.52616886387841,0
          114.01754611678598,22.52616886387841,0
          114.01754611678598,22.52602706434118,0
        </coordinates></LinearRing></outerBoundaryIs>
      </Polygon>
    </Placemark>
    <Placemark>
      <name>gap_0043</name>
      <description>confidence: 0.4610</description>
      <styleUrl>#gapStyle</styleUrl>
      <Polygon>
        <outerBoundaryIs><LinearRing><coordinates>
          114.03849822170741,22.51243715477358,0
          114.03879112764116,22.51243715477358,0
          114.03879112764116,22.512711558003957,0
          114.03849822170741,22.512711558003957,0
          114.03849822170741,22.51243715477358,0
        </coordinates></LinearRing></outerBoundaryIs>
      </Polygon>
    </Placemark>
    <Placemark>
      <name>gap_0044</name>
      <description>confidence: 0.4592</description>
      <styleUrl>#gapStyle</styleUrl>
      <Polygon>
        <outerBoundaryIs><LinearRing><coordinates>
          114.02317587908328,22.52209809372289,0
          114.02327485822752,22.52209809372289,0
          114.02327485822752,22.522195779565664,0
          114.02317587908328,22.522195779565664,0
          114.02317587908328,22.52209809372289,0
        </coordinates></LinearRing></outerBoundaryIs>
      </Polygon>
    </Placemark>
    <Placemark>
      <name>gap_0045</name>
      <description>confidence: 0.4517</description>
      <styleUrl>#gapStyle</styleUrl>
      <Polygon>
        <outerBoundaryIs><LinearRing><coordinates>
          114.00305765833764,22.528984327145736,0
          114.00322874738777,22.528984327145736,0
          114.00322874738777,22.529080708063702,0
          114.00305765833764,22.529080708063702,0
          114.00305765833764,22.528984327145736,0
        </coordinates></LinearRing></outerBoundaryIs>
      </Polygon>
    </Placemark>
    <Placemark>
      <name>gap_0046</name>
      <description>confidence: 0.4441</description>
      <styleUrl>#gapStyle</styleUrl>
      <Polygon>
        <outerBoundaryIs><LinearRing><coordinates>
          114.01016846341008,22.529493810734493,0
          114.01039672555271,22.529493810734493,0
          114.01039672555271,22.52971520806568,0
          114.01016846341008,22.52971520806568,0
          114.01016846341008,22.529493810734493,0
        </coordinates></LinearRing></outerBoundaryIs>
      </Polygon>
    </Placemark>
    <Placemark>
      <name>gap_0047</name>
      <description>confidence: 0.4435</description>
      <styleUrl>#gapStyle</styleUrl>
      <Polygon>
        <outerBoundaryIs><LinearRing><coordinates>
          114.01618497549862,22.528048135682184,0
          114.016426747894,22.528048135682184,0
          114.016426747894,22.52822723829013,0
          114.01618497549862,22.52822723829013,0
          114.01618497549862,22.528048135682184,0
        </coordinates></LinearRing></outerBoundaryIs>
      </Polygon>
    </Placemark>
    <Placemark>
      <name>gap_0048</name>
      <description>confidence: 0.4394</description>
      <styleUrl>#gapStyle</styleUrl>
      <Polygon>
        <outerBoundaryIs><LinearRing><coordinates>
          114.03470962892072,22.515174139607552,0
          114.03484752247778,22.515174139607552,0
          114.03484752247778,22.51544575305161,0
          114.03470962892072,22.51544575305161,0
          114.03470962892072,22.515174139607552,0
        </coordinates></LinearRing></outerBoundaryIs>
      </Polygon>
    </Placemark>
    <Placemark>
      <name>gap_0049</name>
      <description>confidence: 0.4377</description>
      <styleUrl>#gapStyle</styleUrl>
      <Polygon>
        <outerBoundaryIs><LinearRing><coordinates>
          114.01757968079323,22.525763839184947,0
          114.01786462163727,22.525763839184947,0
          114.01786462163727,22.52610772902699,0
          114.01757968079323,22.52610772902699,0
          114.01757968079323,22.525763839184947,0
        </coordinates></LinearRing></outerBoundaryIs>
      </Polygon>
    </Placemark>
    <Placemark>
      <name>gap_0050</name>
      <description>confidence: 0.4370</description>
      <styleUrl>#gapStyle</styleUrl>
      <Polygon>
        <outerBoundaryIs><LinearRing><coordinates>
          114.02778625488281,22.509471781413595,0
          114.02810617436444,22.509471781413595,0
          114.02810617436444,22.509680549737823,0
          114.02778625488281,22.509680549737823,0
          114.02778625488281,22.509471781413595,0
        </coordinates></LinearRing></outerBoundaryIs>
      </Polygon>
    </Placemark>
    <Placemark>
      <name>gap_0051</name>
      <description>confidence: 0.4331</description>
      <styleUrl>#gapStyle</styleUrl>
      <Polygon>
        <outerBoundaryIs><LinearRing><coordinates>
          114.02180540255358,22.52396625066467,0
          114.02199262054637,22.52396625066467,0
          114.02199262054637,22.524160974717233,0
          114.02180540255358,22.524160974717233,0
          114.02180540255358,22.52396625066467,0
        </coordinates></LinearRing></outerBoundaryIs>
      </Polygon>
    </Placemark>
    <Placemark>
      <name>gap_0052</name>
      <description>confidence: 0.4305</description>
      <styleUrl>#gapStyle</styleUrl>
      <Polygon>
        <outerBoundaryIs><LinearRing><coordinates>
          113.9967227969828,22.52636681561853,0
          113.99698346303921,22.52636681561853,0
          113.99698346303921,22.526614566995704,0
          113.9967227969828,22.526614566995704,0
          113.9967227969828,22.52636681561853,0
        </coordinates></LinearRing></outerBoundaryIs>
      </Polygon>
    </Placemark>
    <Placemark>
      <name>gap_0053</name>
      <description>confidence: 0.4303</description>
      <styleUrl>#gapStyle</styleUrl>
      <Polygon>
        <outerBoundaryIs><LinearRing><coordinates>
          114.03121948242188,22.517869262810564,0
          114.03136774814925,22.517869262810564,0
          114.03136774814925,22.518097474530805,0
          114.03121948242188,22.518097474530805,0
          114.03121948242188,22.517869262810564,0
        </coordinates></LinearRing></outerBoundaryIs>
      </Polygon>
    </Placemark>
    <Placemark>
      <name>gap_0054</name>
      <description>confidence: 0.4278</description>
      <styleUrl>#gapStyle</styleUrl>
      <Polygon>
        <outerBoundaryIs><LinearRing><coordinates>
          114.02597600232184,22.518463365559,0
          114.02617337518677,22.518463365559,0
          114.02617337518677,22.518563884223113,0
          114.02597600232184,22.518563884223113,0
          114.02597600232184,22.518463365559,0
        </coordinates></LinearRing></outerBoundaryIs>
      </Polygon>
    </Placemark>
    <Placemark>
      <name>gap_0055</name>
      <description>confidence: 0.4095</description>
      <styleUrl>#gapStyle</styleUrl>
      <Polygon>
        <outerBoundaryIs><LinearRing><coordinates>
          114.03335787847027,22.516666324809194,0
          114.03346581184451,22.516666324809194,0
          114.03346581184451,22.516864811550477,0
          114.03335787847027,22.516864811550477,0
          114.03335787847027,22.516666324809194,0
        </coordinates></LinearRing></outerBoundaryIs>
      </Polygon>
    </Placemark>
    <Placemark>
      <name>gap_0056</name>
      <description>confidence: 0.4058</description>
      <styleUrl>#gapStyle</styleUrl>
      <Polygon>
        <outerBoundaryIs><LinearRing><coordinates>
          114.02729966854167,22.522514750926348,0
          114.02758493106376,22.522514750926348,0
          114.02758493106376,22.522855510815134,0
          114.02729966854167,22.522855510815134,0
          114.02729966854167,22.522514750926348,0
        </coordinates></LinearRing></outerBoundaryIs>
      </Polygon>
    </Placemark>
    <Placemark>
      <name>gap_0057</name>
      <description>confidence: 0.4051</description>
      <styleUrl>#gapStyle</styleUrl>
      <Polygon>
        <outerBoundaryIs><LinearRing><coordinates>
          113.99666905097547,22.528021466332575,0
          113.99696268017578,22.528021466332575,0
          113.99696268017578,22.528285227799643,0
          113.99666905097547,22.528285227799643,0
          113.99666905097547,22.528021466332575,0
        </coordinates></LinearRing></outerBoundaryIs>
      </Polygon>
    </Placemark>
    <Placemark>
      <name>gap_0058</name>
      <description>confidence: 0.3821</description>
      <styleUrl>#gapStyle</styleUrl>
      <Polygon>
        <outerBoundaryIs><LinearRing><coordinates>
          114.01579629535263,22.52635018343426,0
          114.01610569505465,22.52635018343426,0
          114.01610569505465,22.526530499781074,0
          114.01579629535263,22.526530499781074,0
          114.01579629535263,22.52635018343426,0
        </coordinates></LinearRing></outerBoundaryIs>
      </Polygon>
    </Placemark>
    <Placemark>
      <name>gap_0059</name>
      <description>confidence: 0.3813</description>
      <styleUrl>#gapStyle</styleUrl>
      <Polygon>
        <outerBoundaryIs><LinearRing><coordinates>
          113.9947178980492,22.525399714249943,0
          113.99495969966665,22.525399714249943,0
          113.99495969966665,22.525582875205146,0
          113.9947178980492,22.525582875205146,0
          113.9947178980492,22.525399714249943,0
        </coordinates></LinearRing></outerBoundaryIs>
      </Polygon>
    </Placemark>
    <Placemark>
      <name>gap_0060</name>
      <description>confidence: 0.3795</description>
      <styleUrl>#gapStyle</styleUrl>
      <Polygon>
        <outerBoundaryIs><LinearRing><coordinates>
          114.03128525121133,22.519160265965183,0
          114.03155003447864,22.519160265965183,0
          114.03155003447864,22.519388387563595,0
          114.03128525121133,22.519388387563595,0
          114.03128525121133,22.519160265965183,0
        </coordinates></LinearRing></outerBoundaryIs>
      </Polygon>
    </Placemark>
    <Placemark>
      <name>gap_0061</name>
      <description>confidence: 0.3769</description>
      <styleUrl>#gapStyle</styleUrl>
      <Polygon>
        <outerBoundaryIs><LinearRing><coordinates>
          114.0303960188794,22.509776845035958,0
          114.03047817724655,22.509776845035958,0
          114.03047817724655,22.509890768196783,0
          114.0303960188794,22.509890768196783,0
          114.0303960188794,22.509776845035958,0
        </coordinates></LinearRing></outerBoundaryIs>
      </Polygon>
    </Placemark>
    <Placemark>
      <name>gap_0062</name>
      <description>confidence: 0.3703</description>
      <styleUrl>#gapStyle</styleUrl>
      <Polygon>
        <outerBoundaryIs><LinearRing><coordinates>
          114.01408468379486,22.52978438487844,0
          114.01445722034623,22.52978438487844,0
          114.01445722034623,22.53019228905032,0
          114.01408468379486,22.53019228905032,0
          114.01408468379486,22.52978438487844,0
        </coordinates></LinearRing></outerBoundaryIs>
      </Polygon>
    </Placemark>
    <Placemark>
      <name>gap_0063</name>
      <description>confidence: 0.3635</description>
      <styleUrl>#gapStyle</styleUrl>
      <Polygon>
        <outerBoundaryIs><LinearRing><coordinates>
          114.02607188063257,22.51109049520892,0
          114.02640748004387,22.51109049520892,0
          114.02640748004387,22.511447397955635,0
          114.02607188063257,22.511447397955635,0
          114.02607188063257,22.51109049520892,0
        </coordinates></LinearRing></outerBoundaryIs>
      </Polygon>
    </Placemark>
    <Placemark>
      <name>gap_0064</name>
      <description>confidence: 0.3621</description>
      <styleUrl>#gapStyle</styleUrl>
      <Polygon>
        <outerBoundaryIs><LinearRing><coordinates>
          114.01416075488669,22.524067833110166,0
          114.0144807461138,22.524067833110166,0
          114.0144807461138,22.524452574539282,0
          114.01416075488669,22.524452574539282,0
          114.01416075488669,22.524067833110166,0
        </coordinates></LinearRing></outerBoundaryIs>
      </Polygon>
    </Placemark>
    <Placemark>
      <name>gap_0065</name>
      <description>confidence: 0.3605</description>
      <styleUrl>#gapStyle</styleUrl>
      <Polygon>
        <outerBoundaryIs><LinearRing><coordinates>
          114.03447966556996,22.513518732230295,0
          114.03474496852141,22.513518732230295,0
          114.03474496852141,22.51377492248139,0
          114.03447966556996,22.51377492248139,0
          114.03447966556996,22.513518732230295,0
        </coordinates></LinearRing></outerBoundaryIs>
      </Polygon>
    </Placemark>
    <Placemark>
      <name>gap_0066</name>
      <description>confidence: 0.3486</description>
      <styleUrl>#gapStyle</styleUrl>
      <Polygon>
        <outerBoundaryIs><LinearRing><coordinates>
          114.0198119252318,22.525063799002965,0
          114.0202019649405,22.525063799002965,0
          114.0202019649405,22.52523009923607,0
          114.0198119252318,22.52523009923607,0
          114.0198119252318,22.525063799002965,0
        </coordinates></LinearRing></outerBoundaryIs>
      </Polygon>
    </Placemark>
    <Placemark>
      <name>gap_0067</name>
      <description>confidence: 0.3468</description>
      <styleUrl>#gapStyle</styleUrl>
      <Polygon>
        <outerBoundaryIs><LinearRing><coordinates>
          114.03778965293895,22.51227344335348,0
          114.03807259979658,22.51227344335348,0
          114.03807259979658,22.51245464962267,0
          114.03778965293895,22.51245464962267,0
          114.03778965293895,22.51227344335348,0
        </coordinates></LinearRing></outerBoundaryIs>
      </Polygon>
    </Placemark>
    <Placemark>
      <name>gap_0068</name>
      <description>confidence: 0.3325</description>
      <styleUrl>#gapStyle</styleUrl>
      <Polygon>
        <outerBoundaryIs><LinearRing><coordinates>
          114.00618607567594,22.52865528636903,0
          114.00634736117354,22.52865528636903,0
          114.00634736117354,22.528816364938393,0
          114.00618607567594,22.528816364938393,0
          114.00618607567594,22.52865528636903,0
        </coordinates></LinearRing></outerBoundaryIs>
      </Polygon>
    </Placemark>
    <Placemark>
      <name>gap_0069</name>
      <description>confidence: 0.3228</description>
      <styleUrl>#gapStyle</styleUrl>
      <Polygon>
        <outerBoundaryIs><LinearRing><coordinates>
          114.00375797093147,22.527921548316954,0
          114.00404416708625,22.527921548316954,0
          114.00404416708625,22.528137179324403,0
          114.00375797093147,22.528137179324403,0
          114.00375797093147,22.527921548316954,0
        </coordinates></LinearRing></outerBoundaryIs>
      </Polygon>
    </Placemark>
    <Placemark>
      <name>gap_0070</name>
      <description>confidence: 0.3225</description>
      <styleUrl>#gapStyle</styleUrl>
      <Polygon>
        <outerBoundaryIs><LinearRing><coordinates>
          114.03554150765558,22.5166413640909,0
          114.03584493713424,22.5166413640909,0
          114.03584493713424,22.516850535221238,0
          114.03554150765558,22.516850535221238,0
          114.03554150765558,22.5166413640909,0
        </coordinates></LinearRing></outerBoundaryIs>
      </Polygon>
    </Placemark>
    <Placemark>
      <name>gap_0071</name>
      <description>confidence: 0.3191</description>
      <styleUrl>#gapStyle</styleUrl>
      <Polygon>
        <outerBoundaryIs><LinearRing><coordinates>
          114.00289972101746,22.528708868012473,0
          114.00308739674074,22.528708868012473,0
          114.00308739674074,22.528819128019677,0
          114.00289972101746,22.528819128019677,0
          114.00289972101746,22.528708868012473,0
        </coordinates></LinearRing></outerBoundaryIs>
      </Polygon>
    </Placemark>
    <Placemark>
      <name>gap_0072</name>
      <description>confidence: 0.3161</description>
      <styleUrl>#gapStyle</styleUrl>
      <Polygon>
        <outerBoundaryIs><LinearRing><coordinates>
          114.03603655660845,22.514892972922098,0
          114.03612772552151,22.514892972922098,0
          114.03612772552151,22.515025732445793,0
          114.03603655660845,22.515025732445793,0
          114.03603655660845,22.514892972922098,0
        </coordinates></LinearRing></outerBoundaryIs>
      </Polygon>
    </Placemark>
    <Placemark>
      <name>gap_0073</name>
      <description>confidence: 0.3137</description>
      <styleUrl>#gapStyle</styleUrl>
      <Polygon>
        <outerBoundaryIs><LinearRing><coordinates>
          114.0060691355211,22.528635071084864,0
          114.00614792393753,22.528635071084864,0
          114.00614792393753,22.52875446834878,0
          114.0060691355211,22.52875446834878,0
          114.0060691355211,22.528635071084864,0
        </coordinates></LinearRing></outerBoundaryIs>
      </Polygon>
    </Placemark>
    <Placemark>
      <name>gap_0074</name>
      <description>confidence: 0.3113</description>
      <styleUrl>#gapStyle</styleUrl>
      <Polygon>
        <outerBoundaryIs><LinearRing><coordinates>
          114.01607499561806,22.529266708634168,0
          114.01637117522114,22.529266708634168,0
          114.01637117522114,22.52971304563289,0
          114.01607499561806,22.52971304563289,0
          114.01607499561806,22.529266708634168,0
        </coordinates></LinearRing></outerBoundaryIs>
      </Polygon>
    </Placemark>
    <Placemark>
      <name>gap_0075</name>
      <description>confidence: 0.3111</description>
      <styleUrl>#gapStyle</styleUrl>
      <Polygon>
        <outerBoundaryIs><LinearRing><coordinates>
          114.03306374535305,22.51611314211914,0
          114.03321258032747,22.51611314211914,0
          114.03321258032747,22.516261594137177,0
          114.03306374535305,22.516261594137177,0
          114.03306374535305,22.51611314211914,0
        </coordinates></LinearRing></outerBoundaryIs>
      </Polygon>
    </Placemark>
    <Placemark>
      <name>gap_0076</name>
      <description>confidence: 0.3071</description>
      <styleUrl>#gapStyle</styleUrl>
      <Polygon>
        <outerBoundaryIs><LinearRing><coordinates>
          114.01648716758245,22.525245473807445,0
          114.01657026089197,22.525245473807445,0
          114.01657026089197,22.52536116830015,0
          114.01648716758245,22.52536116830015,0
          114.01648716758245,22.525245473807445,0
        </coordinates></LinearRing></outerBoundaryIs>
      </Polygon>
    </Placemark>
    <Placemark>
      <name>gap_0077</name>
      <description>confidence: 0.3024</description>
      <styleUrl>#gapStyle</styleUrl>
      <Polygon>
        <outerBoundaryIs><LinearRing><coordinates>
          114.00585220073481,22.528517993741843,0
          114.00602270730815,22.528517993741843,0
          114.00602270730815,22.52862839388399,0
          114.00585220073481,22.52862839388399,0
          114.00585220073481,22.528517993741843,0
        </coordinates></LinearRing></outerBoundaryIs>
      </Polygon>
    </Placemark>
    <Placemark>
      <name>gap_0078</name>
      <description>confidence: 0.2742</description>
      <styleUrl>#gapStyle</styleUrl>
      <Polygon>
        <outerBoundaryIs><LinearRing><coordinates>
          114.0309449151755,22.50754181186494,0
          114.03111460876971,22.50754181186494,0
          114.03111460876971,22.507707028671575,0
          114.0309449151755,22.507707028671575,0
          114.0309449151755,22.50754181186494,0
        </coordinates></LinearRing></outerBoundaryIs>
      </Polygon>
    </Placemark>
    <Placemark>
      <name>gap_0079</name>
      <description>confidence: 0.2583</description>
      <styleUrl>#gapStyle</styleUrl>
      <Polygon>
        <outerBoundaryIs><LinearRing><coordinates>
          114.03000868319396,22.518455956087564,0
          114.03029008332851,22.518455956087564,0
          114.03029008332851,22.518776183424052,0
          114.03000868319396,22.518776183424052,0
          114.03000868319396,22.518455956087564,0
        </coordinates></LinearRing></outerBoundaryIs>
      </Polygon>
    </Placemark>
    <Placemark>
      <name>gap_0080</name>
      <description>confidence: 0.2577</description>
      <styleUrl>#gapStyle</styleUrl>
      <Polygon>
        <outerBoundaryIs><LinearRing><coordinates>
          114.00960550205127,22.527755990668084,0
          114.00972263980293,22.527755990668084,0
          114.00972263980293,22.527877228676516,0
          114.00960550205127,22.527877228676516,0
          114.00960550205127,22.527755990668084,0
        </coordinates></LinearRing></outerBoundaryIs>
      </Polygon>
    </Placemark>
    <Placemark>
      <name>gap_0081</name>
      <description>confidence: 0.2563</description>
      <styleUrl>#gapStyle</styleUrl>
      <Polygon>
        <outerBoundaryIs><LinearRing><coordinates>
          114.03121948242188,22.518547440304246,0
          114.0314474313277,22.518547440304246,0
          114.0314474313277,22.518860252275772,0
          114.03121948242188,22.518860252275772,0
          114.03121948242188,22.518547440304246,0
        </coordinates></LinearRing></outerBoundaryIs>
      </Polygon>
    </Placemark>
    <Placemark>
      <name>gap_0082</name>
      <description>confidence: 0.2547</description>
      <styleUrl>#gapStyle</styleUrl>
      <Polygon>
        <outerBoundaryIs><LinearRing><coordinates>
          114.03553254524013,22.507662472144148,0
          114.03582227980223,22.507662472144148,0
          114.03582227980223,22.507842760660424,0
          114.03553254524013,22.507842760660424,0
          114.03553254524013,22.507662472144148,0
        </coordinates></LinearRing></outerBoundaryIs>
      </Polygon>
    </Placemark>
    <Placemark>
      <name>gap_0083</name>
      <description>confidence: 0.2536</description>
      <styleUrl>#gapStyle</styleUrl>
      <Polygon>
        <outerBoundaryIs><LinearRing><coordinates>
          114.0371039765887,22.51034554308717,0
          114.0374035955756,22.51034554308717,0
          114.0374035955756,22.510643099994923,0
          114.0371039765887,22.510643099994923,0
          114.0371039765887,22.51034554308717,0
        </coordinates></LinearRing></outerBoundaryIs>
      </Polygon>
    </Placemark>
  </Document>
</kml>