<?xml version="1.0" encoding="UTF-8"?>
<kml xmlns="http://www.opengis.net/kml/2.2">
  <Document>
    <name>Mangrove Gap Detections - 2026-01-01</name>
    <Style id="gapStyle">
      <LineStyle><color>ff00ff00</color><width>2</width></LineStyle>
      <PolyStyle><color>4000ff00</color></PolyStyle>
    </Style>
    <Placemark>
      <name>gap_0001</name>
      <description>confidence: 0.9453</description>
      <styleUrl>#gapStyle</styleUrl>
      <Polygon>
        <outerBoundaryIs><LinearRing><coordinates>
          114.01867286105698,22.52198177484388,0
          114.01875455972913,22.52198177484388,0
          114.01875455972913,22.52207318408182,0
          114.01867286105698,22.52207318408182,0
          114.01867286105698,22.52198177484388,0
        </coordinates></LinearRing></outerBoundaryIs>
      </Polygon>
    </Placemark>
    <Placemark>
      <name>gap_0002</name>
      <description>confidence: 0.9396</description>
      <styleUrl>#gapStyle</styleUrl>
      <Polygon>
        <outerBoundaryIs><LinearRing><coordinates>
          114.03104370228903,22.511392935230106,0
          114.03117757339714,22.511392935230106,0
          114.03117757339714,22.511520355219545,0
          114.03104370228903,22.511520355219545,0
          114.03104370228903,22.511392935230106,0
        </coordinates></LinearRing></outerBoundaryIs>
      </Polygon>
    </Placemark>
    <Placemark>
      <name>gap_0003</name>
      <description>confidence: 0.9389</description>
      <styleUrl>#gapStyle</styleUrl>
      <Polygon>
        <outerBoundaryIs><LinearRing><coordinates>
          114.0182725066552,22.525962004074245,0
          114.01852285445784,22.525962004074245,0
          114.01852285445784,22.526243085958413,0
          114.0182725066552,22.526243085958413,0
          114.0182725066552,22.525962004074245,0
        </coordinates></LinearRing></outerBoundaryIs>
      </Polygon>
    </Placemark>
    <Placemark>
      <name>gap_0004</name>
      <description>confidence: 0.9212</description>
      <styleUrl>#gapStyle</styleUrl>
      <Polygon>
        <outerBoundaryIs><LinearRing><coordinates>
          114.01951138534059,22.52082006418277,0
          114.01960989169311,22.52082006418277,0
          114.01960989169311,22.52090065356242,0
          114.01951138534059,22.52090065356242,0
          114.01951138534059,22.52082006418277,0
        </coordinates></LinearRing></outerBoundaryIs>
      </Polygon>
    </Placemark>
    <Placemark>
      <name>gap_0005</name>
      <description>confidence: 0.9128</description>
      <styleUrl>#gapStyle</styleUrl>
      <Polygon>
        <outerBoundaryIs><LinearRing><coordinates>
          114.01821861543795,22.52098361827848,0
          114.01829537533558,22.52098361827848,0
          114.01829537533558,22.52106797705892,0
          114.01821861543795,22.52106797705892,0
          114.01821861543795,22.52098361827848,0
        </coordinates></LinearRing></outerBoundaryIs>
      </Polygon>
    </Placemark>
    <Placemark>
      <name>gap_0006</name>
      <description>confidence: 0.9103</description>
      <styleUrl>#gapStyle</styleUrl>
      <Polygon>
        <outerBoundaryIs><LinearRing><coordinates>
          114.0166500520263,22.522206613584785,0
          114.01677745629968,22.522206613584785,0
          114.01677745629968,22.52232967432974,0
          114.0166500520263,22.52232967432974,0
          114.0166500520263,22.522206613584785,0
        </coordinates></LinearRing></outerBoundaryIs>
      </Polygon>
    </Placemark>
    <Placemark>
      <name>gap_0007</name>
      <description>confidence: 0.9052</description>
      <styleUrl>#gapStyle</styleUrl>
      <Polygon>
        <outerBoundaryIs><LinearRing><coordinates>
          114.02014684934329,22.521341276951716,0
          114.02023326365452,22.521341276951716,0
          114.02023326365452,22.521431910863612,0
          114.02014684934329,22.521431910863612,0
          114.02014684934329,22.521341276951716,0
        </coordinates></LinearRing></outerBoundaryIs>
      </Polygon>
    </Placemark>
    <Placemark>
      <name>gap_0008</name>
      <description>confidence: 0.8845</description>
      <styleUrl>#gapStyle</styleUrl>
      <Polygon>
        <outerBoundaryIs><LinearRing><coordinates>
          114.02942287975748,22.518790916255966,0
          114.02967895704933,22.518790916255966,0
          114.02967895704933,22.519013521759916,0
          114.02942287975748,22.519013521759916,0
          114.02942287975748,22.518790916255966,0
        </coordinates></LinearRing></outerBoundaryIs>
      </Polygon>
    </Placemark>
    <Placemark>
      <name>gap_0009</name>
      <description>confidence: 0.8821</description>
      <styleUrl>#gapStyle</styleUrl>
      <Polygon>
        <outerBoundaryIs><LinearRing><coordinates>
          114.03157310321149,22.50905948165382,0
          114.03179374338833,22.50905948165382,0
          114.03179374338833,22.50921583492527,0
          114.03157310321149,22.50921583492527,0
          114.03157310321149,22.50905948165382,0
        </coordinates></LinearRing></outerBoundaryIs>
      </Polygon>
    </Placemark>
    <Placemark>
      <name>gap_0010</name>
      <description>confidence: 0.8739</description>
      <styleUrl>#gapStyle</styleUrl>
      <Polygon>
        <outerBoundaryIs><LinearRing><coordinates>
          114.02876506996108,22.50950506379013,0
          114.02908036310691,22.50950506379013,0
          114.02908036310691,22.509822991341935,0
          114.02876506996108,22.509822991341935,0
          114.02876506996108,22.50950506379013,0
        </coordinates></LinearRing></outerBoundaryIs>
      </Polygon>
    </Placemark>
    <Placemark>
      <name>gap_0011</name>
      <description>confidence: 0.8737</description>
      <styleUrl>#gapStyle</styleUrl>
      <Polygon>
        <outerBoundaryIs><LinearRing><coordinates>
          114.01988193462785,22.52133456619049,0
          114.01998722737517,22.52133456619049,0
          114.01998722737517,22.52143769470422,0
          114.01988193462785,22.52143769470422,0
          114.01988193462785,22.52133456619049,0
        </coordinates></LinearRing></outerBoundaryIs>
      </Polygon>
    </Placemark>
    <Placemark>
      <name>gap_0012</name>
      <description>confidence: 0.8725</description>
      <styleUrl>#gapStyle</styleUrl>
      <Polygon>
        <outerBoundaryIs><LinearRing><coordinates>
          114.03366785794788,22.509777685354493,0
          114.0338598794915,22.509777685354493,0
          114.0338598794915,22.509947180042218,0
          114.03366785794788,22.509947180042218,0
          114.03366785794788,22.509777685354493,0
        </coordinates></LinearRing></outerBoundaryIs>
      </Polygon>
    </Placemark>
    <Placemark>
      <name>gap_0013</name>
      <description>confidence: 0.8667</description>
      <styleUrl>#gapStyle</styleUrl>
      <Polygon>
        <outerBoundaryIs><LinearRing><coordinates>
          114.02951920608871,22.519458393562672,0
          114.02984657456727,22.519458393562672,0
          114.02984657456727,22.519843740756187,0
          114.02951920608871,22.519843740756187,0
          114.02951920608871,22.519458393562672,0
        </coordinates></LinearRing></outerBoundaryIs>
      </Polygon>
    </Placemark>
    <Placemark>
      <name>gap_0014</name>
      <description>confidence: 0.8656</description>
      <styleUrl>#gapStyle</styleUrl>
      <Polygon>
        <outerBoundaryIs><LinearRing><coordinates>
          114.03178150466374,22.51670268655289,0
          114.03197992117384,22.51670268655289,0
          114.03197992117384,22.516848730738275,0
          114.03178150466374,22.516848730738275,0
          114.03178150466374,22.51670268655289,0
        </coordinates></LinearRing></outerBoundaryIs>
      </Polygon>
    </Placemark>
    <Placemark>
      <name>gap_0015</name>
      <description>confidence: 0.8535</description>
      <styleUrl>#gapStyle</styleUrl>
      <Polygon>
        <outerBoundaryIs><LinearRing><coordinates>
          114.02817740752653,22.50885867548277,0
          114.02830892449856,22.50885867548277,0
          114.02830892449856,22.50904633778191,0
          114.02817740752653,22.50904633778191,0
          114.02817740752653,22.50885867548277,0
        </coordinates></LinearRing></outerBoundaryIs>
      </Polygon>
    </Placemark>
    <Placemark>
      <name>gap_0016</name>
      <description>confidence: 0.8406</description>
      <styleUrl>#gapStyle</styleUrl>
      <Polygon>
        <outerBoundaryIs><LinearRing><coordinates>
          114.02092570544482,22.524225659108197,0
          114.02123500913149,22.524225659108197,0
          114.02123500913149,22.524604390573586,0
          114.02092570544482,22.524604390573586,0
          114.02092570544482,22.524225659108197,0
        </coordinates></LinearRing></outerBoundaryIs>
      </Polygon>
    </Placemark>
    <Placemark>
      <name>gap_0017</name>
      <description>confidence: 0.8383</description>
      <styleUrl>#gapStyle</styleUrl>
      <Polygon>
        <outerBoundaryIs><LinearRing><coordinates>
          114.0274381742529,22.511948312603636,0
          114.02756024685004,22.511948312603636,0
          114.02756024685004,22.512031659007334,0
          114.0274381742529,22.512031659007334,0
          114.0274381742529,22.511948312603636,0
        </coordinates></LinearRing></outerBoundaryIs>
      </Polygon>
    </Placemark>
    <Placemark>
      <name>gap_0018</name>
      <description>confidence: 0.8332</description>
      <styleUrl>#gapStyle</styleUrl>
      <Polygon>
        <outerBoundaryIs><LinearRing><coordinates>
          114.01985289624463,22.524848686134646,0
          114.02013282823646,22.524848686134646,0
          114.02013282823646,22.525170928729494,0
          114.01985289624463,22.525170928729494,0
          114.01985289624463,22.524848686134646,0
        </coordinates></LinearRing></outerBoundaryIs>
      </Polygon>
    </Placemark>
    <Placemark>
      <name>gap_0019</name>
      <description>confidence: 0.8205</description>
      <styleUrl>#gapStyle</styleUrl>
      <Polygon>
        <outerBoundaryIs><LinearRing><coordinates>
          114.02242806270806,22.52396974421572,0
          114.02256408462563,22.52396974421572,0
          114.02256408462563,22.52412852627458,0
          114.02242806270806,22.52412852627458,0
          114.02242806270806,22.52396974421572,0
        </coordinates></LinearRing></outerBoundaryIs>
      </Polygon>
    </Placemark>
    <Placemark>
      <name>gap_0020</name>
      <description>confidence: 0.8119</description>
      <styleUrl>#gapStyle</styleUrl>
      <Polygon>
        <outerBoundaryIs><LinearRing><coordinates>
          114.02029671859054,22.520035614143126,0
          114.02036574749218,22.520035614143126,0
          114.02036574749218,22.520109848992433,0
          114.02029671859054,22.520109848992433,0
          114.02029671859054,22.520035614143126,0
        </coordinates></LinearRing></outerBoundaryIs>
      </Polygon>
    </Placemark>
    <Placemark>
      <name>gap_0021</name>
      <description>confidence: 0.8114</description>
      <styleUrl>#gapStyle</styleUrl>
      <Polygon>
        <outerBoundaryIs><LinearRing><coordinates>
          114.0288420701836,22.513406173093244,0
          114.02892490827071,22.513406173093244,0
          114.02892490827071,22.513501959911082,0
          114.0288420701836,22.513501959911082,0
          114.0288420701836,22.513406173093244,0
        </coordinates></LinearRing></outerBoundaryIs>
      </Polygon>
    </Placemark>
    <Placemark>
      <name>gap_0022</name>
      <description>confidence: 0.8112</description>
      <styleUrl>#gapStyle</styleUrl>
      <Polygon>
        <outerBoundaryIs><LinearRing><coordinates>
          114.0109680707792,22.527559472200664,0
          114.01112843917872,22.527559472200664,0
          114.01112843917872,22.527721952283173,0
          114.0109680707792,22.527721952283173,0
          114.0109680707792,22.527559472200664,0
        </coordinates></LinearRing></outerBoundaryIs>
      </Polygon>
    </Placemark>
    <Placemark>
      <name>gap_0023</name>
      <description>confidence: 0.8101</description>
      <styleUrl>#gapStyle</styleUrl>
      <Polygon>
        <outerBoundaryIs><LinearRing><coordinates>
          113.99362500796997,22.52536246291129,0
          113.99377670535614,22.52536246291129,0
          113.99377670535614,22.525554091225786,0
          113.99362500796997,22.525554091225786,0
          113.99362500796997,22.52536246291129,0
        </coordinates></LinearRing></outerBoundaryIs>
      </Polygon>
    </Placemark>
    <Placemark>
      <name>gap_0024</name>
      <description>confidence: 0.8081</description>
      <styleUrl>#gapStyle</styleUrl>
      <Polygon>
        <outerBoundaryIs><LinearRing><coordinates>
          113.99562628164858,22.52486173701982,0
          113.99587472387793,22.52486173701982,0
          113.99587472387793,22.525038226176548,0
          113.99562628164858,22.525038226176548,0
          113.99562628164858,22.52486173701982,0
        </coordinates></LinearRing></outerBoundaryIs>
      </Polygon>
    </Placemark>
    <Placemark>
      <name>gap_0025</name>
      <description>confidence: 0.8066</description>
      <styleUrl>#gapStyle</styleUrl>
      <Polygon>
        <outerBoundaryIs><LinearRing><coordinates>
          114.03094883928134,22.507532491581514,0
          114.03112019943364,22.507532491581514,0
          114.03112019943364,22.50770856262534,0
          114.03094883928134,22.50770856262534,0
          114.03094883928134,22.507532491581514,0
        </coordinates></LinearRing></outerBoundaryIs>
      </Polygon>
    </Placemark>
    <Placemark>
      <name>gap_0026</name>
      <description>confidence: 0.8017</description>
      <styleUrl>#gapStyle</styleUrl>
      <Polygon>
        <outerBoundaryIs><LinearRing><coordinates>
          114.03145812568255,22.516739311377023,0
          114.03167419543024,22.516739311377023,0
          114.03167419543024,22.51697539422821,0
          114.03145812568255,22.51697539422821,0
          114.03145812568255,22.516739311377023,0
        </coordinates></LinearRing></outerBoundaryIs>
      </Polygon>
    </Placemark>
    <Placemark>
      <name>gap_0027</name>
      <description>confidence: 0.8007</description>
      <styleUrl>#gapStyle</styleUrl>
      <Polygon>
        <outerBoundaryIs><LinearRing><coordinates>
          114.00956285637676,22.527712224364222,0
          114.00977532579418,22.527712224364222,0
          114.00977532579418,22.52789499933442,0
          114.00956285637676,22.52789499933442,0
          114.00956285637676,22.527712224364222,0
        </coordinates></LinearRing></outerBoundaryIs>
      </Polygon>
    </Placemark>
    <Placemark>
      <name>gap_0028</name>
      <description>confidence: 0.7946</description>
      <styleUrl>#gapStyle</styleUrl>
      <Polygon>
        <outerBoundaryIs><LinearRing><coordinates>
          114.0195582715296,22.524994184022944,0
          114.01987813133928,22.524994184022944,0
          114.01987813133928,22.525384258151462,0
          114.0195582715296,22.525384258151462,0
          114.0195582715296,22.524994184022944,0
        </coordinates></LinearRing></outerBoundaryIs>
      </Polygon>
    </Placemark>
    <Placemark>
      <name>gap_0029</name>
      <description>confidence: 0.7913</description>
      <styleUrl>#gapStyle</styleUrl>
      <Polygon>
        <outerBoundaryIs><LinearRing><coordinates>
          114.03293724907144,22.508711625469005,0
          114.03328791896456,22.508711625469005,0
          114.03328791896456,22.509138257464656,0
          114.03293724907144,22.509138257464656,0
          114.03293724907144,22.508711625469005,0
        </coordinates></LinearRing></outerBoundaryIs>
      </Polygon>
    </Placemark>
    <Placemark>
      <name>gap_0030</name>
      <description>confidence: 0.7751</description>
      <styleUrl>#gapStyle</styleUrl>
      <Polygon>
        <outerBoundaryIs><LinearRing><coordinates>
          114.03630611460358,22.51286520510348,0
          114.03643485711655,22.51286520510348,0
          114.03643485711655,22.513046264648438,0
          114.03630611460358,22.513046264648438,0
          114.03630611460358,22.51286520510348,0
        </coordinates></LinearRing></outerBoundaryIs>
      </Polygon>
    </Placemark>
    <Placemark>
      <name>gap_0031</name>
      <description>confidence: 0.7743</description>
      <styleUrl>#gapStyle</styleUrl>
      <Polygon>
        <outerBoundaryIs><LinearRing><coordinates>
          114.02778960502474,22.510103521854035,0
          114.02793890832982,22.510103521854035,0
          114.02793890832982,22.51024108591082,0
          114.02778960502474,22.51024108591082,0
          114.02778960502474,22.510103521854035,0
        </coordinates></LinearRing></outerBoundaryIs>
      </Polygon>
    </Placemark>
    <Placemark>
      <name>gap_0032</name>
      <description>confidence: 0.7667</description>
      <styleUrl>#gapStyle</styleUrl>
      <Polygon>
        <outerBoundaryIs><LinearRing><coordinates>
          113.99885543341952,22.52485300297849,0
          113.99893712750782,22.52485300297849,0
          113.99893712750782,22.52491912113328,0
          113.99885543341952,22.52491912113328,0
          113.99885543341952,22.52485300297849,0
        </coordinates></LinearRing></outerBoundaryIs>
      </Polygon>
    </Placemark>
    <Placemark>
      <name>gap_0033</name>
      <description>confidence: 0.7666</description>
      <styleUrl>#gapStyle</styleUrl>
      <Polygon>
        <outerBoundaryIs><LinearRing><coordinates>
          114.03086229924156,22.519425504578976,0
          114.03111982142946,22.519425504578976,0
          114.03111982142946,22.519694699221873,0
          114.03086229924156,22.519694699221873,0
          114.03086229924156,22.519425504578976,0
        </coordinates></LinearRing></outerBoundaryIs>
      </Polygon>
    </Placemark>
    <Placemark>
      <name>gap_0034</name>
      <description>confidence: 0.7579</description>
      <styleUrl>#gapStyle</styleUrl>
      <Polygon>
        <outerBoundaryIs><LinearRing><coordinates>
          114.03894813247462,22.513412402549875,0
          114.03913279955304,22.513412402549875,0
          114.03913279955304,22.51362544564472,0
          114.03894813247462,22.51362544564472,0
          114.03894813247462,22.513412402549875,0
        </coordinates></LinearRing></outerBoundaryIs>
      </Polygon>
    </Placemark>
    <Placemark>
      <name>gap_0035</name>
      <description>confidence: 0.7568</description>
      <styleUrl>#gapStyle</styleUrl>
      <Polygon>
        <outerBoundaryIs><LinearRing><coordinates>
          114.01065167235174,22.527512184515217,0
          114.01091720324757,22.527512184515217,0
          114.01091720324757,22.527702360403055,0
          114.01065167235174,22.527702360403055,0
          114.01065167235174,22.527512184515217,0
        </coordinates></LinearRing></outerBoundaryIs>
      </Polygon>
    </Placemark>
    <Placemark>
      <name>gap_0036</name>
      <description>confidence: 0.7523</description>
      <styleUrl>#gapStyle</styleUrl>
      <Polygon>
        <outerBoundaryIs><LinearRing><coordinates>
          114.03558562838953,22.512609239092853,0
          114.03575978371009,22.512609239092853,0
          114.03575978371009,22.512737465840473,0
          114.03558562838953,22.512737465840473,0
          114.03558562838953,22.512609239092853,0
        </coordinates></LinearRing></outerBoundaryIs>
      </Polygon>
    </Placemark>
    <Placemark>
      <name>gap_0037</name>
      <description>confidence: 0.7388</description>
      <styleUrl>#gapStyle</styleUrl>
      <Polygon>
        <outerBoundaryIs><LinearRing><coordinates>
          114.02264022652162,22.52326210957108,0
          114.02293195514176,22.52326210957108,0
          114.02293195514176,22.52365005646425,0
          114.02264022652162,22.52365005646425,0
          114.02264022652162,22.52326210957108,0
        </coordinates></LinearRing></outerBoundaryIs>
      </Polygon>
    </Placemark>
    <Placemark>
      <name>gap_0038</name>
      <description>confidence: 0.7365</description>
      <styleUrl>#gapStyle</styleUrl>
      <Polygon>
        <outerBoundaryIs><LinearRing><coordinates>
          114.01787472412252,22.5234950043523,0
          114.0179730471209,22.5234950043523,0
          114.0179730471209,22.523596325190738,0
          114.01787472412252,22.523596325190738,0
          114.01787472412252,22.5234950043523,0
        </coordinates></LinearRing></outerBoundaryIs>
      </Polygon>
    </Placemark>
    <Placemark>
      <name>gap_0039</name>
      <description>confidence: 0.7331</description>
      <styleUrl>#gapStyle</styleUrl>
      <Polygon>
        <outerBoundaryIs><LinearRing><coordinates>
          113.99145299377778,22.52501945153199,0
          113.99175742548323,22.52501945153199,0
          113.99175742548323,22.525194950903824,0
          113.99145299377778,22.525194950903824,0
          113.99145299377778,22.52501945153199,0
        </coordinates></LinearRing></outerBoundaryIs>
      </Polygon>
    </Placemark>
    <Placemark>
      <name>gap_0040</name>
      <description>confidence: 0.7221</description>
      <styleUrl>#gapStyle</styleUrl>
      <Polygon>
        <outerBoundaryIs><LinearRing><coordinates>
          114.02743524369725,22.51194728189148,0
          114.02756524472352,22.51194728189148,0
          114.02756524472352,22.512131223411416,0
          114.02743524369725,22.512131223411416,0
          114.02743524369725,22.51194728189148,0
        </coordinates></LinearRing></outerBoundaryIs>
      </Polygon>
    </Placemark>
    <Placemark>
      <name>gap_0041</name>
      <description>confidence: 0.7184</description>
      <styleUrl>#gapStyle</styleUrl>
      <Polygon>
        <outerBoundaryIs><LinearRing><coordinates>
          113.99465268512358,22.52608594344565,0
          113.9949133711525,22.52608594344565,0
          113.9949133711525,22.52626006897117,0
          113.99465268512358,22.52626006897117,0
          113.99465268512358,22.52608594344565,0
        </coordinates></LinearRing></outerBoundaryIs>
      </Polygon>
    </Placemark>
    <Placemark>
      <name>gap_0042</name>
      <description>confidence: 0.7103</description>
      <styleUrl>#gapStyle</styleUrl>
      <Polygon>
        <outerBoundaryIs><LinearRing><coordinates>
          114.03465850591601,22.51355806365609,0
          114.0349015812717,22.51355806365609,0
          114.0349015812717,22.51377416860123,0
          114.03465850591601,22.51377416860123,0
          114.03465850591601,22.51355806365609,0
        </coordinates></LinearRing></outerBoundaryIs>
      </Polygon>
    </Placemark>
    <Placemark>
      <name>gap_0043</name>
      <description>confidence: 0.7061</description>
      <styleUrl>#gapStyle</styleUrl>
      <Polygon>
        <outerBoundaryIs><LinearRing><coordinates>
          114.00203704833984,22.529985433830007,0
          114.00233034844405,22.529985433830007,0
          114.00233034844405,22.53021240234375,0
          114.00203704833984,22.53021240234375,0
          114.00203704833984,22.529985433830007,0
        </coordinates></LinearRing></outerBoundaryIs>
      </Polygon>
    </Placemark>
    <Placemark>
      <name>gap_0044</name>
      <description>confidence: 0.7046</description>
      <styleUrl>#gapStyle</styleUrl>
      <Polygon>
        <outerBoundaryIs><LinearRing><coordinates>
          114.034635446842,22.5130983319832,0
          114.03489179294411,22.5130983319832,0
          114.03489179294411,22.513250231713755,0
          114.034635446842,22.513250231713755,0
          114.034635446842,22.5130983319832,0
        </coordinates></LinearRing></outerBoundaryIs>
      </Polygon>
    </Placemark>
    <Placemark>
      <name>gap_0045</name>
      <description>confidence: 0.7041</description>
      <styleUrl>#gapStyle</styleUrl>
      <Polygon>
        <outerBoundaryIs><LinearRing><coordinates>
          114.01396964651212,22.52535770061513,0
          114.01420439611684,22.52535770061513,0
          114.01420439611684,22.525534693995724,0
          114.01396964651212,22.525534693995724,0
          114.01396964651212,22.52535770061513,0
        </coordinates></LinearRing></outerBoundaryIs>
      </Polygon>
    </Placemark>
    <Placemark>
      <name>gap_0046</name>
      <description>confidence: 0.6863</description>
      <styleUrl>#gapStyle</styleUrl>
      <Polygon>
        <outerBoundaryIs><LinearRing><coordinates>
          113.99174519537382,22.523660466395086,0
          113.99205092555803,22.523660466395086,0
          113.99205092555803,22.523901621607365,0
          113.99174519537382,22.523901621607365,0
          113.99174519537382,22.523660466395086,0
        </coordinates></LinearRing></outerBoundaryIs>
      </Polygon>
    </Placemark>
    <Placemark>
      <name>gap_0047</name>
      <description>confidence: 0.6858</description>
      <styleUrl>#gapStyle</styleUrl>
      <Polygon>
        <outerBoundaryIs><LinearRing><coordinates>
          114.0294511472348,22.508193499925255,0
          114.02960442932454,22.508193499925255,0
          114.02960442932454,22.508331450990227,0
          114.0294511472348,22.508331450990227,0
          114.0294511472348,22.508193499925255,0
        </coordinates></LinearRing></outerBoundaryIs>
      </Polygon>
    </Placemark>
    <Placemark>
      <name>gap_0048</name>
      <description>confidence: 0.6713</description>
      <styleUrl>#gapStyle</styleUrl>
      <Polygon>
        <outerBoundaryIs><LinearRing><coordinates>
          114.01755590971788,22.525768961641006,0
          114.01790040679771,22.525768961641006,0
          114.01790040679771,22.52616702231535,0
          114.01755590971788,22.52616702231535,0
          114.01755590971788,22.525768961641006,0
        </coordinates></LinearRing></outerBoundaryIs>
      </Polygon>
    </Placemark>
    <Placemark>
      <name>gap_0049</name>
      <description>confidence: 0.6650</description>
      <styleUrl>#gapStyle</styleUrl>
      <Polygon>
        <outerBoundaryIs><LinearRing><coordinates>
          114.01120038357476,22.526066418031405,0
          114.01139406774746,22.526066418031405,0
          114.01139406774746,22.52622415398946,0
          114.01120038357476,22.52622415398946,0
          114.01120038357476,22.526066418031405,0
        </coordinates></LinearRing></outerBoundaryIs>
      </Polygon>
    </Placemark>
    <Placemark>
      <name>gap_0050</name>
      <description>confidence: 0.6586</description>
      <styleUrl>#gapStyle</styleUrl>
      <Polygon>
        <outerBoundaryIs><LinearRing><coordinates>
          114.01106593277291,22.527081870211987,0
          114.01115860649952,22.527081870211987,0
          114.01115860649952,22.52725687059865,0
          114.01106593277291,22.52725687059865,0
          114.01106593277291,22.527081870211987,0
        </coordinates></LinearRing></outerBoundaryIs>
      </Polygon>
    </Placemark>
    <Placemark>
      <name>gap_0051</name>
      <description>confidence: 0.6487</description>
      <styleUrl>#gapStyle</styleUrl>
      <Polygon>
        <outerBoundaryIs><LinearRing><coordinates>
          114.02674432497406,22.512514027221187,0
          114.02703852388186,22.512514027221187,0
          114.02703852388186,22.51281880271563,0
          114.02674432497406,22.51281880271563,0
          114.02674432497406,22.512514027221187,0
        </coordinates></LinearRing></outerBoundaryIs>
      </Polygon>
    </Placemark>
    <Placemark>
      <name>gap_0052</name>
      <description>confidence: 0.6401</description>
      <styleUrl>#gapStyle</styleUrl>
      <Polygon>
        <outerBoundaryIs><LinearRing><coordinates>
          114.03729089532135,22.51470416547818,0
          114.03755647985236,22.51470416547818,0
          114.03755647985236,22.515026574074,0
          114.03729089532135,22.515026574074,0
          114.03729089532135,22.51470416547818,0
        </coordinates></LinearRing></outerBoundaryIs>
      </Polygon>
    </Placemark>
    <Placemark>
      <name>gap_0053</name>
      <description>confidence: 0.6280</description>
      <styleUrl>#gapStyle</styleUrl>
      <Polygon>
        <outerBoundaryIs><LinearRing><coordinates>
          114.0308630617983,22.517979631520575,0
          114.03111585508668,22.517979631520575,0
          114.03111585508668,22.51819610595703,0
          114.0308630617983,22.51819610595703,0
          114.0308630617983,22.517979631520575,0
        </coordinates></LinearRing></outerBoundaryIs>
      </Polygon>
    </Placemark>
    <Placemark>
      <name>gap_0054</name>
      <description>confidence: 0.6110</description>
      <styleUrl>#gapStyle</styleUrl>
      <Polygon>
        <outerBoundaryIs><LinearRing><coordinates>
          113.99862482499884,22.52756738278549,0
          113.99888297130701,22.52756738278549,0
          113.99888297130701,22.527903451918974,0
          113.99862482499884,22.527903451918974,0
          113.99862482499884,22.52756738278549,0
        </coordinates></LinearRing></outerBoundaryIs>
      </Polygon>
    </Placemark>
    <Placemark>
      <name>gap_0055</name>
      <description>confidence: 0.6052</description>
      <styleUrl>#gapStyle</styleUrl>
      <Polygon>
        <outerBoundaryIs><LinearRing><coordinates>
          114.01079525459863,22.523720713697912,0
          114.01087637799719,22.523720713697912,0
          114.01087637799719,22.523781266727383,0
          114.01079525459863,22.523781266727383,0
          114.01079525459863,22.523720713697912,0
        </coordinates></LinearRing></outerBoundaryIs>
      </Polygon>
    </Placemark>
    <Placemark>
      <name>gap_0056</name>
      <description>confidence: 0.5967</description>
      <styleUrl>#gapStyle</styleUrl>
      <Polygon>
        <outerBoundaryIs><LinearRing><coordinates>
          114.03216420017998,22.507696209468122,0
          114.03228279330506,22.507696209468122,0
          114.03228279330506,22.50778170029662,0
          114.03216420017998,22.50778170029662,0
          114.03216420017998,22.507696209468122,0
        </coordinates></LinearRing></outerBoundaryIs>
      </Polygon>
    </Placemark>
    <Placemark>
      <name>gap_0057</name>
      <description>confidence: 0.5936</description>
      <styleUrl>#gapStyle</styleUrl>
      <Polygon>
        <outerBoundaryIs><LinearRing><coordinates>
          114.01938364108446,22.52517137909308,0
          114.01961952077272,22.52517137909308,0
          114.01961952077272,22.52551944417064,0
          114.01938364108446,22.52551944417064,0
          114.01938364108446,22.52517137909308,0
        </coordinates></LinearRing></outerBoundaryIs>
      </Polygon>
    </Placemark>
    <Placemark>
      <name>gap_0058</name>
      <description>confidence: 0.5914</description>
      <styleUrl>#gapStyle</styleUrl>
      <Polygon>
        <outerBoundaryIs><LinearRing><coordinates>
          114.01470201796201,22.52686128962523,0
          114.01487474537134,22.52686128962523,0
          114.01487474537134,22.52706929375563,0
          114.01470201796201,22.52706929375563,0
          114.01470201796201,22.52686128962523,0
        </coordinates></LinearRing></outerBoundaryIs>
      </Polygon>
    </Placemark>
    <Placemark>
      <name>gap_0059</name>
      <description>confidence: 0.5903</description>
      <styleUrl>#gapStyle</styleUrl>
      <Polygon>
        <outerBoundaryIs><LinearRing><coordinates>
          114.01771717070005,22.52311294148967,0
          114.01799137033777,22.52311294148967,0
          114.01799137033777,22.523289745950024,0
          114.01771717070005,22.523289745950024,0
          114.01771717070005,22.52311294148967,0
        </coordinates></LinearRing></outerBoundaryIs>
      </Polygon>
    </Placemark>
    <Placemark>
      <name>gap_0060</name>
      <description>confidence: 0.5855</description>
      <styleUrl>#gapStyle</styleUrl>
      <Polygon>
        <outerBoundaryIs><LinearRing><coordinates>
          114.03371696607792,22.51673736504017,0
          114.03398294940416,22.51673736504017,0
          114.03398294940416,22.51706072183879,0
          114.03371696607792,22.51706072183879,0
          114.03371696607792,22.51673736504017,0
        </coordinates></LinearRing></outerBoundaryIs>
      </Polygon>
    </Placemark>
    <Placemark>
      <name>gap_0061</name>
      <description>confidence: 0.5847</description>
      <styleUrl>#gapStyle</styleUrl>
      <Polygon>
        <outerBoundaryIs><LinearRing><coordinates>
          114.03368102031891,22.51797184568204,0
          114.03398704032952,22.51797184568204,0
          114.03398704032952,22.51819610595703,0
          114.03368102031891,22.51819610595703,0
          114.03368102031891,22.51797184568204,0
        </coordinates></LinearRing></outerBoundaryIs>
      </Polygon>
    </Placemark>
    <Placemark>
      <name>gap_0062</name>
      <description>confidence: 0.5782</description>
      <styleUrl>#gapStyle</styleUrl>
      <Polygon>
        <outerBoundaryIs><LinearRing><coordinates>
          114.027801604243,22.52040254030362,0
          114.02815355356324,22.52040254030362,0
          114.02815355356324,22.520763734519278,0
          114.027801604243,22.520763734519278,0
          114.027801604243,22.52040254030362,0
        </coordinates></LinearRing></outerBoundaryIs>
      </Polygon>
    </Placemark>
    <Placemark>
      <name>gap_0063</name>
      <description>confidence: 0.5709</description>
      <styleUrl>#gapStyle</styleUrl>
      <Polygon>
        <outerBoundaryIs><LinearRing><coordinates>
          114.02795910675195,22.50920712781408,0
          114.02825676646899,22.50920712781408,0
          114.02825676646899,22.509344580712423,0
          114.02795910675195,22.509344580712423,0
          114.02795910675195,22.50920712781408,0
        </coordinates></LinearRing></outerBoundaryIs>
      </Polygon>
    </Placemark>
    <Placemark>
      <name>gap_0064</name>
      <description>confidence: 0.5701</description>
      <styleUrl>#gapStyle</styleUrl>
      <Polygon>
        <outerBoundaryIs><LinearRing><coordinates>
          114.02829704053147,22.51206662693221,0
          114.0284235463696,22.51206662693221,0
          114.0284235463696,22.51218864976181,0
          114.02829704053147,22.51218864976181,0
          114.02829704053147,22.51206662693221,0
        </coordinates></LinearRing></outerBoundaryIs>
      </Polygon>
    </Placemark>
    <Placemark>
      <name>gap_0065</name>
      <description>confidence: 0.5693</description>
      <styleUrl>#gapStyle</styleUrl>
      <Polygon>
        <outerBoundaryIs><LinearRing><coordinates>
          114.03602600097656,22.51201825066346,0
          114.03636649078635,22.51201825066346,0
          114.03636649078635,22.512438187122825,0
          114.03602600097656,22.512438187122825,0
          114.03602600097656,22.51201825066346,0
        </coordinates></LinearRing></outerBoundaryIs>
      </Polygon>
    </Placemark>
    <Placemark>
      <name>gap_0066</name>
      <description>confidence: 0.5678</description>
      <styleUrl>#gapStyle</styleUrl>
      <Polygon>
        <outerBoundaryIs><LinearRing><coordinates>
          114.03429963653252,22.512134643293393,0
          114.03443187611629,22.512134643293393,0
          114.03443187611629,22.51227124441357,0
          114.03429963653252,22.51227124441357,0
          114.03429963653252,22.512134643293393,0
        </coordinates></LinearRing></outerBoundaryIs>
      </Polygon>
    </Placemark>
    <Placemark>
      <name>gap_0067</name>
      <description>confidence: 0.5666</description>
      <styleUrl>#gapStyle</styleUrl>
      <Polygon>
        <outerBoundaryIs><LinearRing><coordinates>
          114.02904205355298,22.509341520417365,0
          114.02929983505601,22.509341520417365,0
          114.02929983505601,22.509544025888317,0
          114.02904205355298,22.509544025888317,0
          114.02904205355298,22.509341520417365,0
        </coordinates></LinearRing></outerBoundaryIs>
      </Polygon>
    </Placemark>
    <Placemark>
      <name>gap_0068</name>
      <description>confidence: 0.5592</description>
      <styleUrl>#gapStyle</styleUrl>
      <Polygon>
        <outerBoundaryIs><LinearRing><coordinates>
          114.0290338939667,22.510341270935896,0
          114.02911314748053,22.510341270935896,0
          114.02911314748053,22.510452402202645,0
          114.0290338939667,22.510452402202645,0
          114.0290338939667,22.510341270935896,0
        </coordinates></LinearRing></outerBoundaryIs>
      </Polygon>
    </Placemark>
    <Placemark>
      <name>gap_0069</name>
      <description>confidence: 0.5530</description>
      <styleUrl>#gapStyle</styleUrl>
      <Polygon>
        <outerBoundaryIs><LinearRing><coordinates>
          114.03122971751145,22.508564540585212,0
          114.0313737035467,22.508564540585212,0
          114.0313737035467,22.508681675717526,0
          114.03122971751145,22.508681675717526,0
          114.03122971751145,22.508564540585212,0
        </coordinates></LinearRing></outerBoundaryIs>
      </Polygon>
    </Placemark>
    <Placemark>
      <name>gap_0070</name>
      <description>confidence: 0.5421</description>
      <styleUrl>#gapStyle</styleUrl>
      <Polygon>
        <outerBoundaryIs><LinearRing><coordinates>
          114.02879413216397,22.517546325107105,0
          114.02888461890143,22.517546325107105,0
          114.02888461890143,22.517618403580855,0
          114.02879413216397,22.517618403580855,0
          114.02879413216397,22.517546325107105,0
        </coordinates></LinearRing></outerBoundaryIs>
      </Polygon>
    </Placemark>
    <Placemark>
      <name>gap_0071</name>
      <description>confidence: 0.5388</description>
      <styleUrl>#gapStyle</styleUrl>
      <Polygon>
        <outerBoundaryIs><LinearRing><coordinates>
          114.01892499492533,22.52545323679442,0
          114.01928190487524,22.52545323679442,0
          114.01928190487524,22.5257906522711,0
          114.01892499492533,22.5257906522711,0
          114.01892499492533,22.52545323679442,0
        </coordinates></LinearRing></outerBoundaryIs>
      </Polygon>
    </Placemark>
    <Placemark>
      <name>gap_0072</name>
      <description>confidence: 0.5387</description>
      <styleUrl>#gapStyle</styleUrl>
      <Polygon>
        <outerBoundaryIs><LinearRing><coordinates>
          113.99477728751663,22.523913238401292,0
          113.99505871777365,22.523913238401292,0
          113.99505871777365,22.524267969056382,0
          113.99477728751663,22.524267969056382,0
          113.99477728751663,22.523913238401292,0
        </coordinates></LinearRing></outerBoundaryIs>
      </Polygon>
    </Placemark>
    <Placemark>
      <name>gap_0073</name>
      <description>confidence: 0.5315</description>
      <styleUrl>#gapStyle</styleUrl>
      <Polygon>
        <outerBoundaryIs><LinearRing><coordinates>
          114.01794260345923,22.524085006352834,0
          114.01816622936167,22.524085006352834,0
          114.01816622936167,22.524407006658294,0
          114.01794260345923,22.524407006658294,0
          114.01794260345923,22.524085006352834,0
        </coordinates></LinearRing></outerBoundaryIs>
      </Polygon>
    </Placemark>
    <Placemark>
      <name>gap_0074</name>
      <description>confidence: 0.5250</description>
      <styleUrl>#gapStyle</styleUrl>
      <Polygon>
        <outerBoundaryIs><LinearRing><coordinates>
          114.03226020964212,22.50969437398453,0
          114.03251156196347,22.50969437398453,0
          114.03251156196347,22.50994142403215,0
          114.03226020964212,22.50994142403215,0
          114.03226020964212,22.50969437398453,0
        </coordinates></LinearRing></outerBoundaryIs>
      </Polygon>
    </Placemark>
    <Placemark>
      <name>gap_0075</name>
      <description>confidence: 0.5182</description>
      <styleUrl>#gapStyle</styleUrl>
      <Polygon>
        <outerBoundaryIs><LinearRing><coordinates>
          114.03828628594056,22.511532996177266,0
          114.03847730558482,22.511532996177266,0
          114.03847730558482,22.51169857543573,0
          114.03828628594056,22.51169857543573,0
          114.03828628594056,22.511532996177266,0
        </coordinates></LinearRing></outerBoundaryIs>
      </Polygon>
    </Placemark>
    <Placemark>
      <name>gap_0076</name>
      <description>confidence: 0.5179</description>
      <styleUrl>#gapStyle</styleUrl>
      <Polygon>
        <outerBoundaryIs><LinearRing><coordinates>
          114.03106998790463,22.509089025079447,0
          114.03115497581894,22.509089025079447,0
          114.03115497581894,22.509186518236675,0
          114.03106998790463,22.509186518236675,0
          114.03106998790463,22.509089025079447,0
        </coordinates></LinearRing></outerBoundaryIs>
      </Polygon>
    </Placemark>
    <Placemark>
      <name>gap_0077</name>
      <description>confidence: 0.5124</description>
      <styleUrl>#gapStyle</styleUrl>
      <Polygon>
        <outerBoundaryIs><LinearRing><coordinates>
          114.0302057315057,22.512663593606703,0
          114.03033916682034,22.512663593606703,0
          114.03033916682034,22.512753400460497,0
          114.0302057315057,22.512753400460497,0
          114.0302057315057,22.512663593606703,0
        </coordinates></LinearRing></outerBoundaryIs>
      </Polygon>
    </Placemark>
    <Placemark>
      <name>gap_0078</name>
      <description>confidence: 0.5122</description>
      <styleUrl>#gapStyle</styleUrl>
      <Polygon>
        <outerBoundaryIs><LinearRing><coordinates>
          114.03775164559192,22.514010728909852,0
          114.03801028493035,22.514010728909852,0
          114.03801028493035,22.514155364706312,0
          114.03775164559192,22.514155364706312,0
          114.03775164559192,22.514010728909852,0
        </coordinates></LinearRing></outerBoundaryIs>
      </Polygon>
    </Placemark>
    <Placemark>
      <name>gap_0079</name>
      <description>confidence: 0.5105</description>
      <styleUrl>#gapStyle</styleUrl>
      <Polygon>
        <outerBoundaryIs><LinearRing><coordinates>
          114.0260766343954,22.521639283077093,0
          114.02627210880837,22.521639283077093,0
          114.02627210880837,22.521777440415462,0
          114.0260766343954,22.521777440415462,0
          114.0260766343954,22.521639283077093,0
        </coordinates></LinearRing></outerBoundaryIs>
      </Polygon>
    </Placemark>
    <Placemark>
      <name>gap_0080</name>
      <description>confidence: 0.5104</description>
      <styleUrl>#gapStyle</styleUrl>
      <Polygon>
        <outerBoundaryIs><LinearRing><coordinates>
          114.03124395283157,22.507310481159948,0
          114.03142838940767,22.507310481159948,0
          114.03142838940767,22.507424285140587,0
          114.03124395283157,22.507424285140587,0
          114.03124395283157,22.507310481159948,0
        </coordinates></LinearRing></outerBoundaryIs>
      </Polygon>
    </Placemark>
    <Placemark>
      <name>gap_0081</name>
      <description>confidence: 0.5061</description>
      <styleUrl>#gapStyle</styleUrl>
      <Polygon>
        <outerBoundaryIs><LinearRing><coordinates>
          114.03582401446329,22.51657978460571,0
          114.03610794619453,22.51657978460571,0
          114.03610794619453,22.51687224304078,0
          114.03582401446329,22.51687224304078,0
          114.03582401446329,22.51657978460571,0
        </coordinates></LinearRing></outerBoundaryIs>
      </Polygon>
    </Placemark>
    <Placemark>
      <name>gap_0082</name>
      <description>confidence: 0.4952</description>
      <styleUrl>#gapStyle</styleUrl>
      <Polygon>
        <outerBoundaryIs><LinearRing><coordinates>
          114.03306545658324,22.513860798353562,0
          114.03324732685633,22.513860798353562,0
          114.03324732685633,22.51409621523635,0
          114.03306545658324,22.51409621523635,0
          114.03306545658324,22.513860798353562,0
        </coordinates></LinearRing></outerBoundaryIs>
      </Polygon>
    </Placemark>
    <Placemark>
      <name>gap_0083</name>
      <description>confidence: 0.4948</description>
      <styleUrl>#gapStyle</styleUrl>
      <Polygon>
        <outerBoundaryIs><LinearRing><coordinates>
          114.03648778875322,22.509616425231798,0
          114.03674642670012,22.509616425231798,0
          114.03674642670012,22.509703016185085,0
          114.03648778875322,22.509703016185085,0
          114.03648778875322,22.509616425231798,0
        </coordinates></LinearRing></outerBoundaryIs>
      </Polygon>
    </Placemark>
    <Placemark>
      <name>gap_0084</name>
      <description>confidence: 0.4926</description>
      <styleUrl>#gapStyle</styleUrl>
      <Polygon>
        <outerBoundaryIs><LinearRing><coordinates>
          113.99758828447375,22.525066267407965,0
          113.99782081549347,22.525066267407965,0
          113.99782081549347,22.525218894006684,0
          113.99758828447375,22.525218894006684,0
          113.99758828447375,22.525066267407965,0
        </coordinates></LinearRing></outerBoundaryIs>
      </Polygon>
    </Placemark>
    <Placemark>
      <name>gap_0085</name>
      <description>confidence: 0.4907</description>
      <styleUrl>#gapStyle</styleUrl>
      <Polygon>
        <outerBoundaryIs><LinearRing><coordinates>
          114.02934934672885,22.508536456625734,0
          114.02947464112003,22.508536456625734,0
          114.02947464112003,22.5086872798056,0
          114.02934934672885,22.5086872798056,0
          114.02934934672885,22.508536456625734,0
        </coordinates></LinearRing></outerBoundaryIs>
      </Polygon>
    </Placemark>
    <Placemark>
      <name>gap_0086</name>
      <description>confidence: 0.4883</description>
      <styleUrl>#gapStyle</styleUrl>
      <Polygon>
        <outerBoundaryIs><LinearRing><coordinates>
          114.02706819393643,22.510114178453478,0
          114.02737016018364,22.510114178453478,0
          114.02737016018364,22.510299682617188,0
          114.02706819393643,22.510299682617188,0
          114.02706819393643,22.510114178453478,0
        </coordinates></LinearRing></outerBoundaryIs>
      </Polygon>
    </Placemark>
    <Placemark>
      <name>gap_0087</name>
      <description>confidence: 0.4841</description>
      <styleUrl>#gapStyle</styleUrl>
      <Polygon>
        <outerBoundaryIs><LinearRing><coordinates>
          114.0167481046592,22.527364421221137,0
          114.01714222534792,22.527364421221137,0
          114.01714222534792,22.527687269866874,0
          114.0167481046592,22.527687269866874,0
          114.0167481046592,22.527364421221137,0
        </coordinates></LinearRing></outerBoundaryIs>
      </Polygon>
    </Placemark>
    <Placemark>
      <name>gap_0088</name>
      <description>confidence: 0.4837</description>
      <styleUrl>#gapStyle</styleUrl>
      <Polygon>
        <outerBoundaryIs><LinearRing><coordinates>
          114.02778625488281,22.51926650904352,0
          114.02793369407391,22.51926650904352,0
          114.02793369407391,22.51950934980414,0
          114.02778625488281,22.51950934980414,0
          114.02778625488281,22.51926650904352,0
        </coordinates></LinearRing></outerBoundaryIs>
      </Polygon>
    </Placemark>
    <Placemark>
      <name>gap_0089</name>
      <description>confidence: 0.4819</description>
      <styleUrl>#gapStyle</styleUrl>
      <Polygon>
        <outerBoundaryIs><LinearRing><coordinates>
          114.03213080738169,22.51852851914009,0
          114.03239999596735,22.51852851914009,0
          114.03239999596735,22.51866482067271,0
          114.03213080738169,22.51866482067271,0
          114.03213080738169,22.51852851914009,0
        </coordinates></LinearRing></outerBoundaryIs>
      </Polygon>
    </Placemark>
    <Placemark>
      <name>gap_0090</name>
      <description>confidence: 0.4798</description>
      <styleUrl>#gapStyle</styleUrl>
      <Polygon>
        <outerBoundaryIs><LinearRing><coordinates>
          114.02898508918952,22.519933426956413,0
          114.02926138192925,22.519933426956413,0
          114.02926138192925,22.520154516678303,0
          114.02898508918952,22.520154516678303,0
          114.02898508918952,22.519933426956413,0
        </coordinates></LinearRing></outerBoundaryIs>
      </Polygon>
    </Placemark>
    <Placemark>
      <name>gap_0091</name>
      <description>confidence: 0.4687</description>
      <styleUrl>#gapStyle</styleUrl>
      <Polygon>
        <outerBoundaryIs><LinearRing><coordinates>
          114.02142446928337,22.523975965978025,0
          114.02171231038665,22.523975965978025,0
          114.02171231038665,22.524285706276714,0
          114.02142446928337,22.524285706276714,0
          114.02142446928337,22.523975965978025,0
        </coordinates></LinearRing></outerBoundaryIs>
      </Polygon>
    </Placemark>
    <Placemark>
      <name>gap_0092</name>
      <description>confidence: 0.4669</description>
      <styleUrl>#gapStyle</styleUrl>
      <Polygon>
        <outerBoundaryIs><LinearRing><coordinates>
          114.03394418081007,22.51204678817885,0
          114.03402237283444,22.51204678817885,0
          114.03402237283444,22.512239069037605,0
          114.03394418081007,22.512239069037605,0
          114.03394418081007,22.51204678817885,0
        </coordinates></LinearRing></outerBoundaryIs>
      </Polygon>
    </Placemark>
    <Placemark>
      <name>gap_0093</name>
      <description>confidence: 0.4592</description>
      <styleUrl>#gapStyle</styleUrl>
      <Polygon>
        <outerBoundaryIs><LinearRing><coordinates>
          114.01762959209009,22.52482680521325,0
          114.01780249503645,22.52482680521325,0
          114.01780249503645,22.525062561035156,0
          114.01762959209009,22.525062561035156,0
          114.01762959209009,22.52482680521325,0
        </coordinates></LinearRing></outerBoundaryIs>
      </Polygon>
    </Placemark>
    <Placemark>
      <name>gap_0094</name>
      <description>confidence: 0.4490</description>
      <styleUrl>#gapStyle</styleUrl>
      <Polygon>
        <outerBoundaryIs><LinearRing><coordinates>
          114.01706037810982,22.527049718082708,0
          114.01738476160972,22.527049718082708,0
          114.01738476160972,22.527472529109218,0
          114.01706037810982,22.527472529109218,0
          114.01706037810982,22.527049718082708,0
        </coordinates></LinearRing></outerBoundaryIs>
      </Polygon>
    </Placemark>
    <Placemark>
      <name>gap_0095</name>
      <description>confidence: 0.4474</description>
      <styleUrl>#gapStyle</styleUrl>
      <Polygon>
        <outerBoundaryIs><LinearRing><coordinates>
          114.0340646452114,22.510798474613694,0
          114.03415875040992,22.510798474613694,0
          114.03415875040992,22.5109359358612,0
          114.0340646452114,22.5109359358612,0
          114.0340646452114,22.510798474613694,0
        </coordinates></LinearRing></outerBoundaryIs>
      </Polygon>
    </Placemark>
    <Placemark>
      <name>gap_0096</name>
      <description>confidence: 0.4396</description>
      <styleUrl>#gapStyle</styleUrl>
      <Polygon>
        <outerBoundaryIs><LinearRing><coordinates>
          114.0295525905276,22.518107137457264,0
          114.02977275070953,22.518107137457264,0
          114.02977275070953,22.51829437116612,0
          114.0295525905276,22.51829437116612,0
          114.0295525905276,22.518107137457264,0
        </coordinates></LinearRing></outerBoundaryIs>
      </Polygon>
    </Placemark>
    <Placemark>
      <name>gap_0097</name>
      <description>confidence: 0.4302</description>
      <styleUrl>#gapStyle</styleUrl>
      <Polygon>
        <outerBoundaryIs><LinearRing><coordinates>
          113.99672541043401,22.527758620162786,0
          113.9968238493384,22.527758620162786,0
          113.9968238493384,22.52785327444144,0
          113.99672541043401,22.52785327444144,0
          113.99672541043401,22.527758620162786,0
        </coordinates></LinearRing></outerBoundaryIs>
      </Polygon>
    </Placemark>
    <Placemark>
      <name>gap_0098</name>
      <description>confidence: 0.4241</description>
      <styleUrl>#gapStyle</styleUrl>
      <Polygon>
        <outerBoundaryIs><LinearRing><coordinates>
          113.99283145750815,22.524469545642205,0
          113.99302667203301,22.524469545642205,0
          113.99302667203301,22.52464382308972,0
          113.99283145750815,22.52464382308972,0
          113.99283145750815,22.524469545642205,0
        </coordinates></LinearRing></outerBoundaryIs>
      </Polygon>
    </Placemark>
    <Placemark>
      <name>gap_0099</name>
      <description>confidence: 0.4236</description>
      <styleUrl>#gapStyle</styleUrl>
      <Polygon>
        <outerBoundaryIs><LinearRing><coordinates>
          113.99691660751841,22.527488787382026,0
          113.99712169496752,22.527488787382026,0
          113.99712169496752,22.527722247614292,0
          113.99691660751841,22.527722247614292,0
          113.99691660751841,22.527488787382026,0
        </coordinates></LinearRing></outerBoundaryIs>
      </Polygon>
    </Placemark>
    <Placemark>
      <name>gap_0100</name>
      <description>confidence: 0.4140</description>
      <styleUrl>#gapStyle</styleUrl>
      <Polygon>
        <outerBoundaryIs><LinearRing><coordinates>
          114.02950620698675,22.510119693565684,0
          114.02967497282134,22.510119693565684,0
          114.02967497282134,22.510299682617188,0
          114.02950620698675,22.510299682617188,0
          114.02950620698675,22.510119693565684,0
        </coordinates></LinearRing></outerBoundaryIs>
      </Polygon>
    </Placemark>
    <Placemark>
      <name>gap_0101</name>
      <description>confidence: 0.3997</description>
      <styleUrl>#gapStyle</styleUrl>
      <Polygon>
        <outerBoundaryIs><LinearRing><coordinates>
          114.03520098072477,22.51285282515937,0
          114.03539611994347,22.51285282515937,0
          114.03539611994347,22.513046264648438,0
          114.03520098072477,22.513046264648438,0
          114.03520098072477,22.51285282515937,0
        </coordinates></LinearRing></outerBoundaryIs>
      </Polygon>
    </Placemark>
    <Placemark>
      <name>gap_0102</name>
      <description>confidence: 0.3964</description>
      <styleUrl>#gapStyle</styleUrl>
      <Polygon>
        <outerBoundaryIs><LinearRing><coordinates>
          114.0364094827055,22.51370551131913,0
          114.03679142810688,22.51370551131913,0
          114.03679142810688,22.514010514696565,0
          114.0364094827055,22.514010514696565,0
          114.0364094827055,22.51370551131913,0
        </coordinates></LinearRing></outerBoundaryIs>
      </Polygon>
    </Placemark>
    <Placemark>
      <name>gap_0103</name>
      <description>confidence: 0.3952</description>
      <styleUrl>#gapStyle</styleUrl>
      <Polygon>
        <outerBoundaryIs><LinearRing><coordinates>
          114.02652541503812,22.521123620863364,0
          114.02680459707881,22.521123620863364,0
          114.02680459707881,22.521382097802416,0
          114.02652541503812,22.521382097802416,0
          114.02652541503812,22.521123620863364,0
        </coordinates></LinearRing></outerBoundaryIs>
      </Polygon>
    </Placemark>
    <Placemark>
      <name>gap_0104</name>
      <description>confidence: 0.3938</description>
      <styleUrl>#gapStyle</styleUrl>
      <Polygon>
        <outerBoundaryIs><LinearRing><coordinates>
          114.01064067085827,22.52457471920934,0
          114.01072673172166,22.52457471920934,0
          114.01072673172166,22.524630402876937,0
          114.01064067085827,22.524630402876937,0
          114.01064067085827,22.52457471920934,0
        </coordinates></LinearRing></outerBoundaryIs>
      </Polygon>
    </Placemark>
    <Placemark>
      <name>gap_0105</name>
      <description>confidence: 0.3915</description>
      <styleUrl>#gapStyle</styleUrl>
      <Polygon>
        <outerBoundaryIs><LinearRing><coordinates>
          114.00803064901993,22.526561045842755,0
          114.00824911415839,22.526561045842755,0
          114.00824911415839,22.526779174804688,0
          114.00803064901993,22.526779174804688,0
          114.00803064901993,22.526561045842755,0
        </coordinates></LinearRing></outerBoundaryIs>
      </Polygon>
    </Placemark>
    <Placemark>
      <name>gap_0106</name>
      <description>confidence: 0.3875</description>
      <styleUrl>#gapStyle</styleUrl>
      <Polygon>
        <outerBoundaryIs><LinearRing><coordinates>
          114.0243593499099,22.522351112766046,0
          114.02465405506746,22.522351112766046,0
          114.02465405506746,22.5226611112339,0
          114.0243593499099,22.5226611112339,0
          114.0243593499099,22.522351112766046,0
        </coordinates></LinearRing></outerBoundaryIs>
      </Polygon>
    </Placemark>
    <Placemark>
      <name>gap_0107</name>
      <description>confidence: 0.3872</description>
      <styleUrl>#gapStyle</styleUrl>
      <Polygon>
        <outerBoundaryIs><LinearRing><coordinates>
          113.99358124232094,22.52400440567726,0
          113.99383189265791,22.52400440567726,0
          113.99383189265791,22.524219520673796,0
          113.99358124232094,22.524219520673796,0
          113.99358124232094,22.52400440567726,0
        </coordinates></LinearRing></outerBoundaryIs>
      </Polygon>
    </Placemark>
    <Placemark>
      <name>gap_0108</name>
      <description>confidence: 0.3718</description>
      <styleUrl>#gapStyle</styleUrl>
      <Polygon>
        <outerBoundaryIs><LinearRing><coordinates>
          114.03468199585177,22.516132644614117,0
          114.03495228644488,22.516132644614117,0
          114.03495228644488,22.516310100963892,0
          114.03468199585177,22.516310100963892,0
          114.03468199585177,22.516132644614117,0
        </coordinates></LinearRing></outerBoundaryIs>
      </Polygon>
    </Placemark>
    <Placemark>
      <name>gap_0109</name>
      <description>confidence: 0.3717</description>
      <styleUrl>#gapStyle</styleUrl>
      <Polygon>
        <outerBoundaryIs><LinearRing><coordinates>
          114.02778992157664,22.511069793381466,0
          114.02792375497029,22.511069793381466,0
          114.02792375497029,22.51123356660173,0
          114.02778992157664,22.51123356660173,0
          114.02778992157664,22.511069793381466,0
        </coordinates></LinearRing></outerBoundaryIs>
      </Polygon>
    </Placemark>
    <Placemark>
      <name>gap_0110</name>
      <description>confidence: 0.3705</description>
      <styleUrl>#gapStyle</styleUrl>
      <Polygon>
        <outerBoundaryIs><LinearRing><coordinates>
          114.036716943192,22.51346544984699,0
          114.03685675350062,22.51346544984699,0
          114.03685675350062,22.51356303157081,0
          114.036716943192,22.51356303157081,0
          114.036716943192,22.51346544984699,0
        </coordinates></LinearRing></outerBoundaryIs>
      </Polygon>
    </Placemark>
    <Placemark>
      <name>gap_0111</name>
      <description>confidence: 0.3527</description>
      <styleUrl>#gapStyle</styleUrl>
      <Polygon>
        <outerBoundaryIs><LinearRing><coordinates>
          114.03374250796332,22.516982733304758,0
          114.0340236117845,22.516982733304758,0
          114.0340236117845,22.517281317650486,0
          114.03374250796332,22.517281317650486,0
          114.03374250796332,22.516982733304758,0
        </coordinates></LinearRing></outerBoundaryIs>
      </Polygon>
    </Placemark>
    <Placemark>
      <name>gap_0112</name>
      <description>confidence: 0.3488</description>
      <styleUrl>#gapStyle</styleUrl>
      <Polygon>
        <outerBoundaryIs><LinearRing><coordinates>
          114.01684146170737,22.524575806564826,0
          114.01723756818683,22.524575806564826,0
          114.01723756818683,22.524833038005454,0
          114.01684146170737,22.524833038005454,0
          114.01684146170737,22.524575806564826,0
        </coordinates></LinearRing></outerBoundaryIs>
      </Polygon>
    </Placemark>
    <Placemark>
      <name>gap_0113</name>
      <description>confidence: 0.3478</description>
      <styleUrl>#gapStyle</styleUrl>
      <Polygon>
        <outerBoundaryIs><LinearRing><coordinates>
          114.02755644536228,22.519278369436506,0
          114.027730042435,22.519278369436506,0
          114.027730042435,22.519388024375075,0
          114.02755644536228,22.519388024375075,0
          114.02755644536228,22.519278369436506,0
        </coordinates></LinearRing></outerBoundaryIs>
      </Polygon>
    </Placemark>
    <Placemark>
      <name>gap_0114</name>
      <description>confidence: 0.3454</description>
      <styleUrl>#gapStyle</styleUrl>
      <Polygon>
        <outerBoundaryIs><LinearRing><coordinates>
          114.02552859810385,22.521447123199323,0
          114.02579062229051,22.521447123199323,0
          114.02579062229051,22.521629333496094,0
          114.02552859810385,22.521629333496094,0
          114.02552859810385,22.521447123199323,0
        </coordinates></LinearRing></outerBoundaryIs>
      </Polygon>
    </Placemark>
    <Placemark>
      <name>gap_0115</name>
      <description>confidence: 0.3440</description>
      <styleUrl>#gapStyle</styleUrl>
      <Polygon>
        <outerBoundaryIs><LinearRing><coordinates>
          114.03214641613886,22.508819128124742,0
          114.03226162507053,22.508819128124742,0
          114.03226162507053,22.508895480059437,0
          114.03214641613886,22.508895480059437,0
          114.03214641613886,22.508819128124742,0
        </coordinates></LinearRing></outerBoundaryIs>
      </Polygon>
    </Placemark>
    <Placemark>
      <name>gap_0116</name>
      <description>confidence: 0.3438</description>
      <styleUrl>#gapStyle</styleUrl>
      <Polygon>
        <outerBoundaryIs><LinearRing><coordinates>
          114.02844025778904,22.518540874261816,0
          114.02866212823938,22.518540874261816,0
          114.02866212823938,22.518780156970024,0
          114.02844025778904,22.518780156970024,0
          114.02844025778904,22.518540874261816,0
        </coordinates></LinearRing></outerBoundaryIs>
      </Polygon>
    </Placemark>
    <Placemark>
      <name>gap_0117</name>
      <description>confidence: 0.3423</description>
      <styleUrl>#gapStyle</styleUrl>
      <Polygon>
        <outerBoundaryIs><LinearRing><coordinates>
          113.99221069048508,22.52476493946233,0
          113.99247404554444,22.52476493946233,0
          113.99247404554444,22.525045903475984,0
          113.99221069048508,22.525045903475984,0
          113.99221069048508,22.52476493946233,0
        </coordinates></LinearRing></outerBoundaryIs>
      </Polygon>
    </Placemark>
    <Placemark>
      <name>gap_0118</name>
      <description>confidence: 0.3412</description>
      <styleUrl>#gapStyle</styleUrl>
      <Polygon>
        <outerBoundaryIs><LinearRing><coordinates>
          114.03889625373267,22.514876431760058,0
          114.03917951753101,22.514876431760058,0
          114.03917951753101,22.5151123129217,0
          114.03889625373267,22.5151123129217,0
          114.03889625373267,22.514876431760058,0
        </coordinates></LinearRing></outerBoundaryIs>
      </Polygon>
    </Placemark>
    <Placemark>
      <name>gap_0119</name>
      <description>confidence: 0.3324</description>
      <styleUrl>#gapStyle</styleUrl>
      <Polygon>
        <outerBoundaryIs><LinearRing><coordinates>
          114.03174928525004,22.510944335485874,0
          114.03183612749672,22.510944335485874,0
          114.03183612749672,22.511046160875594,0
          114.03174928525004,22.511046160875594,0
          114.03174928525004,22.510944335485874,0
        </coordinates></LinearRing></outerBoundaryIs>
      </Polygon>
    </Placemark>
    <Placemark>
      <name>gap_0120</name>
      <description>confidence: 0.3315</description>
      <styleUrl>#gapStyle</styleUrl>
      <Polygon>
        <outerBoundaryIs><LinearRing><coordinates>
          114.03180942254039,22.50938052409765,0
          114.03205664579218,22.50938052409765,0
          114.03205664579218,22.509537352125335,0
          114.03180942254039,22.509537352125335,0
          114.03180942254039,22.50938052409765,0
        </coordinates></LinearRing></outerBoundaryIs>
      </Polygon>
    </Placemark>
    <Placemark>
      <name>gap_0121</name>
      <description>confidence: 0.3306</description>
      <styleUrl>#gapStyle</styleUrl>
      <Polygon>
        <outerBoundaryIs><LinearRing><coordinates>
          114.01956615616655,22.525067875685636,0
          114.01990326976374,22.525067875685636,0
          114.01990326976374,22.525167559433612,0
          114.01956615616655,22.525167559433612,0
          114.01956615616655,22.525067875685636,0
        </coordinates></LinearRing></outerBoundaryIs>
      </Polygon>
    </Placemark>
    <Placemark>
      <name>gap_0122</name>
      <description>confidence: 0.3287</description>
      <styleUrl>#gapStyle</styleUrl>
      <Polygon>
        <outerBoundaryIs><LinearRing><coordinates>
          114.03649658467657,22.51624442377988,0
          114.03676507176897,22.51624442377988,0
          114.03676507176897,22.516459635201045,0
          114.03649658467657,22.516459635201045,0
          114.03649658467657,22.51624442377988,0
        </coordinates></LinearRing></outerBoundaryIs>
      </Polygon>
    </Placemark>
    <Placemark>
      <name>gap_0123</name>
      <description>confidence: 0.3281</description>
      <styleUrl>#gapStyle</styleUrl>
      <Polygon>
        <outerBoundaryIs><LinearRing><coordinates>
          114.0366239480636,22.512942647463206,0
          114.03687489475487,22.512942647463206,0
          114.03687489475487,22.513150339564163,0
          114.0366239480636,22.513150339564163,0
          114.0366239480636,22.512942647463206,0
        </coordinates></LinearRing></outerBoundaryIs>
      </Polygon>
    </Placemark>
    <Placemark>
      <name>gap_0124</name>
      <description>confidence: 0.3233</description>
      <styleUrl>#gapStyle</styleUrl>
      <Polygon>
        <outerBoundaryIs><LinearRing><coordinates>
          114.01875196625042,22.528593515180546,0
          114.0188817629678,22.528593515180546,0
          114.0188817629678,22.528853154781245,0
          114.01875196625042,22.528853154781245,0
          114.01875196625042,22.528593515180546,0
        </coordinates></LinearRing></outerBoundaryIs>
      </Polygon>
    </Placemark>
    <Placemark>
      <name>gap_0125</name>
      <description>confidence: 0.3222</description>
      <styleUrl>#gapStyle</styleUrl>
      <Polygon>
        <outerBoundaryIs><LinearRing><coordinates>
          114.02413159841672,22.524115120468196,0
          114.02437634540547,22.524115120468196,0
          114.02437634540547,22.52430129530694,0
          114.02413159841672,22.52430129530694,0
          114.02413159841672,22.524115120468196,0
        </coordinates></LinearRing></outerBoundaryIs>
      </Polygon>
    </Placemark>
    <Placemark>
      <name>gap_0126</name>
      <description>confidence: 0.3217</description>
      <styleUrl>#gapStyle</styleUrl>
      <Polygon>
        <outerBoundaryIs><LinearRing><coordinates>
          113.99684055420948,22.525178867799696,0
          113.99710967256397,22.525178867799696,0
          113.99710967256397,22.525525425444357,0
          113.99684055420948,22.525525425444357,0
          113.99684055420948,22.525178867799696,0
        </coordinates></LinearRing></outerBoundaryIs>
      </Polygon>
    </Placemark>
    <Placemark>
      <name>gap_0127</name>
      <description>confidence: 0.3179</description>
      <styleUrl>#gapStyle</styleUrl>
      <Polygon>
        <outerBoundaryIs><LinearRing><coordinates>
          114.01785682802256,22.524086400335364,0
          114.01809776607479,22.524086400335364,0
          114.01809776607479,22.524411967860942,0
          114.01785682802256,22.524411967860942,0
          114.01785682802256,22.524086400335364,0
        </coordinates></LinearRing></outerBoundaryIs>
      </Polygon>
    </Placemark>
    <Placemark>
      <name>gap_0128</name>
      <description>confidence: 0.3171</description>
      <styleUrl>#gapStyle</styleUrl>
      <Polygon>
        <outerBoundaryIs><LinearRing><coordinates>
          114.00290790941654,22.528708672216453,0
          114.00305647210189,22.528708672216453,0
          114.00305647210189,22.528825627596234,0
          114.00290790941654,22.528825627596234,0
          114.00290790941654,22.528708672216453,0
        </coordinates></LinearRing></outerBoundaryIs>
      </Polygon>
    </Placemark>
    <Placemark>
      <name>gap_0129</name>
      <description>confidence: 0.3171</description>
      <styleUrl>#gapStyle</styleUrl>
      <Polygon>
        <outerBoundaryIs><LinearRing><coordinates>
          114.02091979980469,22.52506365723093,0
          114.02119683373712,22.52506365723093,0
          114.02119683373712,22.52523064831621,0
          114.02091979980469,22.52523064831621,0
          114.02091979980469,22.52506365723093,0
        </coordinates></LinearRing></outerBoundaryIs>
      </Polygon>
    </Placemark>
    <Placemark>
      <name>gap_0130</name>
      <description>confidence: 0.3142</description>
      <styleUrl>#gapStyle</styleUrl>
      <Polygon>
        <outerBoundaryIs><LinearRing><coordinates>
          114.03759876753611,22.512826803422286,0
          114.03777422827261,22.512826803422286,0
          114.03777422827261,22.512954175404047,0
          114.03759876753611,22.512954175404047,0
          114.03759876753611,22.512826803422286,0
        </coordinates></LinearRing></outerBoundaryIs>
      </Polygon>
    </Placemark>
    <Placemark>
      <name>gap_0131</name>
      <description>confidence: 0.3133</description>
      <styleUrl>#gapStyle</styleUrl>
      <Polygon>
        <outerBoundaryIs><LinearRing><coordinates>
          114.03095092395233,22.514493467351713,0
          114.0312147993609,22.514493467351713,0
          114.0312147993609,22.5149066558879,0
          114.03095092395233,22.5149066558879,0
          114.03095092395233,22.514493467351713,0
        </coordinates></LinearRing></outerBoundaryIs>
      </Polygon>
    </Placemark>
    <Placemark>
      <name>gap_0132</name>
      <description>confidence: 0.3102</description>
      <styleUrl>#gapStyle</styleUrl>
      <Polygon>
        <outerBoundaryIs><LinearRing><coordinates>
          114.02687219229847,22.5231599030667,0
          114.02712110339053,22.5231599030667,0
          114.02712110339053,22.52335354598472,0
          114.02687219229847,22.52335354598472,0
          114.02687219229847,22.5231599030667,0
        </coordinates></LinearRing></outerBoundaryIs>
      </Polygon>
    </Placemark>
    <Placemark>
      <name>gap_0133</name>
      <description>confidence: 0.3076</description>
      <styleUrl>#gapStyle</styleUrl>
      <Polygon>
        <outerBoundaryIs><LinearRing><coordinates>
          114.0329360961914,22.51525214598587,0
          114.03311833677435,22.51525214598587,0
          114.03311833677435,22.515600448768964,0
          114.0329360961914,22.515600448768964,0
          114.0329360961914,22.51525214598587,0
        </coordinates></LinearRing></outerBoundaryIs>
      </Polygon>
    </Placemark>
    <Placemark>
      <name>gap_0134</name>
      <description>confidence: 0.2999</description>
      <styleUrl>#gapStyle</styleUrl>
      <Polygon>
        <outerBoundaryIs><LinearRing><coordinates>
          114.02847114182805,22.507896423339844,0
          114.02885059484106,22.507896423339844,0
          114.02885059484106,22.50818004271423,0
          114.02847114182805,22.50818004271423,0
          114.02847114182805,22.507896423339844,0
        </coordinates></LinearRing></outerBoundaryIs>
      </Polygon>
    </Placemark>
    <Placemark>
      <name>gap_0135</name>
      <description>confidence: 0.2998</description>
      <styleUrl>#gapStyle</styleUrl>
      <Polygon>
        <outerBoundaryIs><LinearRing><coordinates>
          114.02794390145573,22.51223697896421,0
          114.02802423872345,22.51223697896421,0
          114.02802423872345,22.51234135690538,0
          114.02794390145573,22.51234135690538,0
          114.02794390145573,22.51223697896421,0
        </coordinates></LinearRing></outerBoundaryIs>
      </Polygon>
    </Placemark>
    <Placemark>
      <name>gap_0136</name>
      <description>confidence: 0.2969</description>
      <styleUrl>#gapStyle</styleUrl>
      <Polygon>
        <outerBoundaryIs><LinearRing><coordinates>
          114.01286839622117,22.526779981562868,0
          114.01310013685361,22.526779981562868,0
          114.01310013685361,22.526909872249234,0
          114.01286839622117,22.526909872249234,0
          114.01286839622117,22.526779981562868,0
        </coordinates></LinearRing></outerBoundaryIs>
      </Polygon>
    </Placemark>
    <Placemark>
      <name>gap_0137</name>
      <description>confidence: 0.2934</description>
      <styleUrl>#gapStyle</styleUrl>
      <Polygon>
        <outerBoundaryIs><LinearRing><coordinates>
          114.01460662433237,22.529577055761365,0
          114.01490875101445,22.529577055761365,0
          114.01490875101445,22.529985713895258,0
          114.01460662433237,22.529985713895258,0
          114.01460662433237,22.529577055761365,0
        </coordinates></LinearRing></outerBoundaryIs>
      </Polygon>
    </Placemark>
    <Placemark>
      <name>gap_0138</name>
      <description>confidence: 0.2921</description>
      <styleUrl>#gapStyle</styleUrl>
      <Polygon>
        <outerBoundaryIs><LinearRing><coordinates>
          114.03042954927514,22.511072975926254,0
          114.03050137432729,22.511072975926254,0
          114.03050137432729,22.511157558742525,0
          114.03042954927514,22.511157558742525,0
          114.03042954927514,22.511072975926254,0
        </coordinates></LinearRing></outerBoundaryIs>
      </Polygon>
    </Placemark>
    <Placemark>
      <name>gap_0139</name>
      <description>confidence: 0.2898</description>
      <styleUrl>#gapStyle</styleUrl>
      <Polygon>
        <outerBoundaryIs><LinearRing><coordinates>
          114.02940441010287,22.518874087490985,0
          114.02950286865234,22.518874087490985,0
          114.02950286865234,22.519006623060704,0
          114.02940441010287,22.519006623060704,0
          114.02940441010287,22.518874087490985,0
        </coordinates></LinearRing></outerBoundaryIs>
      </Polygon>
    </Placemark>
    <Placemark>
      <name>gap_0140</name>
      <description>confidence: 0.2885</description>
      <styleUrl>#gapStyle</styleUrl>
      <Polygon>
        <outerBoundaryIs><LinearRing><coordinates>
          114.03915291579324,22.511777114359575,0
          114.03944628567842,22.511777114359575,0
          114.03944628567842,22.512171946691524,0
          114.03915291579324,22.512171946691524,0
          114.03915291579324,22.511777114359575,0
        </coordinates></LinearRing></outerBoundaryIs>
      </Polygon>
    </Placemark>
    <Placemark>
      <name>gap_0141</name>
      <description>confidence: 0.2878</description>
      <styleUrl>#gapStyle</styleUrl>
      <Polygon>
        <outerBoundaryIs><LinearRing><coordinates>
          114.03908662345202,22.514393578312593,0
          114.03945922851562,22.514393578312593,0
          114.03945922851562,22.514720790131832,0
          114.03908662345202,22.514720790131832,0
          114.03908662345202,22.514393578312593,0
        </coordinates></LinearRing></outerBoundaryIs>
      </Polygon>
    </Placemark>
    <Placemark>
      <name>gap_0142</name>
      <description>confidence: 0.2876</description>
      <styleUrl>#gapStyle</styleUrl>
      <Polygon>
        <outerBoundaryIs><LinearRing><coordinates>
          114.01749085688948,22.52624432392622,0
          114.01764992204221,22.52624432392622,0
          114.01764992204221,22.526499702507863,0
          114.01749085688948,22.526499702507863,0
          114.01749085688948,22.52624432392622,0
        </coordinates></LinearRing></outerBoundaryIs>
      </Polygon>
    </Placemark>
    <Placemark>
      <name>gap_0143</name>
      <description>confidence: 0.2853</description>
      <styleUrl>#gapStyle</styleUrl>
      <Polygon>
        <outerBoundaryIs><LinearRing><coordinates>
          114.00977822966524,22.527964424043603,0
          114.01004380109953,22.527964424043603,0
          114.01004380109953,22.528118957525294,0
          114.00977822966524,22.528118957525294,0
          114.00977822966524,22.527964424043603,0
        </coordinates></LinearRing></outerBoundaryIs>
      </Polygon>
    </Placemark>
    <Placemark>
      <name>gap_0144</name>
      <description>confidence: 0.2844</description>
      <styleUrl>#gapStyle</styleUrl>
      <Polygon>
        <outerBoundaryIs><LinearRing><coordinates>
          113.99345802854896,22.523077139630914,0
          113.99375909345508,22.523077139630914,0
          113.99375909345508,22.52327472957404,0
          113.99345802854896,22.52327472957404,0
          113.99345802854896,22.523077139630914,0
        </coordinates></LinearRing></outerBoundaryIs>
      </Polygon>
    </Placemark>
    <Placemark>
      <name>gap_0145</name>
      <description>confidence: 0.2843</description>
      <styleUrl>#gapStyle</styleUrl>
      <Polygon>
        <outerBoundaryIs><LinearRing><coordinates>
          114.02093129099285,22.526625718620608,0
          114.02114537625948,22.526625718620608,0
          114.02114537625948,22.526779174804688,0
          114.02093129099285,22.526779174804688,0
          114.02093129099285,22.526625718620608,0
        </coordinates></LinearRing></outerBoundaryIs>
      </Polygon>
    </Placemark>
    <Placemark>
      <name>gap_0146</name>
      <description>confidence: 0.2820</description>
      <styleUrl>#gapStyle</styleUrl>
      <Polygon>
        <outerBoundaryIs><LinearRing><coordinates>
          114.03644186018028,22.510030992034444,0
          114.0367265968689,22.510030992034444,0
          114.0367265968689,22.510299682617188,0
          114.03644186018028,22.510299682617188,0
          114.03644186018028,22.510030992034444,0
        </coordinates></LinearRing></outerBoundaryIs>
      </Polygon>
    </Placemark>
    <Placemark>
      <name>gap_0147</name>
      <description>confidence: 0.2812</description>
      <styleUrl>#gapStyle</styleUrl>
      <Polygon>
        <outerBoundaryIs><LinearRing><coordinates>
          114.0384805879512,22.512771109359164,0
          114.03876823293103,22.512771109359164,0
          114.03876823293103,22.513092110384605,0
          114.0384805879512,22.513092110384605,0
          114.0384805879512,22.512771109359164,0
        </coordinates></LinearRing></outerBoundaryIs>
      </Polygon>
    </Placemark>
    <Placemark>
      <name>gap_0148</name>
      <description>confidence: 0.2777</description>
      <styleUrl>#gapStyle</styleUrl>
      <Polygon>
        <outerBoundaryIs><LinearRing><coordinates>
          114.02805238783913,22.516786351370683,0
          114.02833801625093,22.516786351370683,0
          114.02833801625093,22.517070053581847,0
          114.02805238783913,22.517070053581847,0
          114.02805238783913,22.516786351370683,0
        </coordinates></LinearRing></outerBoundaryIs>
      </Polygon>
    </Placemark>
    <Placemark>
      <name>gap_0149</name>
      <description>confidence: 0.2730</description>
      <styleUrl>#gapStyle</styleUrl>
      <Polygon>
        <outerBoundaryIs><LinearRing><coordinates>
          113.99670836897712,22.528018889715895,0
          113.99699975405383,22.528018889715895,0
          113.99699975405383,22.528241251129657,0
          113.99670836897712,22.528241251129657,0
          113.99670836897712,22.528018889715895,0
        </coordinates></LinearRing></outerBoundaryIs>
      </Polygon>
    </Placemark>
    <Placemark>
      <name>gap_0150</name>
      <description>confidence: 0.2725</description>
      <styleUrl>#gapStyle</styleUrl>
      <Polygon>
        <outerBoundaryIs><LinearRing><coordinates>
          114.02768936679422,22.50919339761822,0
          114.02789012909125,22.50919339761822,0
          114.02789012909125,22.509351780554425,0
          114.02768936679422,22.509351780554425,0
          114.02768936679422,22.50919339761822,0
        </coordinates></LinearRing></outerBoundaryIs>
      </Polygon>
    </Placemark>
    <Placemark>
      <name>gap_0151</name>
      <description>confidence: 0.2708</description>
      <styleUrl>#gapStyle</styleUrl>
      <Polygon>
        <outerBoundaryIs><LinearRing><coordinates>
          114.02906859062568,22.51522237107565,0
          114.02915714968913,22.51522237107565,0
          114.02915714968913,22.51530368863314,0
          114.02906859062568,22.51530368863314,0
          114.02906859062568,22.51522237107565,0
        </coordinates></LinearRing></outerBoundaryIs>
      </Polygon>
    </Placemark>
    <Placemark>
      <name>gap_0152</name>
      <description>confidence: 0.2695</description>
      <styleUrl>#gapStyle</styleUrl>
      <Polygon>
        <outerBoundaryIs><LinearRing><coordinates>
          114.03799732048356,22.51633177505937,0
          114.03810657466238,22.51633177505937,0
          114.03810657466238,22.516492814338562,0
          114.03799732048356,22.516492814338562,0
          114.03799732048356,22.51633177505937,0
        </coordinates></LinearRing></outerBoundaryIs>
      </Polygon>
    </Placemark>
    <Placemark>
      <name>gap_0153</name>
      <description>confidence: 0.2640</description>
      <styleUrl>#gapStyle</styleUrl>
      <Polygon>
        <outerBoundaryIs><LinearRing><coordinates>
          114.03040075915669,22.508958920261648,0
          114.03073011409106,22.508958920261648,0
          114.03073011409106,22.50925519532757,0
          114.03040075915669,22.50925519532757,0
          114.03040075915669,22.508958920261648,0
        </coordinates></LinearRing></outerBoundaryIs>
      </Polygon>
    </Placemark>
    <Placemark>
      <name>gap_0154</name>
      <description>confidence: 0.2627</description>
      <styleUrl>#gapStyle</styleUrl>
      <Polygon>
        <outerBoundaryIs><LinearRing><coordinates>
          114.03734298541167,22.511807525443146,0
          114.03756775645888,22.511807525443146,0
          114.03756775645888,22.511966445017606,0
          114.03734298541167,22.511966445017606,0
          114.03734298541167,22.511807525443146,0
        </coordinates></LinearRing></outerBoundaryIs>
      </Polygon>
    </Placemark>
    <Placemark>
      <name>gap_0155</name>
      <description>confidence: 0.2558</description>
      <styleUrl>#gapStyle</styleUrl>
      <Polygon>
        <outerBoundaryIs><LinearRing><coordinates>
          114.03315445332282,22.508398848694924,0
          114.03335897208763,22.508398848694924,0
          114.03335897208763,22.508606338778918,0
          114.03315445332282,22.508606338778918,0
          114.03315445332282,22.508398848694924,0
        </coordinates></LinearRing></outerBoundaryIs>
      </Polygon>
    </Placemark>
    <Placemark>
      <name>gap_0156</name>
      <description>confidence: 0.2539</description>
      <styleUrl>#gapStyle</styleUrl>
      <Polygon>
        <outerBoundaryIs><LinearRing><coordinates>
          114.01023349601019,22.529497003961296,0
          114.01041308352433,22.529497003961296,0
          114.01041308352433,22.529687688165723,0
          114.01023349601019,22.529687688165723,0
          114.01023349601019,22.529497003961296,0
        </coordinates></LinearRing></outerBoundaryIs>
      </Polygon>
    </Placemark>
    <Placemark>
      <name>gap_0157</name>
      <description>confidence: 0.2533</description>
      <styleUrl>#gapStyle</styleUrl>
      <Polygon>
        <outerBoundaryIs><LinearRing><coordinates>
          114.03514779390662,22.50757128571422,0
          114.03529627670196,22.50757128571422,0
          114.03529627670196,22.5077115080785,0
          114.03514779390662,22.5077115080785,0
          114.03514779390662,22.50757128571422,0
        </coordinates></LinearRing></outerBoundaryIs>
      </Polygon>
    </Placemark>
    <Placemark>
      <name>gap_0158</name>
      <description>confidence: 0.2532</description>
      <styleUrl>#gapStyle</styleUrl>
      <Polygon>
        <outerBoundaryIs><LinearRing><coordinates>
          114.00607025267163,22.528601899539353,0
          114.00632657912865,22.528601899539353,0
          114.00632657912865,22.528771655997843,0
          114.00607025267163,22.528771655997843,0
          114.00607025267163,22.528601899539353,0
        </coordinates></LinearRing></outerBoundaryIs>
      </Polygon>
    </Placemark>
    <Placemark>
      <name>gap_0159</name>
      <description>confidence: 0.2524</description>
      <styleUrl>#gapStyle</styleUrl>
      <Polygon>
        <outerBoundaryIs><LinearRing><coordinates>
          113.99580558660091,22.525429441520828,0
          113.99597366078524,22.525429441520828,0
          113.99597366078524,22.52553512029408,0
          113.99580558660091,22.52553512029408,0
          113.99580558660091,22.525429441520828,0
        </coordinates></LinearRing></outerBoundaryIs>
      </Polygon>
    </Placemark>
    <Placemark>
      <name>gap_0160</name>
      <description>confidence: 0.2500</description>
      <styleUrl>#gapStyle</styleUrl>
      <Polygon>
        <outerBoundaryIs><LinearRing><coordinates>
          114.02261000337603,22.52327102680283,0
          114.0229227636155,22.52327102680283,0
          114.0229227636155,22.523432673115167,0
          114.02261000337603,22.523432673115167,0
          114.02261000337603,22.52327102680283,0
        </coordinates></LinearRing></outerBoundaryIs>
      </Polygon>
    </Placemark>
  </Document>
</kml>