<?xml version="1.0" encoding="UTF-8"?>
<kml xmlns="http://www.opengis.net/kml/2.2">
  <Document>
    <name>Mangrove Gap Detections - 2024-01-01</name>
    <Style id="gapStyle">
      <LineStyle><color>ff00ff00</color><width>2</width></LineStyle>
      <PolyStyle><color>4000ff00</color></PolyStyle>
    </Style>
    <Placemark>
      <name>gap_0001</name>
      <description>confidence: 0.9337</description>
      <styleUrl>#gapStyle</styleUrl>
      <Polygon>
        <outerBoundaryIs><LinearRing><coordinates>
          114.02003451694327,22.523519061069237,0
          114.0201887524745,22.523519061069237,0
          114.0201887524745,22.523681835009484,0
          114.02003451694327,22.523681835009484,0
          114.02003451694327,22.523519061069237,0
        </coordinates></LinearRing></outerBoundaryIs>
      </Polygon>
    </Placemark>
    <Placemark>
      <name>gap_0002</name>
      <description>confidence: 0.9126</description>
      <styleUrl>#gapStyle</styleUrl>
      <Polygon>
        <outerBoundaryIs><LinearRing><coordinates>
          114.01948298673233,22.520838386335527,0
          114.01961195279,22.520838386335527,0
          114.01961195279,22.5209379505759,0
          114.01948298673233,22.5209379505759,0
          114.01948298673233,22.520838386335527,0
        </coordinates></LinearRing></outerBoundaryIs>
      </Polygon>
    </Placemark>
    <Placemark>
      <name>gap_0003</name>
      <description>confidence: 0.9010</description>
      <styleUrl>#gapStyle</styleUrl>
      <Polygon>
        <outerBoundaryIs><LinearRing><coordinates>
          114.02944523521,22.51881048996438,0
          114.02967289523076,22.51881048996438,0
          114.02967289523076,22.519015655379917,0
          114.02944523521,22.519015655379917,0
          114.02944523521,22.51881048996438,0
        </coordinates></LinearRing></outerBoundaryIs>
      </Polygon>
    </Placemark>
    <Placemark>
      <name>gap_0004</name>
      <description>confidence: 0.8925</description>
      <styleUrl>#gapStyle</styleUrl>
      <Polygon>
        <outerBoundaryIs><LinearRing><coordinates>
          114.03557272541548,22.512648334777623,0
          114.03577536954799,22.512648334777623,0
          114.03577536954799,22.512774575407093,0
          114.03557272541548,22.512774575407093,0
          114.03557272541548,22.512648334777623,0
        </coordinates></LinearRing></outerBoundaryIs>
      </Polygon>
    </Placemark>
    <Placemark>
      <name>gap_0005</name>
      <description>confidence: 0.8867</description>
      <styleUrl>#gapStyle</styleUrl>
      <Polygon>
        <outerBoundaryIs><LinearRing><coordinates>
          114.00947559122869,22.526002246049757,0
          114.00969098780479,22.526002246049757,0
          114.00969098780479,22.52616783775011,0
          114.00947559122869,22.52616783775011,0
          114.00947559122869,22.526002246049757,0
        </coordinates></LinearRing></outerBoundaryIs>
      </Polygon>
    </Placemark>
    <Placemark>
      <name>gap_0006</name>
      <description>confidence: 0.8655</description>
      <styleUrl>#gapStyle</styleUrl>
      <Polygon>
        <outerBoundaryIs><LinearRing><coordinates>
          114.0297337082302,22.515696194004704,0
          114.02984218806523,22.515696194004704,0
          114.02984218806523,22.515815607639524,0
          114.0297337082302,22.515815607639524,0
          114.0297337082302,22.515696194004704,0
        </coordinates></LinearRing></outerBoundaryIs>
      </Polygon>
    </Placemark>
    <Placemark>
      <name>gap_0007</name>
      <description>confidence: 0.8604</description>
      <styleUrl>#gapStyle</styleUrl>
      <Polygon>
        <outerBoundaryIs><LinearRing><coordinates>
          114.02883623821253,22.513414046843536,0
          114.02894769395061,22.513414046843536,0
          114.02894769395061,22.51351352824713,0
          114.02883623821253,22.51351352824713,0
          114.02883623821253,22.513414046843536,0
        </coordinates></LinearRing></outerBoundaryIs>
      </Polygon>
    </Placemark>
    <Placemark>
      <name>gap_0008</name>
      <description>confidence: 0.8506</description>
      <styleUrl>#gapStyle</styleUrl>
      <Polygon>
        <outerBoundaryIs><LinearRing><coordinates>
          114.02981592635115,22.51492883420724,0
          114.02991378834486,22.51492883420724,0
          114.02991378834486,22.515038203637232,0
          114.02981592635115,22.515038203637232,0
          114.02981592635115,22.51492883420724,0
        </coordinates></LinearRing></outerBoundaryIs>
      </Polygon>
    </Placemark>
    <Placemark>
      <name>gap_0009</name>
      <description>confidence: 0.8460</description>
      <styleUrl>#gapStyle</styleUrl>
      <Polygon>
        <outerBoundaryIs><LinearRing><coordinates>
          114.03891664893308,22.5134008970781,0
          114.0391611490486,22.5134008970781,0
          114.0391611490486,22.513629601235152,0
          114.03891664893308,22.513629601235152,0
          114.03891664893308,22.5134008970781,0
        </coordinates></LinearRing></outerBoundaryIs>
      </Polygon>
    </Placemark>
    <Placemark>
      <name>gap_0010</name>
      <description>confidence: 0.8365</description>
      <styleUrl>#gapStyle</styleUrl>
      <Polygon>
        <outerBoundaryIs><LinearRing><coordinates>
          114.02836807912536,22.519420419939706,0
          114.02860289814271,22.519420419939706,0
          114.02860289814271,22.519626176488146,0
          114.02836807912536,22.519626176488146,0
          114.02836807912536,22.519420419939706,0
        </coordinates></LinearRing></outerBoundaryIs>
      </Polygon>
    </Placemark>
    <Placemark>
      <name>gap_0011</name>
      <description>confidence: 0.8348</description>
      <styleUrl>#gapStyle</styleUrl>
      <Polygon>
        <outerBoundaryIs><LinearRing><coordinates>
          114.02685131317412,22.51754676384735,0
          114.0272748638381,22.51754676384735,0
          114.0272748638381,22.51785051124898,0
          114.02685131317412,22.51785051124898,0
          114.02685131317412,22.51754676384735,0
        </coordinates></LinearRing></outerBoundaryIs>
      </Polygon>
    </Placemark>
    <Placemark>
      <name>gap_0012</name>
      <description>confidence: 0.8318</description>
      <styleUrl>#gapStyle</styleUrl>
      <Polygon>
        <outerBoundaryIs><LinearRing><coordinates>
          114.0236565871237,22.518490207294235,0
          114.0239057486906,22.518490207294235,0
          114.0239057486906,22.518722657769104,0
          114.0236565871237,22.518722657769104,0
          114.0236565871237,22.518490207294235,0
        </coordinates></LinearRing></outerBoundaryIs>
      </Polygon>
    </Placemark>
    <Placemark>
      <name>gap_0013</name>
      <description>confidence: 0.8288</description>
      <styleUrl>#gapStyle</styleUrl>
      <Polygon>
        <outerBoundaryIs><LinearRing><coordinates>
          114.0143866154176,22.527468515372675,0
          114.01450362449395,22.527468515372675,0
          114.01450362449395,22.527573588422456,0
          114.0143866154176,22.527573588422456,0
          114.0143866154176,22.527468515372675,0
        </coordinates></LinearRing></outerBoundaryIs>
      </Polygon>
    </Placemark>
    <Placemark>
      <name>gap_0014</name>
      <description>confidence: 0.8230</description>
      <styleUrl>#gapStyle</styleUrl>
      <Polygon>
        <outerBoundaryIs><LinearRing><coordinates>
          114.02944198198384,22.508199934018194,0
          114.02965428642347,22.508199934018194,0
          114.02965428642347,22.508375042452826,0
          114.02944198198384,22.508375042452826,0
          114.02944198198384,22.508199934018194,0
        </coordinates></LinearRing></outerBoundaryIs>
      </Polygon>
    </Placemark>
    <Placemark>
      <name>gap_0015</name>
      <description>confidence: 0.8207</description>
      <styleUrl>#gapStyle</styleUrl>
      <Polygon>
        <outerBoundaryIs><LinearRing><coordinates>
          114.03307292961472,22.516061487617662,0
          114.03335148751466,22.516061487617662,0
          114.03335148751466,22.516258847631434,0
          114.03307292961472,22.516258847631434,0
          114.03307292961472,22.516061487617662,0
        </coordinates></LinearRing></outerBoundaryIs>
      </Polygon>
    </Placemark>
    <Placemark>
      <name>gap_0016</name>
      <description>confidence: 0.8167</description>
      <styleUrl>#gapStyle</styleUrl>
      <Polygon>
        <outerBoundaryIs><LinearRing><coordinates>
          114.00288927605288,22.528707053297694,0
          114.0030726000623,22.528707053297694,0
          114.0030726000623,22.528808314218622,0
          114.00288927605288,22.528808314218622,0
          114.00288927605288,22.528707053297694,0
        </coordinates></LinearRing></outerBoundaryIs>
      </Polygon>
    </Placemark>
    <Placemark>
      <name>gap_0017</name>
      <description>confidence: 0.8041</description>
      <styleUrl>#gapStyle</styleUrl>
      <Polygon>
        <outerBoundaryIs><LinearRing><coordinates>
          114.02263641357422,22.52252101296108,0
          114.02289749938063,22.52252101296108,0
          114.02289749938063,22.522828633391327,0
          114.02263641357422,22.522828633391327,0
          114.02263641357422,22.52252101296108,0
        </coordinates></LinearRing></outerBoundaryIs>
      </Polygon>
    </Placemark>
    <Placemark>
      <name>gap_0018</name>
      <description>confidence: 0.7972</description>
      <styleUrl>#gapStyle</styleUrl>
      <Polygon>
        <outerBoundaryIs><LinearRing><coordinates>
          114.02200233405893,22.52284843670168,0
          114.02215437654377,22.52284843670168,0
          114.02215437654377,22.52308824065949,0
          114.02200233405893,22.52308824065949,0
          114.02200233405893,22.52284843670168,0
        </coordinates></LinearRing></outerBoundaryIs>
      </Polygon>
    </Placemark>
    <Placemark>
      <name>gap_0019</name>
      <description>confidence: 0.7941</description>
      <styleUrl>#gapStyle</styleUrl>
      <Polygon>
        <outerBoundaryIs><LinearRing><coordinates>
          114.03395102139257,22.51654355906794,0
          114.0341608900053,22.51654355906794,0
          114.0341608900053,22.516702420034562,0
          114.03395102139257,22.516702420034562,0
          114.03395102139257,22.51654355906794,0
        </coordinates></LinearRing></outerBoundaryIs>
      </Polygon>
    </Placemark>
    <Placemark>
      <name>gap_0020</name>
      <description>confidence: 0.7936</description>
      <styleUrl>#gapStyle</styleUrl>
      <Polygon>
        <outerBoundaryIs><LinearRing><coordinates>
          114.03545466049763,22.514663334804936,0
          114.03565737584358,22.514663334804936,0
          114.03565737584358,22.514947628005757,0
          114.03545466049763,22.514947628005757,0
          114.03545466049763,22.514663334804936,0
        </coordinates></LinearRing></outerBoundaryIs>
      </Polygon>
    </Placemark>
    <Placemark>
      <name>gap_0021</name>
      <description>confidence: 0.7934</description>
      <styleUrl>#gapStyle</styleUrl>
      <Polygon>
        <outerBoundaryIs><LinearRing><coordinates>
          114.02754477781855,22.518908225410996,0
          114.02778285137174,22.518908225410996,0
          114.02778285137174,22.519270893990324,0
          114.02754477781855,22.519270893990324,0
          114.02754477781855,22.518908225410996,0
        </coordinates></LinearRing></outerBoundaryIs>
      </Polygon>
    </Placemark>
    <Placemark>
      <name>gap_0022</name>
      <description>confidence: 0.7883</description>
      <styleUrl>#gapStyle</styleUrl>
      <Polygon>
        <outerBoundaryIs><LinearRing><coordinates>
          114.03121948242188,22.518520363155403,0
          114.03161238486973,22.518520363155403,0
          114.03161238486973,22.51888686170787,0
          114.03121948242188,22.51888686170787,0
          114.03121948242188,22.518520363155403,0
        </coordinates></LinearRing></outerBoundaryIs>
      </Polygon>
    </Placemark>
    <Placemark>
      <name>gap_0023</name>
      <description>confidence: 0.7763</description>
      <styleUrl>#gapStyle</styleUrl>
      <Polygon>
        <outerBoundaryIs><LinearRing><coordinates>
          114.0378261855949,22.51493038944318,0
          114.03796433245589,22.51493038944318,0
          114.03796433245589,22.515083663674886,0
          114.0378261855949,22.515083663674886,0
          114.0378261855949,22.51493038944318,0
        </coordinates></LinearRing></outerBoundaryIs>
      </Polygon>
    </Placemark>
    <Placemark>
      <name>gap_0024</name>
      <description>confidence: 0.7673</description>
      <styleUrl>#gapStyle</styleUrl>
      <Polygon>
        <outerBoundaryIs><LinearRing><coordinates>
          114.03138939112978,22.516744734239182,0
          114.03165547071694,22.516744734239182,0
          114.03165547071694,22.51697762279946,0
          114.03138939112978,22.51697762279946,0
          114.03138939112978,22.516744734239182,0
        </coordinates></LinearRing></outerBoundaryIs>
      </Polygon>
    </Placemark>
    <Placemark>
      <name>gap_0025</name>
      <description>confidence: 0.7671</description>
      <styleUrl>#gapStyle</styleUrl>
      <Polygon>
        <outerBoundaryIs><LinearRing><coordinates>
          114.03702085593977,22.51054823567756,0
          114.03734950643411,22.51054823567756,0
          114.03734950643411,22.510807556454893,0
          114.03702085593977,22.510807556454893,0
          114.03702085593977,22.51054823567756,0
        </coordinates></LinearRing></outerBoundaryIs>
      </Polygon>
    </Placemark>
    <Placemark>
      <name>gap_0026</name>
      <description>confidence: 0.7634</description>
      <styleUrl>#gapStyle</styleUrl>
      <Polygon>
        <outerBoundaryIs><LinearRing><coordinates>
          114.02975174782114,22.50958637037911,0
          114.03015154192872,22.50958637037911,0
          114.03015154192872,22.509956686278656,0
          114.02975174782114,22.509956686278656,0
          114.02975174782114,22.50958637037911,0
        </coordinates></LinearRing></outerBoundaryIs>
      </Polygon>
    </Placemark>
    <Placemark>
      <name>gap_0027</name>
      <description>confidence: 0.7542</description>
      <styleUrl>#gapStyle</styleUrl>
      <Polygon>
        <outerBoundaryIs><LinearRing><coordinates>
          114.03690834689769,22.508991853774205,0
          114.03722348353767,22.508991853774205,0
          114.03722348353767,22.50928034152821,0
          114.03690834689769,22.50928034152821,0
          114.03690834689769,22.508991853774205,0
        </coordinates></LinearRing></outerBoundaryIs>
      </Polygon>
    </Placemark>
    <Placemark>
      <name>gap_0028</name>
      <description>confidence: 0.7475</description>
      <styleUrl>#gapStyle</styleUrl>
      <Polygon>
        <outerBoundaryIs><LinearRing><coordinates>
          114.03068486695702,22.520211826631567,0
          114.03100277993872,22.520211826631567,0
          114.03100277993872,22.52058699947156,0
          114.03068486695702,22.52058699947156,0
          114.03068486695702,22.520211826631567,0
        </coordinates></LinearRing></outerBoundaryIs>
      </Polygon>
    </Placemark>
    <Placemark>
      <name>gap_0029</name>
      <description>confidence: 0.7458</description>
      <styleUrl>#gapStyle</styleUrl>
      <Polygon>
        <outerBoundaryIs><LinearRing><coordinates>
          114.0297802747773,22.517925551362623,0
          114.03010705767883,22.517925551362623,0
          114.03010705767883,22.51819610595703,0
          114.0297802747773,22.51819610595703,0
          114.0297802747773,22.517925551362623,0
        </coordinates></LinearRing></outerBoundaryIs>
      </Polygon>
    </Placemark>
    <Placemark>
      <name>gap_0030</name>
      <description>confidence: 0.7440</description>
      <styleUrl>#gapStyle</styleUrl>
      <Polygon>
        <outerBoundaryIs><LinearRing><coordinates>
          114.02076396614575,22.51951247312718,0
          114.02096882706246,22.51951247312718,0
          114.02096882706246,22.519692615205713,0
          114.02076396614575,22.519692615205713,0
          114.02076396614575,22.51951247312718,0
        </coordinates></LinearRing></outerBoundaryIs>
      </Polygon>
    </Placemark>
    <Placemark>
      <name>gap_0031</name>
      <description>confidence: 0.7440</description>
      <styleUrl>#gapStyle</styleUrl>
      <Polygon>
        <outerBoundaryIs><LinearRing><coordinates>
          114.02881612532838,22.517560537139616,0
          114.02889673942809,22.517560537139616,0
          114.02889673942809,22.517641944491515,0
          114.02881612532838,22.517641944491515,0
          114.02881612532838,22.517560537139616,0
        </coordinates></LinearRing></outerBoundaryIs>
      </Polygon>
    </Placemark>
    <Placemark>
      <name>gap_0032</name>
      <description>confidence: 0.7440</description>
      <styleUrl>#gapStyle</styleUrl>
      <Polygon>
        <outerBoundaryIs><LinearRing><coordinates>
          114.01894542057562,22.523669052607147,0
          114.01918596744508,22.523669052607147,0
          114.01918596744508,22.523849050539866,0
          114.01894542057562,22.523849050539866,0
          114.01894542057562,22.523669052607147,0
        </coordinates></LinearRing></outerBoundaryIs>
      </Polygon>
    </Placemark>
    <Placemark>
      <name>gap_0033</name>
      <description>confidence: 0.7399</description>
      <styleUrl>#gapStyle</styleUrl>
      <Polygon>
        <outerBoundaryIs><LinearRing><coordinates>
          114.0325352545915,22.51853090863733,0
          114.03284255546168,22.51853090863733,0
          114.03284255546168,22.51881648629933,0
          114.0325352545915,22.51881648629933,0
          114.0325352545915,22.51853090863733,0
        </coordinates></LinearRing></outerBoundaryIs>
      </Polygon>
    </Placemark>
    <Placemark>
      <name>gap_0034</name>
      <description>confidence: 0.7287</description>
      <styleUrl>#gapStyle</styleUrl>
      <Polygon>
        <outerBoundaryIs><LinearRing><coordinates>
          114.03712570184325,22.51357152577839,0
          114.03722086476591,22.51357152577839,0
          114.03722086476591,22.513743077142863,0
          114.03712570184325,22.513743077142863,0
          114.03712570184325,22.51357152577839,0
        </coordinates></LinearRing></outerBoundaryIs>
      </Polygon>
    </Placemark>
    <Placemark>
      <name>gap_0035</name>
      <description>confidence: 0.7141</description>
      <styleUrl>#gapStyle</styleUrl>
      <Polygon>
        <outerBoundaryIs><LinearRing><coordinates>
          114.01897046183876,22.522829568742964,0
          114.01920350559521,22.522829568742964,0
          114.01920350559521,22.52299605936969,0
          114.01897046183876,22.52299605936969,0
          114.01897046183876,22.522829568742964,0
        </coordinates></LinearRing></outerBoundaryIs>
      </Polygon>
    </Placemark>
    <Placemark>
      <name>gap_0036</name>
      <description>confidence: 0.7140</description>
      <styleUrl>#gapStyle</styleUrl>
      <Polygon>
        <outerBoundaryIs><LinearRing><coordinates>
          114.02778688483522,22.51216601469423,0
          114.02814937398944,22.51216601469423,0
          114.02814937398944,22.512368587940728,0
          114.02778688483522,22.512368587940728,0
          114.02778688483522,22.51216601469423,0
        </coordinates></LinearRing></outerBoundaryIs>
      </Polygon>
    </Placemark>
    <Placemark>
      <name>gap_0037</name>
      <description>confidence: 0.7128</description>
      <styleUrl>#gapStyle</styleUrl>
      <Polygon>
        <outerBoundaryIs><LinearRing><coordinates>
          114.02875829142431,22.509509500632703,0
          114.02905348109925,22.509509500632703,0
          114.02905348109925,22.50982258043223,0
          114.02875829142431,22.50982258043223,0
          114.02875829142431,22.509509500632703,0
        </coordinates></LinearRing></outerBoundaryIs>
      </Polygon>
    </Placemark>
    <Placemark>
      <name>gap_0038</name>
      <description>confidence: 0.6975</description>
      <styleUrl>#gapStyle</styleUrl>
      <Polygon>
        <outerBoundaryIs><LinearRing><coordinates>
          114.01223250362818,22.526016771953437,0
          114.01234114193358,22.526016771953437,0
          114.01234114193358,22.52612341530039,0
          114.01223250362818,22.52612341530039,0
          114.01223250362818,22.526016771953437,0
        </coordinates></LinearRing></outerBoundaryIs>
      </Polygon>
    </Placemark>
    <Placemark>
      <name>gap_0039</name>
      <description>confidence: 0.6974</description>
      <styleUrl>#gapStyle</styleUrl>
      <Polygon>
        <outerBoundaryIs><LinearRing><coordinates>
          114.03161947862827,22.51388863527609,0
          114.03186679061037,22.51388863527609,0
          114.03186679061037,22.514178534529492,0
          114.03161947862827,22.514178534529492,0
          114.03161947862827,22.51388863527609,0
        </coordinates></LinearRing></outerBoundaryIs>
      </Polygon>
    </Placemark>
    <Placemark>
      <name>gap_0040</name>
      <description>confidence: 0.6955</description>
      <styleUrl>#gapStyle</styleUrl>
      <Polygon>
        <outerBoundaryIs><LinearRing><coordinates>
          114.03177408086776,22.516716676473152,0
          114.03196769759234,22.516716676473152,0
          114.03196769759234,22.516862224947545,0
          114.03177408086776,22.516862224947545,0
          114.03177408086776,22.516716676473152,0
        </coordinates></LinearRing></outerBoundaryIs>
      </Polygon>
    </Placemark>
    <Placemark>
      <name>gap_0041</name>
      <description>confidence: 0.6818</description>
      <styleUrl>#gapStyle</styleUrl>
      <Polygon>
        <outerBoundaryIs><LinearRing><coordinates>
          114.01158579273215,22.525367515954713,0
          114.01186340431195,22.525367515954713,0
          114.01186340431195,22.525678835063445,0
          114.01158579273215,22.525678835063445,0
          114.01158579273215,22.525367515954713,0
        </coordinates></LinearRing></outerBoundaryIs>
      </Polygon>
    </Placemark>
    <Placemark>
      <name>gap_0042</name>
      <description>confidence: 0.6786</description>
      <styleUrl>#gapStyle</styleUrl>
      <Polygon>
        <outerBoundaryIs><LinearRing><coordinates>
          114.03644450665979,22.51433507197362,0
          114.03667099730683,22.51433507197362,0
          114.03667099730683,22.514495907291803,0
          114.03644450665979,22.514495907291803,0
          114.03644450665979,22.51433507197362,0
        </coordinates></LinearRing></outerBoundaryIs>
      </Polygon>
    </Placemark>
    <Placemark>
      <name>gap_0043</name>
      <description>confidence: 0.6745</description>
      <styleUrl>#gapStyle</styleUrl>
      <Polygon>
        <outerBoundaryIs><LinearRing><coordinates>
          114.0349379739564,22.50732980472094,0
          114.03531888299767,22.50732980472094,0
          114.03531888299767,22.507556534055766,0
          114.0349379739564,22.507556534055766,0
          114.0349379739564,22.50732980472094,0
        </coordinates></LinearRing></outerBoundaryIs>
      </Polygon>
    </Placemark>
    <Placemark>
      <name>gap_0044</name>
      <description>confidence: 0.6728</description>
      <styleUrl>#gapStyle</styleUrl>
      <Polygon>
        <outerBoundaryIs><LinearRing><coordinates>
          114.02956606623775,22.514706708698213,0
          114.02968422225968,22.514706708698213,0
          114.02968422225968,22.51486553430368,0
          114.02956606623775,22.51486553430368,0
          114.02956606623775,22.514706708698213,0
        </coordinates></LinearRing></outerBoundaryIs>
      </Polygon>
    </Placemark>
    <Placemark>
      <name>gap_0045</name>
      <description>confidence: 0.6664</description>
      <styleUrl>#gapStyle</styleUrl>
      <Polygon>
        <outerBoundaryIs><LinearRing><coordinates>
          114.03039115361025,22.509771169079613,0
          114.03047506399162,22.509771169079613,0
          114.03047506399162,22.509886549905787,0
          114.03039115361025,22.509886549905787,0
          114.03039115361025,22.509771169079613,0
        </coordinates></LinearRing></outerBoundaryIs>
      </Polygon>
    </Placemark>
    <Placemark>
      <name>gap_0046</name>
      <description>confidence: 0.6548</description>
      <styleUrl>#gapStyle</styleUrl>
      <Polygon>
        <outerBoundaryIs><LinearRing><coordinates>
          114.02541136245418,22.51681363544776,0
          114.02566334603762,22.51681363544776,0
          114.02566334603762,22.517071195616154,0
          114.02541136245418,22.517071195616154,0
          114.02541136245418,22.51681363544776,0
        </coordinates></LinearRing></outerBoundaryIs>
      </Polygon>
    </Placemark>
    <Placemark>
      <name>gap_0047</name>
      <description>confidence: 0.6378</description>
      <styleUrl>#gapStyle</styleUrl>
      <Polygon>
        <outerBoundaryIs><LinearRing><coordinates>
          114.02813924862585,22.5202182769317,0
          114.02844855648709,22.5202182769317,0
          114.02844855648709,22.520590530348272,0
          114.02813924862585,22.520590530348272,0
          114.02813924862585,22.5202182769317,0
        </coordinates></LinearRing></outerBoundaryIs>
      </Polygon>
    </Placemark>
    <Placemark>
      <name>gap_0048</name>
      <description>confidence: 0.6337</description>
      <styleUrl>#gapStyle</styleUrl>
      <Polygon>
        <outerBoundaryIs><LinearRing><coordinates>
          114.03320264824288,22.510971151150443,0
          114.03339138840238,22.510971151150443,0
          114.03339138840238,22.511250302782173,0
          114.03320264824288,22.511250302782173,0
          114.03320264824288,22.510971151150443,0
        </coordinates></LinearRing></outerBoundaryIs>
      </Polygon>
    </Placemark>
    <Placemark>
      <name>gap_0049</name>
      <description>confidence: 0.6214</description>
      <styleUrl>#gapStyle</styleUrl>
      <Polygon>
        <outerBoundaryIs><LinearRing><coordinates>
          114.03308647899394,22.51336530689514,0
          114.03326045914582,22.51336530689514,0
          114.03326045914582,22.513543028780987,0
          114.03308647899394,22.513543028780987,0
          114.03308647899394,22.51336530689514,0
        </coordinates></LinearRing></outerBoundaryIs>
      </Polygon>
    </Placemark>
    <Placemark>
      <name>gap_0050</name>
      <description>confidence: 0.6205</description>
      <styleUrl>#gapStyle</styleUrl>
      <Polygon>
        <outerBoundaryIs><LinearRing><coordinates>
          114.02647749052448,22.517838989447228,0
          114.02656289196784,22.517838989447228,0
          114.02656289196784,22.51797531500415,0
          114.02647749052448,22.51797531500415,0
          114.02647749052448,22.517838989447228,0
        </coordinates></LinearRing></outerBoundaryIs>
      </Polygon>
    </Placemark>
    <Placemark>
      <name>gap_0051</name>
      <description>confidence: 0.6108</description>
      <styleUrl>#gapStyle</styleUrl>
      <Polygon>
        <outerBoundaryIs><LinearRing><coordinates>
          114.03047262881955,22.508975912933238,0
          114.03055768352715,22.508975912933238,0
          114.03055768352715,22.509063077523024,0
          114.03047262881955,22.509063077523024,0
          114.03047262881955,22.508975912933238,0
        </coordinates></LinearRing></outerBoundaryIs>
      </Polygon>
    </Placemark>
    <Placemark>
      <name>gap_0052</name>
      <description>confidence: 0.6107</description>
      <styleUrl>#gapStyle</styleUrl>
      <Polygon>
        <outerBoundaryIs><LinearRing><coordinates>
          114.03464041017287,22.513103436431265,0
          114.03489852891653,22.513103436431265,0
          114.03489852891653,22.51324560660578,0
          114.03464041017287,22.51324560660578,0
          114.03464041017287,22.513103436431265,0
        </coordinates></LinearRing></outerBoundaryIs>
      </Polygon>
    </Placemark>
    <Placemark>
      <name>gap_0053</name>
      <description>confidence: 0.6090</description>
      <styleUrl>#gapStyle</styleUrl>
      <Polygon>
        <outerBoundaryIs><LinearRing><coordinates>
          114.02709228814274,22.52098660899719,0
          114.02738254706492,22.52098660899719,0
          114.02738254706492,22.521198028753133,0
          114.02709228814274,22.521198028753133,0
          114.02709228814274,22.52098660899719,0
        </coordinates></LinearRing></outerBoundaryIs>
      </Polygon>
    </Placemark>
    <Placemark>
      <name>gap_0054</name>
      <description>confidence: 0.6088</description>
      <styleUrl>#gapStyle</styleUrl>
      <Polygon>
        <outerBoundaryIs><LinearRing><coordinates>
          114.0329360961914,22.513013836505706,0
          114.03303797016179,22.513013836505706,0
          114.03303797016179,22.513187637887313,0
          114.0329360961914,22.513187637887313,0
          114.0329360961914,22.513013836505706,0
        </coordinates></LinearRing></outerBoundaryIs>
      </Polygon>
    </Placemark>
    <Placemark>
      <name>gap_0055</name>
      <description>confidence: 0.6079</description>
      <styleUrl>#gapStyle</styleUrl>
      <Polygon>
        <outerBoundaryIs><LinearRing><coordinates>
          114.03608851622266,22.514776990792598,0
          114.03624194696022,22.514776990792598,0
          114.03624194696022,22.515031235852803,0
          114.03608851622266,22.515031235852803,0
          114.03608851622266,22.514776990792598,0
        </coordinates></LinearRing></outerBoundaryIs>
      </Polygon>
    </Placemark>
    <Placemark>
      <name>gap_0056</name>
      <description>confidence: 0.6028</description>
      <styleUrl>#gapStyle</styleUrl>
      <Polygon>
        <outerBoundaryIs><LinearRing><coordinates>
          114.02466379033285,22.52173069231503,0
          114.0250233612096,22.52173069231503,0
          114.0250233612096,22.5218820059672,0
          114.02466379033285,22.5218820059672,0
          114.02466379033285,22.52173069231503,0
        </coordinates></LinearRing></outerBoundaryIs>
      </Polygon>
    </Placemark>
    <Placemark>
      <name>gap_0057</name>
      <description>confidence: 0.5944</description>
      <styleUrl>#gapStyle</styleUrl>
      <Polygon>
        <outerBoundaryIs><LinearRing><coordinates>
          114.02614292841463,22.51109720858949,0
          114.02656676556944,22.51109720858949,0
          114.02656676556944,22.51141821649071,0
          114.02614292841463,22.51141821649071,0
          114.02614292841463,22.51109720858949,0
        </coordinates></LinearRing></outerBoundaryIs>
      </Polygon>
    </Placemark>
    <Placemark>
      <name>gap_0058</name>
      <description>confidence: 0.5808</description>
      <styleUrl>#gapStyle</styleUrl>
      <Polygon>
        <outerBoundaryIs><LinearRing><coordinates>
          114.0293938620016,22.509077235408768,0
          114.02966405396,22.509077235408768,0
          114.02966405396,22.50930682359467,0
          114.0293938620016,22.50930682359467,0
          114.0293938620016,22.509077235408768,0
        </coordinates></LinearRing></outerBoundaryIs>
      </Polygon>
    </Placemark>
    <Placemark>
      <name>gap_0059</name>
      <description>confidence: 0.5793</description>
      <styleUrl>#gapStyle</styleUrl>
      <Polygon>
        <outerBoundaryIs><LinearRing><coordinates>
          114.02857571441928,22.5123935935153,0
          114.02866847278347,22.5123935935153,0
          114.02866847278347,22.512512376788436,0
          114.02857571441928,22.512512376788436,0
          114.02857571441928,22.5123935935153,0
        </coordinates></LinearRing></outerBoundaryIs>
      </Polygon>
    </Placemark>
    <Placemark>
      <name>gap_0060</name>
      <description>confidence: 0.5737</description>
      <styleUrl>#gapStyle</styleUrl>
      <Polygon>
        <outerBoundaryIs><LinearRing><coordinates>
          114.0230140400854,22.52335115452297,0
          114.02330150744092,22.52335115452297,0
          114.02330150744092,22.523435668990714,0
          114.0230140400854,22.523435668990714,0
          114.0230140400854,22.52335115452297,0
        </coordinates></LinearRing></outerBoundaryIs>
      </Polygon>
    </Placemark>
    <Placemark>
      <name>gap_0061</name>
      <description>confidence: 0.5594</description>
      <styleUrl>#gapStyle</styleUrl>
      <Polygon>
        <outerBoundaryIs><LinearRing><coordinates>
          114.03095841151298,22.507544729487563,0
          114.0311137579738,22.507544729487563,0
          114.0311137579738,22.507708471930528,0
          114.03095841151298,22.507708471930528,0
          114.03095841151298,22.507544729487563,0
        </coordinates></LinearRing></outerBoundaryIs>
      </Polygon>
    </Placemark>
    <Placemark>
      <name>gap_0062</name>
      <description>confidence: 0.5588</description>
      <styleUrl>#gapStyle</styleUrl>
      <Polygon>
        <outerBoundaryIs><LinearRing><coordinates>
          114.01872481772443,22.528610123299586,0
          114.01888104723184,22.528610123299586,0
          114.01888104723184,22.52885257868911,0
          114.01872481772443,22.52885257868911,0
          114.01872481772443,22.528610123299586,0
        </coordinates></LinearRing></outerBoundaryIs>
      </Polygon>
    </Placemark>
    <Placemark>
      <name>gap_0063</name>
      <description>confidence: 0.5534</description>
      <styleUrl>#gapStyle</styleUrl>
      <Polygon>
        <outerBoundaryIs><LinearRing><coordinates>
          114.02091979980469,22.524421954440186,0
          114.02116415299133,22.524421954440186,0
          114.02116415299133,22.524620584590593,0
          114.02091979980469,22.524620584590593,0
          114.02091979980469,22.524421954440186,0
        </coordinates></LinearRing></outerBoundaryIs>
      </Polygon>
    </Placemark>
    <Placemark>
      <name>gap_0064</name>
      <description>confidence: 0.5468</description>
      <styleUrl>#gapStyle</styleUrl>
      <Polygon>
        <outerBoundaryIs><LinearRing><coordinates>
          113.99373919863137,22.52525943573346,0
          113.99395421343797,22.52525943573346,0
          113.99395421343797,22.525434327417315,0
          113.99373919863137,22.525434327417315,0
          113.99373919863137,22.52525943573346,0
        </coordinates></LinearRing></outerBoundaryIs>
      </Polygon>
    </Placemark>
    <Placemark>
      <name>gap_0065</name>
      <description>confidence: 0.5286</description>
      <styleUrl>#gapStyle</styleUrl>
      <Polygon>
        <outerBoundaryIs><LinearRing><coordinates>
          114.0198195335688,22.52247145012916,0
          114.01996627990229,22.52247145012916,0
          114.01996627990229,22.522669320342175,0
          114.0198195335688,22.522669320342175,0
          114.0198195335688,22.52247145012916,0
        </coordinates></LinearRing></outerBoundaryIs>
      </Polygon>
    </Placemark>
    <Placemark>
      <name>gap_0066</name>
      <description>confidence: 0.5254</description>
      <styleUrl>#gapStyle</styleUrl>
      <Polygon>
        <outerBoundaryIs><LinearRing><coordinates>
          114.02816761739814,22.51807405562431,0
          114.02849437263285,22.51807405562431,0
          114.02849437263285,22.51838369622419,0
          114.02816761739814,22.51838369622419,0
          114.02816761739814,22.51807405562431,0
        </coordinates></LinearRing></outerBoundaryIs>
      </Polygon>
    </Placemark>
    <Placemark>
      <name>gap_0067</name>
      <description>confidence: 0.5185</description>
      <styleUrl>#gapStyle</styleUrl>
      <Polygon>
        <outerBoundaryIs><LinearRing><coordinates>
          114.0268978432141,22.51250642702871,0
          114.02699675949407,22.51250642702871,0
          114.02699675949407,22.51259459188077,0
          114.0268978432141,22.51259459188077,0
          114.0268978432141,22.51250642702871,0
        </coordinates></LinearRing></outerBoundaryIs>
      </Polygon>
    </Placemark>
    <Placemark>
      <name>gap_0068</name>
      <description>confidence: 0.5147</description>
      <styleUrl>#gapStyle</styleUrl>
      <Polygon>
        <outerBoundaryIs><LinearRing><coordinates>
          114.03305645209457,22.516618327936158,0
          114.0332883255769,22.516618327936158,0
          114.0332883255769,22.516965684480965,0
          114.03305645209457,22.516965684480965,0
          114.03305645209457,22.516618327936158,0
        </coordinates></LinearRing></outerBoundaryIs>
      </Polygon>
    </Placemark>
    <Placemark>
      <name>gap_0069</name>
      <description>confidence: 0.5127</description>
      <styleUrl>#gapStyle</styleUrl>
      <Polygon>
        <outerBoundaryIs><LinearRing><coordinates>
          114.01712046563262,22.52816239735239,0
          114.01722100099505,22.52816239735239,0
          114.01722100099505,22.5282631231903,0
          114.01712046563262,22.5282631231903,0
          114.01712046563262,22.52816239735239,0
        </coordinates></LinearRing></outerBoundaryIs>
      </Polygon>
    </Placemark>
    <Placemark>
      <name>gap_0070</name>
      <description>confidence: 0.5092</description>
      <styleUrl>#gapStyle</styleUrl>
      <Polygon>
        <outerBoundaryIs><LinearRing><coordinates>
          114.03379996951116,22.51701084591332,0
          114.03400775951013,22.51701084591332,0
          114.03400775951013,22.51722628276184,0
          114.03379996951116,22.51722628276184,0
          114.03379996951116,22.51701084591332,0
        </coordinates></LinearRing></outerBoundaryIs>
      </Polygon>
    </Placemark>
    <Placemark>
      <name>gap_0071</name>
      <description>confidence: 0.5091</description>
      <styleUrl>#gapStyle</styleUrl>
      <Polygon>
        <outerBoundaryIs><LinearRing><coordinates>
          114.03364857498673,22.509781912813196,0
          114.03387896534696,22.509781912813196,0
          114.03387896534696,22.509951831998478,0
          114.03364857498673,22.509951831998478,0
          114.03364857498673,22.509781912813196,0
        </coordinates></LinearRing></outerBoundaryIs>
      </Polygon>
    </Placemark>
    <Placemark>
      <name>gap_0072</name>
      <description>confidence: 0.5058</description>
      <styleUrl>#gapStyle</styleUrl>
      <Polygon>
        <outerBoundaryIs><LinearRing><coordinates>
          114.0390530408331,22.511750880967156,0
          114.03943238743523,22.511750880967156,0
          114.03943238743523,22.512088306430087,0
          114.0390530408331,22.512088306430087,0
          114.0390530408331,22.511750880967156,0
        </coordinates></LinearRing></outerBoundaryIs>
      </Polygon>
    </Placemark>
    <Placemark>
      <name>gap_0073</name>
      <description>confidence: 0.5013</description>
      <styleUrl>#gapStyle</styleUrl>
      <Polygon>
        <outerBoundaryIs><LinearRing><coordinates>
          114.03589284167538,22.51558405052492,0
          114.03617469561141,22.51558405052492,0
          114.03617469561141,22.515785464383953,0
          114.03589284167538,22.515785464383953,0
          114.03589284167538,22.51558405052492,0
        </coordinates></LinearRing></outerBoundaryIs>
      </Polygon>
    </Placemark>
    <Placemark>
      <name>gap_0074</name>
      <description>confidence: 0.5007</description>
      <styleUrl>#gapStyle</styleUrl>
      <Polygon>
        <outerBoundaryIs><LinearRing><coordinates>
          114.02036026700443,22.525841713286354,0
          114.02063777610238,22.525841713286354,0
          114.02063777610238,22.52605360976304,0
          114.02036026700443,22.52605360976304,0
          114.02036026700443,22.525841713286354,0
        </coordinates></LinearRing></outerBoundaryIs>
      </Polygon>
    </Placemark>
    <Placemark>
      <name>gap_0075</name>
      <description>confidence: 0.4973</description>
      <styleUrl>#gapStyle</styleUrl>
      <Polygon>
        <outerBoundaryIs><LinearRing><coordinates>
          114.03066004277207,22.516620668156975,0
          114.0309440792771,22.516620668156975,0
          114.0309440792771,22.516870314957487,0
          114.03066004277207,22.516870314957487,0
          114.03066004277207,22.516620668156975,0
        </coordinates></LinearRing></outerBoundaryIs>
      </Polygon>
    </Placemark>
    <Placemark>
      <name>gap_0076</name>
      <description>confidence: 0.4956</description>
      <styleUrl>#gapStyle</styleUrl>
      <Polygon>
        <outerBoundaryIs><LinearRing><coordinates>
          114.03471583551436,22.515134575223783,0
          114.0348451682803,22.515134575223783,0
          114.0348451682803,22.51523868108052,0
          114.03471583551436,22.51523868108052,0
          114.03471583551436,22.515134575223783,0
        </coordinates></LinearRing></outerBoundaryIs>
      </Polygon>
    </Placemark>
    <Placemark>
      <name>gap_0077</name>
      <description>confidence: 0.4940</description>
      <styleUrl>#gapStyle</styleUrl>
      <Polygon>
        <outerBoundaryIs><LinearRing><coordinates>
          114.02950286865234,22.519487238605507,0
          114.02985787131001,22.519487238605507,0
          114.02985787131001,22.51984510134207,0
          114.02950286865234,22.51984510134207,0
          114.02950286865234,22.519487238605507,0
        </coordinates></LinearRing></outerBoundaryIs>
      </Polygon>
    </Placemark>
    <Placemark>
      <name>gap_0078</name>
      <description>confidence: 0.4922</description>
      <styleUrl>#gapStyle</styleUrl>
      <Polygon>
        <outerBoundaryIs><LinearRing><coordinates>
          114.03358086680782,22.510068832439174,0
          114.03395299646036,22.510068832439174,0
          114.03395299646036,22.510299682617188,0
          114.03358086680782,22.510299682617188,0
          114.03358086680782,22.510068832439174,0
        </coordinates></LinearRing></outerBoundaryIs>
      </Polygon>
    </Placemark>
    <Placemark>
      <name>gap_0079</name>
      <description>confidence: 0.4822</description>
      <styleUrl>#gapStyle</styleUrl>
      <Polygon>
        <outerBoundaryIs><LinearRing><coordinates>
          114.03459432935051,22.51126430281147,0
          114.03479544133006,22.51126430281147,0
          114.03479544133006,22.51141240776633,0
          114.03459432935051,22.51141240776633,0
          114.03459432935051,22.51126430281147,0
        </coordinates></LinearRing></outerBoundaryIs>
      </Polygon>
    </Placemark>
    <Placemark>
      <name>gap_0080</name>
      <description>confidence: 0.4818</description>
      <styleUrl>#gapStyle</styleUrl>
      <Polygon>
        <outerBoundaryIs><LinearRing><coordinates>
          114.02676583544235,22.517974892143684,0
          114.02690410606738,22.517974892143684,0
          114.02690410606738,22.51807412798371,0
          114.02676583544235,22.51807412798371,0
          114.02676583544235,22.517974892143684,0
        </coordinates></LinearRing></outerBoundaryIs>
      </Polygon>
    </Placemark>
    <Placemark>
      <name>gap_0081</name>
      <description>confidence: 0.4816</description>
      <styleUrl>#gapStyle</styleUrl>
      <Polygon>
        <outerBoundaryIs><LinearRing><coordinates>
          114.02359258310753,22.52117149429978,0
          114.02397682526498,22.52117149429978,0
          114.02397682526498,22.521447772960528,0
          114.02359258310753,22.521447772960528,0
          114.02359258310753,22.52117149429978,0
        </coordinates></LinearRing></outerBoundaryIs>
      </Polygon>
    </Placemark>
    <Placemark>
      <name>gap_0082</name>
      <description>confidence: 0.4802</description>
      <styleUrl>#gapStyle</styleUrl>
      <Polygon>
        <outerBoundaryIs><LinearRing><coordinates>
          114.02736863989958,22.50836692903249,0
          114.02761719418777,22.50836692903249,0
          114.02761719418777,22.50848532472446,0
          114.02736863989958,22.50848532472446,0
          114.02736863989958,22.50836692903249,0
        </coordinates></LinearRing></outerBoundaryIs>
      </Polygon>
    </Placemark>
    <Placemark>
      <name>gap_0083</name>
      <description>confidence: 0.4758</description>
      <styleUrl>#gapStyle</styleUrl>
      <Polygon>
        <outerBoundaryIs><LinearRing><coordinates>
          114.02035942439397,22.52026764814218,0
          114.02046184601204,22.52026764814218,0
          114.02046184601204,22.520362222203403,0
          114.02035942439397,22.520362222203403,0
          114.02035942439397,22.52026764814218,0
        </coordinates></LinearRing></outerBoundaryIs>
      </Polygon>
    </Placemark>
    <Placemark>
      <name>gap_0084</name>
      <description>confidence: 0.4725</description>
      <styleUrl>#gapStyle</styleUrl>
      <Polygon>
        <outerBoundaryIs><LinearRing><coordinates>
          114.02116575950913,22.51966391615042,0
          114.02133358665651,22.51966391615042,0
          114.02133358665651,22.519775774950404,0
          114.02116575950913,22.519775774950404,0
          114.02116575950913,22.51966391615042,0
        </coordinates></LinearRing></outerBoundaryIs>
      </Polygon>
    </Placemark>
    <Placemark>
      <name>gap_0085</name>
      <description>confidence: 0.4687</description>
      <styleUrl>#gapStyle</styleUrl>
      <Polygon>
        <outerBoundaryIs><LinearRing><coordinates>
          114.02305235569656,22.52187124962802,0
          114.02317485942149,22.52187124962802,0
          114.02317485942149,22.5220429096953,0
          114.02305235569656,22.5220429096953,0
          114.02305235569656,22.52187124962802,0
        </coordinates></LinearRing></outerBoundaryIs>
      </Polygon>
    </Placemark>
    <Placemark>
      <name>gap_0086</name>
      <description>confidence: 0.4574</description>
      <styleUrl>#gapStyle</styleUrl>
      <Polygon>
        <outerBoundaryIs><LinearRing><coordinates>
          114.0367973460252,22.508575282845413,0
          114.03701355197882,22.508575282845413,0
          114.03701355197882,22.508879234883352,0
          114.0367973460252,22.508879234883352,0
          114.0367973460252,22.508575282845413,0
        </coordinates></LinearRing></outerBoundaryIs>
      </Polygon>
    </Placemark>
    <Placemark>
      <name>gap_0087</name>
      <description>confidence: 0.4569</description>
      <styleUrl>#gapStyle</styleUrl>
      <Polygon>
        <outerBoundaryIs><LinearRing><coordinates>
          114.03420025458217,22.51084364586859,0
          114.03452686910896,22.51084364586859,0
          114.03452686910896,22.511276426080258,0
          114.03420025458217,22.511276426080258,0
          114.03420025458217,22.51084364586859,0
        </coordinates></LinearRing></outerBoundaryIs>
      </Polygon>
    </Placemark>
    <Placemark>
      <name>gap_0088</name>
      <description>confidence: 0.4377</description>
      <styleUrl>#gapStyle</styleUrl>
      <Polygon>
        <outerBoundaryIs><LinearRing><coordinates>
          114.03150795855254,22.520158177867415,0
          114.0317669839169,22.520158177867415,0
          114.0317669839169,22.52039216524281,0
          114.03150795855254,22.52039216524281,0
          114.03150795855254,22.520158177867415,0
        </coordinates></LinearRing></outerBoundaryIs>
      </Polygon>
    </Placemark>
    <Placemark>
      <name>gap_0089</name>
      <description>confidence: 0.4373</description>
      <styleUrl>#gapStyle</styleUrl>
      <Polygon>
        <outerBoundaryIs><LinearRing><coordinates>
          114.02176545623661,22.523976546326594,0
          114.02199444491998,22.523976546326594,0
          114.02199444491998,22.524153774465958,0
          114.02176545623661,22.524153774465958,0
          114.02176545623661,22.523976546326594,0
        </coordinates></LinearRing></outerBoundaryIs>
      </Polygon>
    </Placemark>
    <Placemark>
      <name>gap_0090</name>
      <description>confidence: 0.4364</description>
      <styleUrl>#gapStyle</styleUrl>
      <Polygon>
        <outerBoundaryIs><LinearRing><coordinates>
          114.02192197583645,22.523845772266213,0
          114.02220957514146,22.523845772266213,0
          114.02220957514146,22.52411558310996,0
          114.02192197583645,22.52411558310996,0
          114.02192197583645,22.523845772266213,0
        </coordinates></LinearRing></outerBoundaryIs>
      </Polygon>
    </Placemark>
    <Placemark>
      <name>gap_0091</name>
      <description>confidence: 0.4327</description>
      <styleUrl>#gapStyle</styleUrl>
      <Polygon>
        <outerBoundaryIs><LinearRing><coordinates>
          114.03381640720909,22.51500920552644,0
          114.03402986448782,22.51500920552644,0
          114.03402986448782,22.515187609096756,0
          114.03381640720909,22.515187609096756,0
          114.03381640720909,22.51500920552644,0
        </coordinates></LinearRing></outerBoundaryIs>
      </Polygon>
    </Placemark>
    <Placemark>
      <name>gap_0092</name>
      <description>confidence: 0.4324</description>
      <styleUrl>#gapStyle</styleUrl>
      <Polygon>
        <outerBoundaryIs><LinearRing><coordinates>
          114.03365213271172,22.514840151543467,0
          114.03391905114404,22.514840151543467,0
          114.03391905114404,22.515157369907683,0
          114.03365213271172,22.515157369907683,0
          114.03365213271172,22.514840151543467,0
        </coordinates></LinearRing></outerBoundaryIs>
      </Polygon>
    </Placemark>
    <Placemark>
      <name>gap_0093</name>
      <description>confidence: 0.4282</description>
      <styleUrl>#gapStyle</styleUrl>
      <Polygon>
        <outerBoundaryIs><LinearRing><coordinates>
          114.02907007563044,22.51521102145489,0
          114.02918117775698,22.51521102145489,0
          114.02918117775698,22.515315700948122,0
          114.02907007563044,22.515315700948122,0
          114.02907007563044,22.51521102145489,0
        </coordinates></LinearRing></outerBoundaryIs>
      </Polygon>
    </Placemark>
    <Placemark>
      <name>gap_0094</name>
      <description>confidence: 0.4271</description>
      <styleUrl>#gapStyle</styleUrl>
      <Polygon>
        <outerBoundaryIs><LinearRing><coordinates>
          114.02699634498276,22.51242562138941,0
          114.02720334524929,22.51242562138941,0
          114.02720334524929,22.512625357885554,0
          114.02699634498276,22.512625357885554,0
          114.02699634498276,22.51242562138941,0
        </coordinates></LinearRing></outerBoundaryIs>
      </Polygon>
    </Placemark>
    <Placemark>
      <name>gap_0095</name>
      <description>confidence: 0.4247</description>
      <styleUrl>#gapStyle</styleUrl>
      <Polygon>
        <outerBoundaryIs><LinearRing><coordinates>
          114.03691621835605,22.513653961141245,0
          114.03714921463688,22.513653961141245,0
          114.03714921463688,22.513857821468264,0
          114.03691621835605,22.513857821468264,0
          114.03691621835605,22.513653961141245,0
        </coordinates></LinearRing></outerBoundaryIs>
      </Polygon>
    </Placemark>
    <Placemark>
      <name>gap_0096</name>
      <description>confidence: 0.4223</description>
      <styleUrl>#gapStyle</styleUrl>
      <Polygon>
        <outerBoundaryIs><LinearRing><coordinates>
          114.02871871770913,22.51973602855287,0
          114.02885318046174,22.51973602855287,0
          114.02885318046174,22.519904288710677,0
          114.02871871770913,22.519904288710677,0
          114.02871871770913,22.51973602855287,0
        </coordinates></LinearRing></outerBoundaryIs>
      </Polygon>
    </Placemark>
    <Placemark>
      <name>gap_0097</name>
      <description>confidence: 0.4050</description>
      <styleUrl>#gapStyle</styleUrl>
      <Polygon>
        <outerBoundaryIs><LinearRing><coordinates>
          114.01179472042713,22.52620992014272,0
          114.01202881388599,22.52620992014272,0
          114.01202881388599,22.5263716686095,0
          114.01179472042713,22.5263716686095,0
          114.01179472042713,22.52620992014272,0
        </coordinates></LinearRing></outerBoundaryIs>
      </Polygon>
    </Placemark>
    <Placemark>
      <name>gap_0098</name>
      <description>confidence: 0.4018</description>
      <styleUrl>#gapStyle</styleUrl>
      <Polygon>
        <outerBoundaryIs><LinearRing><coordinates>
          114.03371542704917,22.50955706588684,0
          114.03403855661963,22.50955706588684,0
          114.03403855661963,22.509758955566213,0
          114.03371542704917,22.509758955566213,0
          114.03371542704917,22.50955706588684,0
        </coordinates></LinearRing></outerBoundaryIs>
      </Polygon>
    </Placemark>
    <Placemark>
      <name>gap_0099</name>
      <description>confidence: 0.3912</description>
      <styleUrl>#gapStyle</styleUrl>
      <Polygon>
        <outerBoundaryIs><LinearRing><coordinates>
          114.00234604228899,22.529327946704143,0
          114.00244277665479,22.529327946704143,0
          114.00244277665479,22.529465891220752,0
          114.00234604228899,22.529465891220752,0
          114.00234604228899,22.529327946704143,0
        </coordinates></LinearRing></outerBoundaryIs>
      </Polygon>
    </Placemark>
    <Placemark>
      <name>gap_0100</name>
      <description>confidence: 0.3795</description>
      <styleUrl>#gapStyle</styleUrl>
      <Polygon>
        <outerBoundaryIs><LinearRing><coordinates>
          114.03693686992483,22.51305660647631,0
          114.037277546322,22.51305660647631,0
          114.037277546322,22.513210339093348,0
          114.03693686992483,22.513210339093348,0
          114.03693686992483,22.51305660647631,0
        </coordinates></LinearRing></outerBoundaryIs>
      </Polygon>
    </Placemark>
    <Placemark>
      <name>gap_0101</name>
      <description>confidence: 0.3766</description>
      <styleUrl>#gapStyle</styleUrl>
      <Polygon>
        <outerBoundaryIs><LinearRing><coordinates>
          114.03565887558216,22.507234762451844,0
          114.03590296838956,22.507234762451844,0
          114.03590296838956,22.507466654351447,0
          114.03565887558216,22.507466654351447,0
          114.03565887558216,22.507234762451844,0
        </coordinates></LinearRing></outerBoundaryIs>
      </Polygon>
    </Placemark>
    <Placemark>
      <name>gap_0102</name>
      <description>confidence: 0.3761</description>
      <styleUrl>#gapStyle</styleUrl>
      <Polygon>
        <outerBoundaryIs><LinearRing><coordinates>
          113.9928800645248,22.524837982018653,0
          113.99295489527503,22.524837982018653,0
          113.99295489527503,22.52493603326002,0
          113.9928800645248,22.52493603326002,0
          113.9928800645248,22.524837982018653,0
        </coordinates></LinearRing></outerBoundaryIs>
      </Polygon>
    </Placemark>
    <Placemark>
      <name>gap_0103</name>
      <description>confidence: 0.3747</description>
      <styleUrl>#gapStyle</styleUrl>
      <Polygon>
        <outerBoundaryIs><LinearRing><coordinates>
          114.03901855617733,22.512147213528806,0
          114.03917200197611,22.512147213528806,0
          114.03917200197611,22.512287243371247,0
          114.03901855617733,22.512287243371247,0
          114.03901855617733,22.512147213528806,0
        </coordinates></LinearRing></outerBoundaryIs>
      </Polygon>
    </Placemark>
    <Placemark>
      <name>gap_0104</name>
      <description>confidence: 0.3646</description>
      <styleUrl>#gapStyle</styleUrl>
      <Polygon>
        <outerBoundaryIs><LinearRing><coordinates>
          114.03343680816761,22.516967305527942,0
          114.03356176400848,22.516967305527942,0
          114.03356176400848,22.517161182877317,0
          114.03343680816761,22.517161182877317,0
          114.03343680816761,22.516967305527942,0
        </coordinates></LinearRing></outerBoundaryIs>
      </Polygon>
    </Placemark>
    <Placemark>
      <name>gap_0105</name>
      <description>confidence: 0.3598</description>
      <styleUrl>#gapStyle</styleUrl>
      <Polygon>
        <outerBoundaryIs><LinearRing><coordinates>
          114.02418131063314,22.517583616227057,0
          114.02444667775853,22.517583616227057,0
          114.02444667775853,22.517765004868124,0
          114.02418131063314,22.517765004868124,0
          114.02418131063314,22.517583616227057,0
        </coordinates></LinearRing></outerBoundaryIs>
      </Polygon>
    </Placemark>
    <Placemark>
      <name>gap_0106</name>
      <description>confidence: 0.3588</description>
      <styleUrl>#gapStyle</styleUrl>
      <Polygon>
        <outerBoundaryIs><LinearRing><coordinates>
          114.02263750219845,22.5232855579452,0
          114.02285229530207,22.5232855579452,0
          114.02285229530207,22.523669472357142,0
          114.02263750219845,22.523669472357142,0
          114.02263750219845,22.5232855579452,0
        </coordinates></LinearRing></outerBoundaryIs>
      </Polygon>
    </Placemark>
    <Placemark>
      <name>gap_0107</name>
      <description>confidence: 0.3579</description>
      <styleUrl>#gapStyle</styleUrl>
      <Polygon>
        <outerBoundaryIs><LinearRing><coordinates>
          114.03465325372053,22.51353406063572,0
          114.03490429343947,22.51353406063572,0
          114.03490429343947,22.513774873859802,0
          114.03465325372053,22.513774873859802,0
          114.03465325372053,22.51353406063572,0
        </coordinates></LinearRing></outerBoundaryIs>
      </Polygon>
    </Placemark>
    <Placemark>
      <name>gap_0108</name>
      <description>confidence: 0.3572</description>
      <styleUrl>#gapStyle</styleUrl>
      <Polygon>
        <outerBoundaryIs><LinearRing><coordinates>
          114.01920318603516,22.5253121849164,0
          114.0193809454513,22.5253121849164,0
          114.0193809454513,22.52564488491771,0
          114.01920318603516,22.52564488491771,0
          114.01920318603516,22.5253121849164,0
        </coordinates></LinearRing></outerBoundaryIs>
      </Polygon>
    </Placemark>
    <Placemark>
      <name>gap_0109</name>
      <description>confidence: 0.3564</description>
      <styleUrl>#gapStyle</styleUrl>
      <Polygon>
        <outerBoundaryIs><LinearRing><coordinates>
          114.03334446808003,22.51601891131486,0
          114.03358422227029,22.51601891131486,0
          114.03358422227029,22.51618722115836,0
          114.03334446808003,22.51618722115836,0
          114.03334446808003,22.51601891131486,0
        </coordinates></LinearRing></outerBoundaryIs>
      </Polygon>
    </Placemark>
    <Placemark>
      <name>gap_0110</name>
      <description>confidence: 0.3555</description>
      <styleUrl>#gapStyle</styleUrl>
      <Polygon>
        <outerBoundaryIs><LinearRing><coordinates>
          114.03828673057433,22.511534161458258,0
          114.03849874557636,22.511534161458258,0
          114.03849874557636,22.511712086343323,0
          114.03828673057433,22.511712086343323,0
          114.03828673057433,22.511534161458258,0
        </coordinates></LinearRing></outerBoundaryIs>
      </Polygon>
    </Placemark>
    <Placemark>
      <name>gap_0111</name>
      <description>confidence: 0.3526</description>
      <styleUrl>#gapStyle</styleUrl>
      <Polygon>
        <outerBoundaryIs><LinearRing><coordinates>
          114.0332276170443,22.510975188051816,0
          114.03338908477053,22.510975188051816,0
          114.03338908477053,22.511121627921966,0
          114.0332276170443,22.511121627921966,0
          114.0332276170443,22.510975188051816,0
        </coordinates></LinearRing></outerBoundaryIs>
      </Polygon>
    </Placemark>
    <Placemark>
      <name>gap_0112</name>
      <description>confidence: 0.3490</description>
      <styleUrl>#gapStyle</styleUrl>
      <Polygon>
        <outerBoundaryIs><LinearRing><coordinates>
          114.03501807360044,22.508194222536986,0
          114.03525259499474,22.508194222536986,0
          114.03525259499474,22.50840261891426,0
          114.03501807360044,22.50840261891426,0
          114.03501807360044,22.508194222536986,0
        </coordinates></LinearRing></outerBoundaryIs>
      </Polygon>
    </Placemark>
    <Placemark>
      <name>gap_0113</name>
      <description>confidence: 0.3466</description>
      <styleUrl>#gapStyle</styleUrl>
      <Polygon>
        <outerBoundaryIs><LinearRing><coordinates>
          114.02848345340317,22.513193880768085,0
          114.02864563995536,22.513193880768085,0
          114.02864563995536,22.513323576968105,0
          114.02848345340317,22.513323576968105,0
          114.02848345340317,22.513193880768085,0
        </coordinates></LinearRing></outerBoundaryIs>
      </Polygon>
    </Placemark>
    <Placemark>
      <name>gap_0114</name>
      <description>confidence: 0.3415</description>
      <styleUrl>#gapStyle</styleUrl>
      <Polygon>
        <outerBoundaryIs><LinearRing><coordinates>
          114.02927268194617,22.517028906622727,0
          114.02940477943048,22.517028906622727,0
          114.02940477943048,22.51718320305372,0
          114.02927268194617,22.51718320305372,0
          114.02927268194617,22.517028906622727,0
        </coordinates></LinearRing></outerBoundaryIs>
      </Polygon>
    </Placemark>
    <Placemark>
      <name>gap_0115</name>
      <description>confidence: 0.3415</description>
      <styleUrl>#gapStyle</styleUrl>
      <Polygon>
        <outerBoundaryIs><LinearRing><coordinates>
          114.03547367153806,22.514043909868633,0
          114.03567682988069,22.514043909868633,0
          114.03567682988069,22.514219591612346,0
          114.03547367153806,22.514219591612346,0
          114.03547367153806,22.514043909868633,0
        </coordinates></LinearRing></outerBoundaryIs>
      </Polygon>
    </Placemark>
    <Placemark>
      <name>gap_0116</name>
      <description>confidence: 0.3413</description>
      <styleUrl>#gapStyle</styleUrl>
      <Polygon>
        <outerBoundaryIs><LinearRing><coordinates>
          114.02857116510859,22.51572888588271,0
          114.02880494555575,22.51572888588271,0
          114.02880494555575,22.515896720396995,0
          114.02857116510859,22.515896720396995,0
          114.02857116510859,22.51572888588271,0
        </coordinates></LinearRing></outerBoundaryIs>
      </Polygon>
    </Placemark>
    <Placemark>
      <name>gap_0117</name>
      <description>confidence: 0.3391</description>
      <styleUrl>#gapStyle</styleUrl>
      <Polygon>
        <outerBoundaryIs><LinearRing><coordinates>
          114.03196336372275,22.51081491362129,0
          114.0320998937932,22.51081491362129,0
          114.0320998937932,22.51097647284041,0
          114.03196336372275,22.51097647284041,0
          114.03196336372275,22.51081491362129,0
        </coordinates></LinearRing></outerBoundaryIs>
      </Polygon>
    </Placemark>
    <Placemark>
      <name>gap_0118</name>
      <description>confidence: 0.3376</description>
      <styleUrl>#gapStyle</styleUrl>
      <Polygon>
        <outerBoundaryIs><LinearRing><coordinates>
          113.99674090484041,22.527710345966625,0
          113.99685497730388,22.527710345966625,0
          113.99685497730388,22.527822035481222,0
          113.99674090484041,22.527822035481222,0
          113.99674090484041,22.527710345966625,0
        </coordinates></LinearRing></outerBoundaryIs>
      </Polygon>
    </Placemark>
    <Placemark>
      <name>gap_0119</name>
      <description>confidence: 0.3348</description>
      <styleUrl>#gapStyle</styleUrl>
      <Polygon>
        <outerBoundaryIs><LinearRing><coordinates>
          114.03694648324745,22.516147854105384,0
          114.03718138215481,22.516147854105384,0
          114.03718138215481,22.51631047260389,0
          114.03694648324745,22.51631047260389,0
          114.03694648324745,22.516147854105384,0
        </coordinates></LinearRing></outerBoundaryIs>
      </Polygon>
    </Placemark>
    <Placemark>
      <name>gap_0120</name>
      <description>confidence: 0.3328</description>
      <styleUrl>#gapStyle</styleUrl>
      <Polygon>
        <outerBoundaryIs><LinearRing><coordinates>
          114.03467726830286,22.516470872251375,0
          114.03489363164226,22.516470872251375,0
          114.03489363164226,22.51665194558882,0
          114.03467726830286,22.51665194558882,0
          114.03467726830286,22.516470872251375,0
        </coordinates></LinearRing></outerBoundaryIs>
      </Polygon>
    </Placemark>
    <Placemark>
      <name>gap_0121</name>
      <description>confidence: 0.3318</description>
      <styleUrl>#gapStyle</styleUrl>
      <Polygon>
        <outerBoundaryIs><LinearRing><coordinates>
          114.03582134436874,22.508141738726408,0
          114.03609151537239,22.508141738726408,0
          114.03609151537239,22.508409964866587,0
          114.03582134436874,22.508409964866587,0
          114.03582134436874,22.508141738726408,0
        </coordinates></LinearRing></outerBoundaryIs>
      </Polygon>
    </Placemark>
    <Placemark>
      <name>gap_0122</name>
      <description>confidence: 0.3252</description>
      <styleUrl>#gapStyle</styleUrl>
      <Polygon>
        <outerBoundaryIs><LinearRing><coordinates>
          114.02621133292996,22.511832989403047,0
          114.02653478140564,22.511832989403047,0
          114.02653478140564,22.512040137007716,0
          114.02621133292996,22.512040137007716,0
          114.02621133292996,22.511832989403047,0
        </coordinates></LinearRing></outerBoundaryIs>
      </Polygon>
    </Placemark>
    <Placemark>
      <name>gap_0123</name>
      <description>confidence: 0.3220</description>
      <styleUrl>#gapStyle</styleUrl>
      <Polygon>
        <outerBoundaryIs><LinearRing><coordinates>
          114.0260710223265,22.521629333496094,0
          114.02630985370934,22.521629333496094,0
          114.02630985370934,22.521858576910745,0
          114.0260710223265,22.521858576910745,0
          114.0260710223265,22.521629333496094,0
        </coordinates></LinearRing></outerBoundaryIs>
      </Polygon>
    </Placemark>
    <Placemark>
      <name>gap_0124</name>
      <description>confidence: 0.3124</description>
      <styleUrl>#gapStyle</styleUrl>
      <Polygon>
        <outerBoundaryIs><LinearRing><coordinates>
          114.02952872944297,22.514773759176023,0
          114.02970458570053,22.514773759176023,0
          114.02970458570053,22.514863154137856,0
          114.02952872944297,22.514863154137856,0
          114.02952872944297,22.514773759176023,0
        </coordinates></LinearRing></outerBoundaryIs>
      </Polygon>
    </Placemark>
    <Placemark>
      <name>gap_0125</name>
      <description>confidence: 0.2957</description>
      <styleUrl>#gapStyle</styleUrl>
      <Polygon>
        <outerBoundaryIs><LinearRing><coordinates>
          114.02872718130311,22.50797880173195,0
          114.02908083720831,22.50797880173195,0
          114.02908083720831,22.50835948943859,0
          114.02872718130311,22.50835948943859,0
          114.02872718130311,22.50797880173195,0
        </coordinates></LinearRing></outerBoundaryIs>
      </Polygon>
    </Placemark>
    <Placemark>
      <name>gap_0126</name>
      <description>confidence: 0.2874</description>
      <styleUrl>#gapStyle</styleUrl>
      <Polygon>
        <outerBoundaryIs><LinearRing><coordinates>
          114.01236047914381,22.52818085886247,0
          114.01263208736964,22.52818085886247,0
          114.01263208736964,22.52838182972482,0
          114.01236047914381,22.52838182972482,0
          114.01236047914381,22.52818085886247,0
        </coordinates></LinearRing></outerBoundaryIs>
      </Polygon>
    </Placemark>
    <Placemark>
      <name>gap_0127</name>
      <description>confidence: 0.2847</description>
      <styleUrl>#gapStyle</styleUrl>
      <Polygon>
        <outerBoundaryIs><LinearRing><coordinates>
          114.03234992874786,22.509353714040117,0
          114.03263558924664,22.509353714040117,0
          114.03263558924664,22.50965129697761,0
          114.03234992874786,22.50965129697761,0
          114.03234992874786,22.509353714040117,0
        </coordinates></LinearRing></outerBoundaryIs>
      </Polygon>
    </Placemark>
    <Placemark>
      <name>gap_0128</name>
      <description>confidence: 0.2840</description>
      <styleUrl>#gapStyle</styleUrl>
      <Polygon>
        <outerBoundaryIs><LinearRing><coordinates>
          114.02555290071177,22.517601994368306,0
          114.02570460006245,22.517601994368306,0
          114.02570460006245,22.517799031629693,0
          114.02555290071177,22.517799031629693,0
          114.02555290071177,22.517601994368306,0
        </coordinates></LinearRing></outerBoundaryIs>
      </Polygon>
    </Placemark>
    <Placemark>
      <name>gap_0129</name>
      <description>confidence: 0.2781</description>
      <styleUrl>#gapStyle</styleUrl>
      <Polygon>
        <outerBoundaryIs><LinearRing><coordinates>
          114.0346809456787,22.516133382205226,0
          114.03488965883298,22.516133382205226,0
          114.03488965883298,22.516296361191053,0
          114.0346809456787,22.516296361191053,0
          114.0346809456787,22.516133382205226,0
        </coordinates></LinearRing></outerBoundaryIs>
      </Polygon>
    </Placemark>
    <Placemark>
      <name>gap_0130</name>
      <description>confidence: 0.2700</description>
      <styleUrl>#gapStyle</styleUrl>
      <Polygon>
        <outerBoundaryIs><LinearRing><coordinates>
          114.03052234038114,22.515638044387742,0
          114.03063748955901,22.515638044387742,0
          114.03063748955901,22.51582046275871,0
          114.03052234038114,22.51582046275871,0
          114.03052234038114,22.515638044387742,0
        </coordinates></LinearRing></outerBoundaryIs>
      </Polygon>
    </Placemark>
    <Placemark>
      <name>gap_0131</name>
      <description>confidence: 0.2699</description>
      <styleUrl>#gapStyle</styleUrl>
      <Polygon>
        <outerBoundaryIs><LinearRing><coordinates>
          114.02734821924241,22.517312408945145,0
          114.02743191909394,22.517312408945145,0
          114.02743191909394,22.517408371913916,0
          114.02734821924241,22.517408371913916,0
          114.02734821924241,22.517312408945145,0
        </coordinates></LinearRing></outerBoundaryIs>
      </Polygon>
    </Placemark>
    <Placemark>
      <name>gap_0132</name>
      <description>confidence: 0.2639</description>
      <styleUrl>#gapStyle</styleUrl>
      <Polygon>
        <outerBoundaryIs><LinearRing><coordinates>
          114.03717475423036,22.512896347434435,0
          114.03728516910633,22.512896347434435,0
          114.03728516910633,22.51301304808294,0
          114.03717475423036,22.51301304808294,0
          114.03717475423036,22.512896347434435,0
        </coordinates></LinearRing></outerBoundaryIs>
      </Polygon>
    </Placemark>
    <Placemark>
      <name>gap_0133</name>
      <description>confidence: 0.2624</description>
      <styleUrl>#gapStyle</styleUrl>
      <Polygon>
        <outerBoundaryIs><LinearRing><coordinates>
          114.01058775256388,22.5273577500775,0
          114.0107724720292,22.5273577500775,0
          114.0107724720292,22.52751677246124,0
          114.01058775256388,22.52751677246124,0
          114.01058775256388,22.5273577500775,0
        </coordinates></LinearRing></outerBoundaryIs>
      </Polygon>
    </Placemark>
    <Placemark>
      <name>gap_0134</name>
      <description>confidence: 0.2618</description>
      <styleUrl>#gapStyle</styleUrl>
      <Polygon>
        <outerBoundaryIs><LinearRing><coordinates>
          114.03542623119392,22.51462457421212,0
          114.0356194461765,22.51462457421212,0
          114.0356194461765,22.51476218641983,0
          114.03542623119392,22.51476218641983,0
          114.03542623119392,22.51462457421212,0
        </coordinates></LinearRing></outerBoundaryIs>
      </Polygon>
    </Placemark>
    <Placemark>
      <name>gap_0135</name>
      <description>confidence: 0.2514</description>
      <styleUrl>#gapStyle</styleUrl>
      <Polygon>
        <outerBoundaryIs><LinearRing><coordinates>
          114.03462869417126,22.511337040705257,0
          114.03478991549491,22.511337040705257,0
          114.03478991549491,22.511422578027123,0
          114.03462869417126,22.511422578027123,0
          114.03462869417126,22.511337040705257,0
        </coordinates></LinearRing></outerBoundaryIs>
      </Polygon>
    </Placemark>
  </Document>
</kml>