<?xml version="1.0" encoding="UTF-8"?>
<kml xmlns="http://www.opengis.net/kml/2.2">
  <Document>
    <name>Mangrove Gap Detections - 2021-01-01</name>
    <Style id="gapStyle">
      <LineStyle><color>ff00ff00</color><width>2</width></LineStyle>
      <PolyStyle><color>4000ff00</color></PolyStyle>
    </Style>
    <Placemark>
      <name>gap_0001</name>
      <description>confidence: 0.9148</description>
      <styleUrl>#gapStyle</styleUrl>
      <Polygon>
        <outerBoundaryIs><LinearRing><coordinates>
          114.02814842263524,22.508850678950694,0
          114.02835196561227,22.508850678950694,0
          114.02835196561227,22.50908742154934,0
          114.02814842263524,22.50908742154934,0
          114.02814842263524,22.508850678950694,0
        </coordinates></LinearRing></outerBoundaryIs>
      </Polygon>
    </Placemark>
    <Placemark>
      <name>gap_0002</name>
      <description>confidence: 0.8610</description>
      <styleUrl>#gapStyle</styleUrl>
      <Polygon>
        <outerBoundaryIs><LinearRing><coordinates>
          114.02797952873925,22.51617542031454,0
          114.02809964092057,22.51617542031454,0
          114.02809964092057,22.51630984705116,0
          114.02797952873925,22.51630984705116,0
          114.02797952873925,22.51617542031454,0
        </coordinates></LinearRing></outerBoundaryIs>
      </Polygon>
    </Placemark>
    <Placemark>
      <name>gap_0003</name>
      <description>confidence: 0.8542</description>
      <styleUrl>#gapStyle</styleUrl>
      <Polygon>
        <outerBoundaryIs><LinearRing><coordinates>
          114.02541851621208,22.516850502070156,0
          114.02561695449549,22.516850502070156,0
          114.02561695449549,22.51699362503132,0
          114.02541851621208,22.51699362503132,0
          114.02541851621208,22.516850502070156,0
        </coordinates></LinearRing></outerBoundaryIs>
      </Polygon>
    </Placemark>
    <Placemark>
      <name>gap_0004</name>
      <description>confidence: 0.8483</description>
      <styleUrl>#gapStyle</styleUrl>
      <Polygon>
        <outerBoundaryIs><LinearRing><coordinates>
          114.00291947742517,22.528702927993436,0
          114.00310438810266,22.528702927993436,0
          114.00310438810266,22.528863218794868,0
          114.00291947742517,22.528863218794868,0
          114.00291947742517,22.528702927993436,0
        </coordinates></LinearRing></outerBoundaryIs>
      </Polygon>
    </Placemark>
    <Placemark>
      <name>gap_0005</name>
      <description>confidence: 0.8246</description>
      <styleUrl>#gapStyle</styleUrl>
      <Polygon>
        <outerBoundaryIs><LinearRing><coordinates>
          114.03603330720898,22.51583069989465,0
          114.03636032890063,22.51583069989465,0
          114.03636032890063,22.516217088359554,0
          114.03603330720898,22.516217088359554,0
          114.03603330720898,22.51583069989465,0
        </coordinates></LinearRing></outerBoundaryIs>
      </Polygon>
    </Placemark>
    <Placemark>
      <name>gap_0006</name>
      <description>confidence: 0.8243</description>
      <styleUrl>#gapStyle</styleUrl>
      <Polygon>
        <outerBoundaryIs><LinearRing><coordinates>
          114.00942718148144,22.526029588243546,0
          114.00964623007894,22.526029588243546,0
          114.00964623007894,22.52619737479108,0
          114.00942718148144,22.52619737479108,0
          114.00942718148144,22.526029588243546,0
        </coordinates></LinearRing></outerBoundaryIs>
      </Polygon>
    </Placemark>
    <Placemark>
      <name>gap_0007</name>
      <description>confidence: 0.8191</description>
      <styleUrl>#gapStyle</styleUrl>
      <Polygon>
        <outerBoundaryIs><LinearRing><coordinates>
          114.01329332335081,22.52451873038808,0
          114.01354908075518,22.52451873038808,0
          114.01354908075518,22.52471384668752,0
          114.01329332335081,22.52471384668752,0
          114.01329332335081,22.52451873038808,0
        </coordinates></LinearRing></outerBoundaryIs>
      </Polygon>
    </Placemark>
    <Placemark>
      <name>gap_0008</name>
      <description>confidence: 0.8151</description>
      <styleUrl>#gapStyle</styleUrl>
      <Polygon>
        <outerBoundaryIs><LinearRing><coordinates>
          114.03524806491987,22.516965003287623,0
          114.03538128184664,22.516965003287623,0
          114.03538128184664,22.517135782272817,0
          114.03524806491987,22.517135782272817,0
          114.03524806491987,22.516965003287623,0
        </coordinates></LinearRing></outerBoundaryIs>
      </Polygon>
    </Placemark>
    <Placemark>
      <name>gap_0009</name>
      <description>confidence: 0.7900</description>
      <styleUrl>#gapStyle</styleUrl>
      <Polygon>
        <outerBoundaryIs><LinearRing><coordinates>
          114.03713847532345,22.510439380293974,0
          114.03749547302141,22.510439380293974,0
          114.03749547302141,22.51074589388736,0
          114.03713847532345,22.51074589388736,0
          114.03713847532345,22.510439380293974,0
        </coordinates></LinearRing></outerBoundaryIs>
      </Polygon>
    </Placemark>
    <Placemark>
      <name>gap_0010</name>
      <description>confidence: 0.7856</description>
      <styleUrl>#gapStyle</styleUrl>
      <Polygon>
        <outerBoundaryIs><LinearRing><coordinates>
          114.03295456971364,22.516812262911117,0
          114.0330785916251,22.516812262911117,0
          114.0330785916251,22.516993473109324,0
          114.03295456971364,22.516993473109324,0
          114.03295456971364,22.516812262911117,0
        </coordinates></LinearRing></outerBoundaryIs>
      </Polygon>
    </Placemark>
    <Placemark>
      <name>gap_0011</name>
      <description>confidence: 0.7823</description>
      <styleUrl>#gapStyle</styleUrl>
      <Polygon>
        <outerBoundaryIs><LinearRing><coordinates>
          114.0255186331342,22.523681192942604,0
          114.02574171879678,22.523681192942604,0
          114.02574171879678,22.52393549464614,0
          114.0255186331342,22.52393549464614,0
          114.0255186331342,22.523681192942604,0
        </coordinates></LinearRing></outerBoundaryIs>
      </Polygon>
    </Placemark>
    <Placemark>
      <name>gap_0012</name>
      <description>confidence: 0.7812</description>
      <styleUrl>#gapStyle</styleUrl>
      <Polygon>
        <outerBoundaryIs><LinearRing><coordinates>
          114.01126837881748,22.525516130699543,0
          114.01145747127885,22.525516130699543,0
          114.01145747127885,22.525745274906512,0
          114.01126837881748,22.525745274906512,0
          114.01126837881748,22.525516130699543,0
        </coordinates></LinearRing></outerBoundaryIs>
      </Polygon>
    </Placemark>
    <Placemark>
      <name>gap_0013</name>
      <description>confidence: 0.7785</description>
      <styleUrl>#gapStyle</styleUrl>
      <Polygon>
        <outerBoundaryIs><LinearRing><coordinates>
          114.0238618170406,22.5198517976969,0
          114.02406638786488,22.5198517976969,0
          114.02406638786488,22.520046550234838,0
          114.0238618170406,22.520046550234838,0
          114.0238618170406,22.5198517976969,0
        </coordinates></LinearRing></outerBoundaryIs>
      </Polygon>
    </Placemark>
    <Placemark>
      <name>gap_0014</name>
      <description>confidence: 0.7781</description>
      <styleUrl>#gapStyle</styleUrl>
      <Polygon>
        <outerBoundaryIs><LinearRing><coordinates>
          114.0329360961914,22.508818696915114,0
          114.03325692526096,22.508818696915114,0
          114.03325692526096,22.50922346916923,0
          114.0329360961914,22.50922346916923,0
          114.0329360961914,22.508818696915114,0
        </coordinates></LinearRing></outerBoundaryIs>
      </Polygon>
    </Placemark>
    <Placemark>
      <name>gap_0015</name>
      <description>confidence: 0.7751</description>
      <styleUrl>#gapStyle</styleUrl>
      <Polygon>
        <outerBoundaryIs><LinearRing><coordinates>
          114.02835870809213,22.515119604031497,0
          114.02846910954395,22.515119604031497,0
          114.02846910954395,22.5152136457109,0
          114.02835870809213,22.5152136457109,0
          114.02835870809213,22.515119604031497,0
        </coordinates></LinearRing></outerBoundaryIs>
      </Polygon>
    </Placemark>
    <Placemark>
      <name>gap_0016</name>
      <description>confidence: 0.7723</description>
      <styleUrl>#gapStyle</styleUrl>
      <Polygon>
        <outerBoundaryIs><LinearRing><coordinates>
          114.01654328827135,22.527281637158012,0
          114.01673472308175,22.527281637158012,0
          114.01673472308175,22.527451496425783,0
          114.01654328827135,22.527451496425783,0
          114.01654328827135,22.527281637158012,0
        </coordinates></LinearRing></outerBoundaryIs>
      </Polygon>
    </Placemark>
    <Placemark>
      <name>gap_0017</name>
      <description>confidence: 0.7599</description>
      <styleUrl>#gapStyle</styleUrl>
      <Polygon>
        <outerBoundaryIs><LinearRing><coordinates>
          114.03693299624138,22.513669545587618,0
          114.0370986036578,22.513669545587618,0
          114.0370986036578,22.513835493518854,0
          114.03693299624138,22.513835493518854,0
          114.03693299624138,22.513669545587618,0
        </coordinates></LinearRing></outerBoundaryIs>
      </Polygon>
    </Placemark>
    <Placemark>
      <name>gap_0018</name>
      <description>confidence: 0.7429</description>
      <styleUrl>#gapStyle</styleUrl>
      <Polygon>
        <outerBoundaryIs><LinearRing><coordinates>
          114.0290423724582,22.515228265256155,0
          114.02916420931433,22.515228265256155,0
          114.02916420931433,22.51533370174002,0
          114.0290423724582,22.51533370174002,0
          114.0290423724582,22.515228265256155,0
        </coordinates></LinearRing></outerBoundaryIs>
      </Polygon>
    </Placemark>
    <Placemark>
      <name>gap_0019</name>
      <description>confidence: 0.7333</description>
      <styleUrl>#gapStyle</styleUrl>
      <Polygon>
        <outerBoundaryIs><LinearRing><coordinates>
          114.02880809089766,22.508443347433058,0
          114.02914769860217,22.508443347433058,0
          114.02914769860217,22.508826597841107,0
          114.02880809089766,22.508826597841107,0
          114.02880809089766,22.508443347433058,0
        </coordinates></LinearRing></outerBoundaryIs>
      </Polygon>
    </Placemark>
    <Placemark>
      <name>gap_0020</name>
      <description>confidence: 0.7300</description>
      <styleUrl>#gapStyle</styleUrl>
      <Polygon>
        <outerBoundaryIs><LinearRing><coordinates>
          114.03896131989313,22.51337514957413,0
          114.0391516755335,22.51337514957413,0
          114.0391516755335,22.513571262534242,0
          114.03896131989313,22.513571262534242,0
          114.03896131989313,22.51337514957413,0
        </coordinates></LinearRing></outerBoundaryIs>
      </Polygon>
    </Placemark>
    <Placemark>
      <name>gap_0021</name>
      <description>confidence: 0.7292</description>
      <styleUrl>#gapStyle</styleUrl>
      <Polygon>
        <outerBoundaryIs><LinearRing><coordinates>
          113.99561113782511,22.524856908585207,0
          113.99582367718722,22.524856908585207,0
          113.99582367718722,22.525019127551786,0
          113.99561113782511,22.525019127551786,0
          113.99561113782511,22.524856908585207,0
        </coordinates></LinearRing></outerBoundaryIs>
      </Polygon>
    </Placemark>
    <Placemark>
      <name>gap_0022</name>
      <description>confidence: 0.7291</description>
      <styleUrl>#gapStyle</styleUrl>
      <Polygon>
        <outerBoundaryIs><LinearRing><coordinates>
          114.03365457983455,22.51166617283161,0
          114.03403499545675,22.51166617283161,0
          114.03403499545675,22.512029068639094,0
          114.03365457983455,22.512029068639094,0
          114.03365457983455,22.51166617283161,0
        </coordinates></LinearRing></outerBoundaryIs>
      </Polygon>
    </Placemark>
    <Placemark>
      <name>gap_0023</name>
      <description>confidence: 0.7141</description>
      <styleUrl>#gapStyle</styleUrl>
      <Polygon>
        <outerBoundaryIs><LinearRing><coordinates>
          114.03824753650042,22.5113165269795,0
          114.03858464846053,22.5113165269795,0
          114.03858464846053,22.511506737246236,0
          114.03824753650042,22.511506737246236,0
          114.03824753650042,22.5113165269795,0
        </coordinates></LinearRing></outerBoundaryIs>
      </Polygon>
    </Placemark>
    <Placemark>
      <name>gap_0024</name>
      <description>confidence: 0.7116</description>
      <styleUrl>#gapStyle</styleUrl>
      <Polygon>
        <outerBoundaryIs><LinearRing><coordinates>
          114.02813467602755,22.51020612027787,0
          114.02824068647533,22.51020612027787,0
          114.02824068647533,22.510299956338713,0
          114.02813467602755,22.510299956338713,0
          114.02813467602755,22.51020612027787,0
        </coordinates></LinearRing></outerBoundaryIs>
      </Polygon>
    </Placemark>
    <Placemark>
      <name>gap_0025</name>
      <description>confidence: 0.7111</description>
      <styleUrl>#gapStyle</styleUrl>
      <Polygon>
        <outerBoundaryIs><LinearRing><coordinates>
          114.01577223785807,22.526724649542302,0
          114.01616923798429,22.526724649542302,0
          114.01616923798429,22.527032099060307,0
          114.01577223785807,22.527032099060307,0
          114.01577223785807,22.526724649542302,0
        </coordinates></LinearRing></outerBoundaryIs>
      </Polygon>
    </Placemark>
    <Placemark>
      <name>gap_0026</name>
      <description>confidence: 0.7093</description>
      <styleUrl>#gapStyle</styleUrl>
      <Polygon>
        <outerBoundaryIs><LinearRing><coordinates>
          114.01994053059752,22.523571124147566,0
          114.0201201187665,22.523571124147566,0
          114.0201201187665,22.523741133372823,0
          114.01994053059752,22.523741133372823,0
          114.01994053059752,22.523571124147566,0
        </coordinates></LinearRing></outerBoundaryIs>
      </Polygon>
    </Placemark>
    <Placemark>
      <name>gap_0027</name>
      <description>confidence: 0.7081</description>
      <styleUrl>#gapStyle</styleUrl>
      <Polygon>
        <outerBoundaryIs><LinearRing><coordinates>
          114.02856678032549,22.50925343578274,0
          114.02874745781446,22.50925343578274,0
          114.02874745781446,22.50945050480368,0
          114.02856678032549,22.50945050480368,0
          114.02856678032549,22.50925343578274,0
        </coordinates></LinearRing></outerBoundaryIs>
      </Polygon>
    </Placemark>
    <Placemark>
      <name>gap_0028</name>
      <description>confidence: 0.6870</description>
      <styleUrl>#gapStyle</styleUrl>
      <Polygon>
        <outerBoundaryIs><LinearRing><coordinates>
          114.03691086719846,22.50848872201459,0
          114.03715962522256,22.50848872201459,0
          114.03715962522256,22.508753412366787,0
          114.03691086719846,22.508753412366787,0
          114.03691086719846,22.50848872201459,0
        </coordinates></LinearRing></outerBoundaryIs>
      </Polygon>
    </Placemark>
    <Placemark>
      <name>gap_0029</name>
      <description>confidence: 0.6484</description>
      <styleUrl>#gapStyle</styleUrl>
      <Polygon>
        <outerBoundaryIs><LinearRing><coordinates>
          114.02881262825758,22.513412526313914,0
          114.0289213230426,22.513412526313914,0
          114.0289213230426,22.51350970400381,0
          114.02881262825758,22.51350970400381,0
          114.02881262825758,22.513412526313914,0
        </coordinates></LinearRing></outerBoundaryIs>
      </Polygon>
    </Placemark>
    <Placemark>
      <name>gap_0030</name>
      <description>confidence: 0.6383</description>
      <styleUrl>#gapStyle</styleUrl>
      <Polygon>
        <outerBoundaryIs><LinearRing><coordinates>
          114.02554150361539,22.517949494977074,0
          114.02567984070629,22.517949494977074,0
          114.02567984070629,22.518074139115924,0
          114.02554150361539,22.518074139115924,0
          114.02554150361539,22.517949494977074,0
        </coordinates></LinearRing></outerBoundaryIs>
      </Polygon>
    </Placemark>
    <Placemark>
      <name>gap_0031</name>
      <description>confidence: 0.6323</description>
      <styleUrl>#gapStyle</styleUrl>
      <Polygon>
        <outerBoundaryIs><LinearRing><coordinates>
          114.02746936459152,22.52302984633843,0
          114.02769781467214,22.52302984633843,0
          114.02769781467214,22.523205091050613,0
          114.02746936459152,22.523205091050613,0
          114.02746936459152,22.52302984633843,0
        </coordinates></LinearRing></outerBoundaryIs>
      </Polygon>
    </Placemark>
    <Placemark>
      <name>gap_0032</name>
      <description>confidence: 0.6320</description>
      <styleUrl>#gapStyle</styleUrl>
      <Polygon>
        <outerBoundaryIs><LinearRing><coordinates>
          114.02263767906561,22.5233277487132,0
          114.02283523726965,22.5233277487132,0
          114.02283523726965,22.523644019202038,0
          114.02263767906561,22.523644019202038,0
          114.02263767906561,22.5233277487132,0
        </coordinates></LinearRing></outerBoundaryIs>
      </Polygon>
    </Placemark>
    <Placemark>
      <name>gap_0033</name>
      <description>confidence: 0.6214</description>
      <styleUrl>#gapStyle</styleUrl>
      <Polygon>
        <outerBoundaryIs><LinearRing><coordinates>
          114.02307570388075,22.52182636240832,0
          114.02336454066244,22.52182636240832,0
          114.02336454066244,22.52203707690569,0
          114.02307570388075,22.52203707690569,0
          114.02307570388075,22.52182636240832,0
        </coordinates></LinearRing></outerBoundaryIs>
      </Polygon>
    </Placemark>
    <Placemark>
      <name>gap_0034</name>
      <description>confidence: 0.6213</description>
      <styleUrl>#gapStyle</styleUrl>
      <Polygon>
        <outerBoundaryIs><LinearRing><coordinates>
          113.99170393960958,22.52483836002284,0
          113.99197803308198,22.52483836002284,0
          113.99197803308198,22.525039610172826,0
          113.99170393960958,22.525039610172826,0
          113.99170393960958,22.52483836002284,0
        </coordinates></LinearRing></outerBoundaryIs>
      </Polygon>
    </Placemark>
    <Placemark>
      <name>gap_0035</name>
      <description>confidence: 0.6203</description>
      <styleUrl>#gapStyle</styleUrl>
      <Polygon>
        <outerBoundaryIs><LinearRing><coordinates>
          114.03180285224153,22.511760966590373,0
          114.03192966257848,22.511760966590373,0
          114.03192966257848,22.51186535206216,0
          114.03180285224153,22.51186535206216,0
          114.03180285224153,22.511760966590373,0
        </coordinates></LinearRing></outerBoundaryIs>
      </Polygon>
    </Placemark>
    <Placemark>
      <name>gap_0036</name>
      <description>confidence: 0.6190</description>
      <styleUrl>#gapStyle</styleUrl>
      <Polygon>
        <outerBoundaryIs><LinearRing><coordinates>
          114.03383125005348,22.511451955942903,0
          114.03394869950716,22.511451955942903,0
          114.03394869950716,22.51158077204309,0
          114.03383125005348,22.51158077204309,0
          114.03383125005348,22.511451955942903,0
        </coordinates></LinearRing></outerBoundaryIs>
      </Polygon>
    </Placemark>
    <Placemark>
      <name>gap_0037</name>
      <description>confidence: 0.6158</description>
      <styleUrl>#gapStyle</styleUrl>
      <Polygon>
        <outerBoundaryIs><LinearRing><coordinates>
          114.03467849014532,22.511762874619308,0
          114.034929501031,22.511762874619308,0
          114.034929501031,22.51201346700327,0
          114.03467849014532,22.51201346700327,0
          114.03467849014532,22.511762874619308,0
        </coordinates></LinearRing></outerBoundaryIs>
      </Polygon>
    </Placemark>
    <Placemark>
      <name>gap_0038</name>
      <description>confidence: 0.6156</description>
      <styleUrl>#gapStyle</styleUrl>
      <Polygon>
        <outerBoundaryIs><LinearRing><coordinates>
          113.9938761733356,22.52574368381829,0
          113.99396124244959,22.52574368381829,0
          113.99396124244959,22.52583426567071,0
          113.9938761733356,22.52583426567071,0
          113.9938761733356,22.52574368381829,0
        </coordinates></LinearRing></outerBoundaryIs>
      </Polygon>
    </Placemark>
    <Placemark>
      <name>gap_0039</name>
      <description>confidence: 0.6123</description>
      <styleUrl>#gapStyle</styleUrl>
      <Polygon>
        <outerBoundaryIs><LinearRing><coordinates>
          114.02063320223533,22.525500963711238,0
          114.02089336144854,22.525500963711238,0
          114.02089336144854,22.525642872606113,0
          114.02063320223533,22.525642872606113,0
          114.02063320223533,22.525500963711238,0
        </coordinates></LinearRing></outerBoundaryIs>
      </Polygon>
    </Placemark>
    <Placemark>
      <name>gap_0040</name>
      <description>confidence: 0.6058</description>
      <styleUrl>#gapStyle</styleUrl>
      <Polygon>
        <outerBoundaryIs><LinearRing><coordinates>
          114.03465102965129,22.51307714263021,0
          114.03489918931882,22.51307714263021,0
          114.03489918931882,22.51321793666648,0
          114.03465102965129,22.51321793666648,0
          114.03465102965129,22.51307714263021,0
        </coordinates></LinearRing></outerBoundaryIs>
      </Polygon>
    </Placemark>
    <Placemark>
      <name>gap_0041</name>
      <description>confidence: 0.6021</description>
      <styleUrl>#gapStyle</styleUrl>
      <Polygon>
        <outerBoundaryIs><LinearRing><coordinates>
          114.02259609105386,22.51892146636237,0
          114.02269849564618,22.51892146636237,0
          114.02269849564618,22.519012850716535,0
          114.02259609105386,22.519012850716535,0
          114.02259609105386,22.51892146636237,0
        </coordinates></LinearRing></outerBoundaryIs>
      </Polygon>
    </Placemark>
    <Placemark>
      <name>gap_0042</name>
      <description>confidence: 0.6019</description>
      <styleUrl>#gapStyle</styleUrl>
      <Polygon>
        <outerBoundaryIs><LinearRing><coordinates>
          114.02149943787663,22.526234951174047,0
          114.02162690894329,22.526234951174047,0
          114.02162690894329,22.526439741286595,0
          114.02149943787663,22.526439741286595,0
          114.02149943787663,22.526234951174047,0
        </coordinates></LinearRing></outerBoundaryIs>
      </Polygon>
    </Placemark>
    <Placemark>
      <name>gap_0043</name>
      <description>confidence: 0.5991</description>
      <styleUrl>#gapStyle</styleUrl>
      <Polygon>
        <outerBoundaryIs><LinearRing><coordinates>
          114.03618541470678,22.507877210446168,0
          114.0364722675804,22.507877210446168,0
          114.0364722675804,22.508023317495827,0
          114.03618541470678,22.508023317495827,0
          114.03618541470678,22.507877210446168,0
        </coordinates></LinearRing></outerBoundaryIs>
      </Polygon>
    </Placemark>
    <Placemark>
      <name>gap_0044</name>
      <description>confidence: 0.5796</description>
      <styleUrl>#gapStyle</styleUrl>
      <Polygon>
        <outerBoundaryIs><LinearRing><coordinates>
          114.02758959513449,22.509906328414218,0
          114.02771098015364,22.509906328414218,0
          114.02771098015364,22.510024662551587,0
          114.02758959513449,22.510024662551587,0
          114.02758959513449,22.509906328414218,0
        </coordinates></LinearRing></outerBoundaryIs>
      </Polygon>
    </Placemark>
    <Placemark>
      <name>gap_0045</name>
      <description>confidence: 0.5776</description>
      <styleUrl>#gapStyle</styleUrl>
      <Polygon>
        <outerBoundaryIs><LinearRing><coordinates>
          114.0179752457334,22.52230814061477,0
          114.01811404448381,22.52230814061477,0
          114.01811404448381,22.52247189549962,0
          114.0179752457334,22.52247189549962,0
          114.0179752457334,22.52230814061477,0
        </coordinates></LinearRing></outerBoundaryIs>
      </Polygon>
    </Placemark>
    <Placemark>
      <name>gap_0046</name>
      <description>confidence: 0.5773</description>
      <styleUrl>#gapStyle</styleUrl>
      <Polygon>
        <outerBoundaryIs><LinearRing><coordinates>
          113.99458613264869,22.525855547191895,0
          113.99489817813446,22.525855547191895,0
          113.99489817813446,22.526042121808132,0
          113.99458613264869,22.526042121808132,0
          113.99458613264869,22.525855547191895,0
        </coordinates></LinearRing></outerBoundaryIs>
      </Polygon>
    </Placemark>
    <Placemark>
      <name>gap_0047</name>
      <description>confidence: 0.5751</description>
      <styleUrl>#gapStyle</styleUrl>
      <Polygon>
        <outerBoundaryIs><LinearRing><coordinates>
          114.01635126075234,22.526369188417448,0
          114.0166103440697,22.526369188417448,0
          114.0166103440697,22.526550017500995,0
          114.01635126075234,22.526550017500995,0
          114.01635126075234,22.526369188417448,0
        </coordinates></LinearRing></outerBoundaryIs>
      </Polygon>
    </Placemark>
    <Placemark>
      <name>gap_0048</name>
      <description>confidence: 0.5731</description>
      <styleUrl>#gapStyle</styleUrl>
      <Polygon>
        <outerBoundaryIs><LinearRing><coordinates>
          114.03557079291204,22.512652847908612,0
          114.03574999145349,22.512652847908612,0
          114.03574999145349,22.5127687411441,0
          114.03557079291204,22.5127687411441,0
          114.03557079291204,22.512652847908612,0
        </coordinates></LinearRing></outerBoundaryIs>
      </Polygon>
    </Placemark>
    <Placemark>
      <name>gap_0049</name>
      <description>confidence: 0.5730</description>
      <styleUrl>#gapStyle</styleUrl>
      <Polygon>
        <outerBoundaryIs><LinearRing><coordinates>
          114.02718118035409,22.518052262184938,0
          114.02726800639357,22.518052262184938,0
          114.02726800639357,22.51811013529732,0
          114.02718118035409,22.51811013529732,0
          114.02718118035409,22.518052262184938,0
        </coordinates></LinearRing></outerBoundaryIs>
      </Polygon>
    </Placemark>
    <Placemark>
      <name>gap_0050</name>
      <description>confidence: 0.5642</description>
      <styleUrl>#gapStyle</styleUrl>
      <Polygon>
        <outerBoundaryIs><LinearRing><coordinates>
          114.02435302734375,22.52234071134808,0
          114.0245849894336,22.52234071134808,0
          114.0245849894336,22.52268833310154,0
          114.02435302734375,22.52268833310154,0
          114.02435302734375,22.52234071134808,0
        </coordinates></LinearRing></outerBoundaryIs>
      </Polygon>
    </Placemark>
    <Placemark>
      <name>gap_0051</name>
      <description>confidence: 0.5600</description>
      <styleUrl>#gapStyle</styleUrl>
      <Polygon>
        <outerBoundaryIs><LinearRing><coordinates>
          114.03143561814431,22.516652998237987,0
          114.03167462725378,22.516652998237987,0
          114.03167462725378,22.516934893428697,0
          114.03143561814431,22.516934893428697,0
          114.03143561814431,22.516652998237987,0
        </coordinates></LinearRing></outerBoundaryIs>
      </Polygon>
    </Placemark>
    <Placemark>
      <name>gap_0052</name>
      <description>confidence: 0.5599</description>
      <styleUrl>#gapStyle</styleUrl>
      <Polygon>
        <outerBoundaryIs><LinearRing><coordinates>
          113.99476446418703,22.5239140429494,0
          113.99506485096936,22.5239140429494,0
          113.99506485096936,22.52425680205306,0
          113.99476446418703,22.52425680205306,0
          113.99476446418703,22.5239140429494,0
        </coordinates></LinearRing></outerBoundaryIs>
      </Polygon>
    </Placemark>
    <Placemark>
      <name>gap_0053</name>
      <description>confidence: 0.5535</description>
      <styleUrl>#gapStyle</styleUrl>
      <Polygon>
        <outerBoundaryIs><LinearRing><coordinates>
          114.02935279231315,22.508384841421503,0
          114.0297377927709,22.508384841421503,0
          114.0297377927709,22.50877508220583,0
          114.02935279231315,22.50877508220583,0
          114.02935279231315,22.508384841421503,0
        </coordinates></LinearRing></outerBoundaryIs>
      </Polygon>
    </Placemark>
    <Placemark>
      <name>gap_0054</name>
      <description>confidence: 0.5477</description>
      <styleUrl>#gapStyle</styleUrl>
      <Polygon>
        <outerBoundaryIs><LinearRing><coordinates>
          113.99276812502649,22.525032759440364,0
          113.99311798304552,22.525032759440364,0
          113.99311798304552,22.52535651634389,0
          113.99276812502649,22.52535651634389,0
          113.99276812502649,22.525032759440364,0
        </coordinates></LinearRing></outerBoundaryIs>
      </Polygon>
    </Placemark>
    <Placemark>
      <name>gap_0055</name>
      <description>confidence: 0.5447</description>
      <styleUrl>#gapStyle</styleUrl>
      <Polygon>
        <outerBoundaryIs><LinearRing><coordinates>
          114.03270670773054,22.50905542870896,0
          114.03289037880313,22.50905542870896,0
          114.03289037880313,22.509207975417667,0
          114.03270670773054,22.509207975417667,0
          114.03270670773054,22.50905542870896,0
        </coordinates></LinearRing></outerBoundaryIs>
      </Polygon>
    </Placemark>
    <Placemark>
      <name>gap_0056</name>
      <description>confidence: 0.5408</description>
      <styleUrl>#gapStyle</styleUrl>
      <Polygon>
        <outerBoundaryIs><LinearRing><coordinates>
          114.02092257645336,22.525621502027207,0
          114.02124285046739,22.525621502027207,0
          114.02124285046739,22.525954446282412,0
          114.02092257645336,22.525954446282412,0
          114.02092257645336,22.525621502027207,0
        </coordinates></LinearRing></outerBoundaryIs>
      </Polygon>
    </Placemark>
    <Placemark>
      <name>gap_0057</name>
      <description>confidence: 0.5406</description>
      <styleUrl>#gapStyle</styleUrl>
      <Polygon>
        <outerBoundaryIs><LinearRing><coordinates>
          114.02725108018785,22.522142216585053,0
          114.0275330773693,22.522142216585053,0
          114.0275330773693,22.522445689282904,0
          114.02725108018785,22.522445689282904,0
          114.02725108018785,22.522142216585053,0
        </coordinates></LinearRing></outerBoundaryIs>
      </Polygon>
    </Placemark>
    <Placemark>
      <name>gap_0058</name>
      <description>confidence: 0.5397</description>
      <styleUrl>#gapStyle</styleUrl>
      <Polygon>
        <outerBoundaryIs><LinearRing><coordinates>
          114.0265317185731,22.51142225077274,0
          114.02680335870173,22.51142225077274,0
          114.02680335870173,22.511656279402814,0
          114.0265317185731,22.511656279402814,0
          114.0265317185731,22.51142225077274,0
        </coordinates></LinearRing></outerBoundaryIs>
      </Polygon>
    </Placemark>
    <Placemark>
      <name>gap_0059</name>
      <description>confidence: 0.5265</description>
      <styleUrl>#gapStyle</styleUrl>
      <Polygon>
        <outerBoundaryIs><LinearRing><coordinates>
          114.02241545842116,22.52392757063717,0
          114.0226504905877,22.52392757063717,0
          114.0226504905877,22.52413053662167,0
          114.02241545842116,22.52413053662167,0
          114.02241545842116,22.52392757063717,0
        </coordinates></LinearRing></outerBoundaryIs>
      </Polygon>
    </Placemark>
    <Placemark>
      <name>gap_0060</name>
      <description>confidence: 0.5223</description>
      <styleUrl>#gapStyle</styleUrl>
      <Polygon>
        <outerBoundaryIs><LinearRing><coordinates>
          114.0163666864828,22.52326348227143,0
          114.01651663054508,22.52326348227143,0
          114.01651663054508,22.52337739102586,0
          114.0163666864828,22.52337739102586,0
          114.0163666864828,22.52326348227143,0
        </coordinates></LinearRing></outerBoundaryIs>
      </Polygon>
    </Placemark>
    <Placemark>
      <name>gap_0061</name>
      <description>confidence: 0.5217</description>
      <styleUrl>#gapStyle</styleUrl>
      <Polygon>
        <outerBoundaryIs><LinearRing><coordinates>
          114.02359585237718,22.52115500257787,0
          114.02397863490478,22.52115500257787,0
          114.02397863490478,22.521471896798175,0
          114.02359585237718,22.521471896798175,0
          114.02359585237718,22.52115500257787,0
        </coordinates></LinearRing></outerBoundaryIs>
      </Polygon>
    </Placemark>
    <Placemark>
      <name>gap_0062</name>
      <description>confidence: 0.5144</description>
      <styleUrl>#gapStyle</styleUrl>
      <Polygon>
        <outerBoundaryIs><LinearRing><coordinates>
          114.02607365631297,22.521636338933604,0
          114.02623328042978,22.521636338933604,0
          114.02623328042978,22.52175473200623,0
          114.02607365631297,22.52175473200623,0
          114.02607365631297,22.521636338933604,0
        </coordinates></LinearRing></outerBoundaryIs>
      </Polygon>
    </Placemark>
    <Placemark>
      <name>gap_0063</name>
      <description>confidence: 0.4964</description>
      <styleUrl>#gapStyle</styleUrl>
      <Polygon>
        <outerBoundaryIs><LinearRing><coordinates>
          114.02493850442625,22.523740410924802,0
          114.02521028305273,22.523740410924802,0
          114.02521028305273,22.524033860372583,0
          114.02493850442625,22.524033860372583,0
          114.02493850442625,22.523740410924802,0
        </coordinates></LinearRing></outerBoundaryIs>
      </Polygon>
    </Placemark>
    <Placemark>
      <name>gap_0064</name>
      <description>confidence: 0.4939</description>
      <styleUrl>#gapStyle</styleUrl>
      <Polygon>
        <outerBoundaryIs><LinearRing><coordinates>
          114.03747172014846,22.51449633455195,0
          114.03780372471374,22.51449633455195,0
          114.03780372471374,22.514702655753354,0
          114.03747172014846,22.514702655753354,0
          114.03747172014846,22.51449633455195,0
        </coordinates></LinearRing></outerBoundaryIs>
      </Polygon>
    </Placemark>
    <Placemark>
      <name>gap_0065</name>
      <description>confidence: 0.4927</description>
      <styleUrl>#gapStyle</styleUrl>
      <Polygon>
        <outerBoundaryIs><LinearRing><coordinates>
          114.0089055705721,22.529517905677494,0
          114.00914214876593,22.529517905677494,0
          114.00914214876593,22.52968092804622,0
          114.0089055705721,22.52968092804622,0
          114.0089055705721,22.529517905677494,0
        </coordinates></LinearRing></outerBoundaryIs>
      </Polygon>
    </Placemark>
    <Placemark>
      <name>gap_0066</name>
      <description>confidence: 0.4914</description>
      <styleUrl>#gapStyle</styleUrl>
      <Polygon>
        <outerBoundaryIs><LinearRing><coordinates>
          114.03425076627173,22.511123950462206,0
          114.03452180951717,22.511123950462206,0
          114.03452180951717,22.511510330004967,0
          114.03425076627173,22.511510330004967,0
          114.03425076627173,22.511123950462206,0
        </coordinates></LinearRing></outerBoundaryIs>
      </Polygon>
    </Placemark>
    <Placemark>
      <name>gap_0067</name>
      <description>confidence: 0.4859</description>
      <styleUrl>#gapStyle</styleUrl>
      <Polygon>
        <outerBoundaryIs><LinearRing><coordinates>
          114.0185322657635,22.526278049626853,0
          114.01876142568653,22.526278049626853,0
          114.01876142568653,22.52641006001795,0
          114.0185322657635,22.52641006001795,0
          114.0185322657635,22.526278049626853,0
        </coordinates></LinearRing></outerBoundaryIs>
      </Polygon>
    </Placemark>
    <Placemark>
      <name>gap_0068</name>
      <description>confidence: 0.4841</description>
      <styleUrl>#gapStyle</styleUrl>
      <Polygon>
        <outerBoundaryIs><LinearRing><coordinates>
          114.03630865168452,22.507398390953313,0
          114.03638025245527,22.507398390953313,0
          114.03638025245527,22.507527255511377,0
          114.03630865168452,22.507527255511377,0
          114.03630865168452,22.507398390953313,0
        </coordinates></LinearRing></outerBoundaryIs>
      </Polygon>
    </Placemark>
    <Placemark>
      <name>gap_0069</name>
      <description>confidence: 0.4829</description>
      <styleUrl>#gapStyle</styleUrl>
      <Polygon>
        <outerBoundaryIs><LinearRing><coordinates>
          114.0320829333723,22.508815333676466,0
          114.03235194433364,22.508815333676466,0
          114.03235194433364,22.508974299416877,0
          114.0320829333723,22.508974299416877,0
          114.0320829333723,22.508815333676466,0
        </coordinates></LinearRing></outerBoundaryIs>
      </Polygon>
    </Placemark>
    <Placemark>
      <name>gap_0070</name>
      <description>confidence: 0.4813</description>
      <styleUrl>#gapStyle</styleUrl>
      <Polygon>
        <outerBoundaryIs><LinearRing><coordinates>
          114.0255541897568,22.523349341281573,0
          114.02574358082347,22.523349341281573,0
          114.02574358082347,22.52345852997678,0
          114.0255541897568,22.52345852997678,0
          114.0255541897568,22.523349341281573,0
        </coordinates></LinearRing></outerBoundaryIs>
      </Polygon>
    </Placemark>
    <Placemark>
      <name>gap_0071</name>
      <description>confidence: 0.4737</description>
      <styleUrl>#gapStyle</styleUrl>
      <Polygon>
        <outerBoundaryIs><LinearRing><coordinates>
          114.03292697268625,22.510433174575155,0
          114.03314787316049,22.510433174575155,0
          114.03314787316049,22.510639199790603,0
          114.03292697268625,22.510639199790603,0
          114.03292697268625,22.510433174575155,0
        </coordinates></LinearRing></outerBoundaryIs>
      </Polygon>
    </Placemark>
    <Placemark>
      <name>gap_0072</name>
      <description>confidence: 0.4561</description>
      <styleUrl>#gapStyle</styleUrl>
      <Polygon>
        <outerBoundaryIs><LinearRing><coordinates>
          114.01970682758474,22.527256236062385,0
          114.01989306299583,22.527256236062385,0
          114.01989306299583,22.52745942780166,0
          114.01970682758474,22.52745942780166,0
          114.01970682758474,22.527256236062385,0
        </coordinates></LinearRing></outerBoundaryIs>
      </Polygon>
    </Placemark>
    <Placemark>
      <name>gap_0073</name>
      <description>confidence: 0.4533</description>
      <styleUrl>#gapStyle</styleUrl>
      <Polygon>
        <outerBoundaryIs><LinearRing><coordinates>
          114.01949738428812,22.52084206422296,0
          114.0196071263199,22.52084206422296,0
          114.0196071263199,22.520909024660796,0
          114.01949738428812,22.520909024660796,0
          114.01949738428812,22.52084206422296,0
        </coordinates></LinearRing></outerBoundaryIs>
      </Polygon>
    </Placemark>
    <Placemark>
      <name>gap_0074</name>
      <description>confidence: 0.4527</description>
      <styleUrl>#gapStyle</styleUrl>
      <Polygon>
        <outerBoundaryIs><LinearRing><coordinates>
          114.02825329976622,22.52198081845563,0
          114.0284932731629,22.52198081845563,0
          114.0284932731629,22.52230669178971,0
          114.02825329976622,22.52230669178971,0
          114.02825329976622,22.52198081845563,0
        </coordinates></LinearRing></outerBoundaryIs>
      </Polygon>
    </Placemark>
    <Placemark>
      <name>gap_0075</name>
      <description>confidence: 0.4378</description>
      <styleUrl>#gapStyle</styleUrl>
      <Polygon>
        <outerBoundaryIs><LinearRing><coordinates>
          114.03469649005729,22.51197741622491,0
          114.0349758577031,22.51197741622491,0
          114.0349758577031,22.512309474159338,0
          114.03469649005729,22.512309474159338,0
          114.03469649005729,22.51197741622491,0
        </coordinates></LinearRing></outerBoundaryIs>
      </Polygon>
    </Placemark>
    <Placemark>
      <name>gap_0076</name>
      <description>confidence: 0.4313</description>
      <styleUrl>#gapStyle</styleUrl>
      <Polygon>
        <outerBoundaryIs><LinearRing><coordinates>
          114.0172257939048,22.5298847618933,0
          114.0174667487372,22.5298847618933,0
          114.0174667487372,22.530144722517207,0
          114.0172257939048,22.530144722517207,0
          114.0172257939048,22.5298847618933,0
        </coordinates></LinearRing></outerBoundaryIs>
      </Polygon>
    </Placemark>
    <Placemark>
      <name>gap_0077</name>
      <description>confidence: 0.4202</description>
      <styleUrl>#gapStyle</styleUrl>
      <Polygon>
        <outerBoundaryIs><LinearRing><coordinates>
          114.01458817669663,22.527189400207135,0
          114.01487299507608,22.527189400207135,0
          114.01487299507608,22.52746994185145,0
          114.01458817669663,22.52746994185145,0
          114.01458817669663,22.527189400207135,0
        </coordinates></LinearRing></outerBoundaryIs>
      </Polygon>
    </Placemark>
    <Placemark>
      <name>gap_0078</name>
      <description>confidence: 0.4053</description>
      <styleUrl>#gapStyle</styleUrl>
      <Polygon>
        <outerBoundaryIs><LinearRing><coordinates>
          113.99687358578376,22.52759059869277,0
          113.99712774800719,22.52759059869277,0
          113.99712774800719,22.527813376582344,0
          113.99687358578376,22.527813376582344,0
          113.99687358578376,22.52759059869277,0
        </coordinates></LinearRing></outerBoundaryIs>
      </Polygon>
    </Placemark>
    <Placemark>
      <name>gap_0079</name>
      <description>confidence: 0.3994</description>
      <styleUrl>#gapStyle</styleUrl>
      <Polygon>
        <outerBoundaryIs><LinearRing><coordinates>
          114.02489296171552,22.51707301409624,0
          114.02497409690113,22.51707301409624,0
          114.02497409690113,22.51714727251965,0
          114.02489296171552,22.51714727251965,0
          114.02489296171552,22.51707301409624,0
        </coordinates></LinearRing></outerBoundaryIs>
      </Polygon>
    </Placemark>
    <Placemark>
      <name>gap_0080</name>
      <description>confidence: 0.3983</description>
      <styleUrl>#gapStyle</styleUrl>
      <Polygon>
        <outerBoundaryIs><LinearRing><coordinates>
          113.99341928397916,22.52499013025954,0
          113.9936973902877,22.52499013025954,0
          113.9936973902877,22.525178272226185,0
          113.99341928397916,22.525178272226185,0
          113.99341928397916,22.52499013025954,0
        </coordinates></LinearRing></outerBoundaryIs>
      </Polygon>
    </Placemark>
    <Placemark>
      <name>gap_0081</name>
      <description>confidence: 0.3936</description>
      <styleUrl>#gapStyle</styleUrl>
      <Polygon>
        <outerBoundaryIs><LinearRing><coordinates>
          114.01923225531846,22.52521159422031,0
          114.01961939295688,22.52521159422031,0
          114.01961939295688,22.52555298160587,0
          114.01923225531846,22.52555298160587,0
          114.01923225531846,22.52521159422031,0
        </coordinates></LinearRing></outerBoundaryIs>
      </Polygon>
    </Placemark>
    <Placemark>
      <name>gap_0082</name>
      <description>confidence: 0.3879</description>
      <styleUrl>#gapStyle</styleUrl>
      <Polygon>
        <outerBoundaryIs><LinearRing><coordinates>
          114.03364444968247,22.50979648291832,0
          114.03385914853061,22.50979648291832,0
          114.03385914853061,22.50994970279862,0
          114.03364444968247,22.50994970279862,0
          114.03364444968247,22.50979648291832,0
        </coordinates></LinearRing></outerBoundaryIs>
      </Polygon>
    </Placemark>
    <Placemark>
      <name>gap_0083</name>
      <description>confidence: 0.3851</description>
      <styleUrl>#gapStyle</styleUrl>
      <Polygon>
        <outerBoundaryIs><LinearRing><coordinates>
          114.02092038874798,22.524333566288988,0
          114.02114442715629,22.524333566288988,0
          114.02114442715629,22.52461929227138,0
          114.02092038874798,22.52461929227138,0
          114.02092038874798,22.524333566288988,0
        </coordinates></LinearRing></outerBoundaryIs>
      </Polygon>
    </Placemark>
    <Placemark>
      <name>gap_0084</name>
      <description>confidence: 0.3735</description>
      <styleUrl>#gapStyle</styleUrl>
      <Polygon>
        <outerBoundaryIs><LinearRing><coordinates>
          114.0363578119559,22.513718172085646,0
          114.03673658254775,22.513718172085646,0
          114.03673658254775,22.513981411648274,0
          114.0363578119559,22.513981411648274,0
          114.0363578119559,22.513718172085646,0
        </coordinates></LinearRing></outerBoundaryIs>
      </Polygon>
    </Placemark>
    <Placemark>
      <name>gap_0085</name>
      <description>confidence: 0.3662</description>
      <styleUrl>#gapStyle</styleUrl>
      <Polygon>
        <outerBoundaryIs><LinearRing><coordinates>
          114.02607116301397,22.522254189643718,0
          114.02624861226286,22.522254189643718,0
          114.02624861226286,22.522422336187446,0
          114.02607116301397,22.522422336187446,0
          114.02607116301397,22.522254189643718,0
        </coordinates></LinearRing></outerBoundaryIs>
      </Polygon>
    </Placemark>
    <Placemark>
      <name>gap_0086</name>
      <description>confidence: 0.3657</description>
      <styleUrl>#gapStyle</styleUrl>
      <Polygon>
        <outerBoundaryIs><LinearRing><coordinates>
          114.00936766211089,22.52952776742859,0
          114.0096035462193,22.52952776742859,0
          114.0096035462193,22.529709458931393,0
          114.00936766211089,22.529709458931393,0
          114.00936766211089,22.52952776742859,0
        </coordinates></LinearRing></outerBoundaryIs>
      </Polygon>
    </Placemark>
    <Placemark>
      <name>gap_0087</name>
      <description>confidence: 0.3598</description>
      <styleUrl>#gapStyle</styleUrl>
      <Polygon>
        <outerBoundaryIs><LinearRing><coordinates>
          113.99463700900014,22.526118251671505,0
          113.9949336358768,22.526118251671505,0
          113.9949336358768,22.526274611409463,0
          113.99463700900014,22.526274611409463,0
          113.99463700900014,22.526118251671505,0
        </coordinates></LinearRing></outerBoundaryIs>
      </Polygon>
    </Placemark>
    <Placemark>
      <name>gap_0088</name>
      <description>confidence: 0.3581</description>
      <styleUrl>#gapStyle</styleUrl>
      <Polygon>
        <outerBoundaryIs><LinearRing><coordinates>
          113.99325462181878,22.524829792964738,0
          113.99351819010917,22.524829792964738,0
          113.99351819010917,22.5249690812052,0
          113.99325462181878,22.5249690812052,0
          113.99325462181878,22.524829792964738,0
        </coordinates></LinearRing></outerBoundaryIs>
      </Polygon>
    </Placemark>
    <Placemark>
      <name>gap_0089</name>
      <description>confidence: 0.3562</description>
      <styleUrl>#gapStyle</styleUrl>
      <Polygon>
        <outerBoundaryIs><LinearRing><coordinates>
          114.02677718866471,22.519468831487757,0
          114.02714780007955,22.519468831487757,0
          114.02714780007955,22.519842298643198,0
          114.02677718866471,22.519842298643198,0
          114.02677718866471,22.519468831487757,0
        </coordinates></LinearRing></outerBoundaryIs>
      </Polygon>
    </Placemark>
    <Placemark>
      <name>gap_0090</name>
      <description>confidence: 0.3559</description>
      <styleUrl>#gapStyle</styleUrl>
      <Polygon>
        <outerBoundaryIs><LinearRing><coordinates>
          114.02984436539555,22.512631773970497,0
          114.02993379375403,22.512631773970497,0
          114.02993379375403,22.512724705702567,0
          114.02984436539555,22.512724705702567,0
          114.02984436539555,22.512631773970497,0
        </coordinates></LinearRing></outerBoundaryIs>
      </Polygon>
    </Placemark>
    <Placemark>
      <name>gap_0091</name>
      <description>confidence: 0.3502</description>
      <styleUrl>#gapStyle</styleUrl>
      <Polygon>
        <outerBoundaryIs><LinearRing><coordinates>
          114.03657564656896,22.509366030280944,0
          114.03683421903224,22.509366030280944,0
          114.03683421903224,22.509616228126106,0
          114.03657564656896,22.509616228126106,0
          114.03657564656896,22.509366030280944,0
        </coordinates></LinearRing></outerBoundaryIs>
      </Polygon>
    </Placemark>
    <Placemark>
      <name>gap_0092</name>
      <description>confidence: 0.3416</description>
      <styleUrl>#gapStyle</styleUrl>
      <Polygon>
        <outerBoundaryIs><LinearRing><coordinates>
          114.0347046667921,22.515073939848662,0
          114.03505633911664,22.515073939848662,0
          114.03505633911664,22.515475382260774,0
          114.0347046667921,22.515475382260774,0
          114.0347046667921,22.515073939848662,0
        </coordinates></LinearRing></outerBoundaryIs>
      </Polygon>
    </Placemark>
    <Placemark>
      <name>gap_0093</name>
      <description>confidence: 0.3359</description>
      <styleUrl>#gapStyle</styleUrl>
      <Polygon>
        <outerBoundaryIs><LinearRing><coordinates>
          114.0347502959412,22.511769861885114,0
          114.03492443128926,22.511769861885114,0
          114.03492443128926,22.511894225754077,0
          114.0347502959412,22.511894225754077,0
          114.0347502959412,22.511769861885114,0
        </coordinates></LinearRing></outerBoundaryIs>
      </Polygon>
    </Placemark>
    <Placemark>
      <name>gap_0094</name>
      <description>confidence: 0.3343</description>
      <styleUrl>#gapStyle</styleUrl>
      <Polygon>
        <outerBoundaryIs><LinearRing><coordinates>
          114.01774222751555,22.528246398183,0
          114.01804361030372,22.528246398183,0
          114.01804361030372,22.52849578857422,0
          114.01774222751555,22.52849578857422,0
          114.01774222751555,22.528246398183,0
        </coordinates></LinearRing></outerBoundaryIs>
      </Polygon>
    </Placemark>
    <Placemark>
      <name>gap_0095</name>
      <description>confidence: 0.3312</description>
      <styleUrl>#gapStyle</styleUrl>
      <Polygon>
        <outerBoundaryIs><LinearRing><coordinates>
          114.00767610474759,22.526138393941437,0
          114.00791924853365,22.526138393941437,0
          114.00791924853365,22.5263017762245,0
          114.00767610474759,22.5263017762245,0
          114.00767610474759,22.526138393941437,0
        </coordinates></LinearRing></outerBoundaryIs>
      </Polygon>
    </Placemark>
    <Placemark>
      <name>gap_0096</name>
      <description>confidence: 0.3304</description>
      <styleUrl>#gapStyle</styleUrl>
      <Polygon>
        <outerBoundaryIs><LinearRing><coordinates>
          113.99746256894105,22.525360886065755,0
          113.99762472995462,22.525360886065755,0
          113.99762472995462,22.52557916130172,0
          113.99746256894105,22.52557916130172,0
          113.99746256894105,22.525360886065755,0
        </coordinates></LinearRing></outerBoundaryIs>
      </Polygon>
    </Placemark>
    <Placemark>
      <name>gap_0097</name>
      <description>confidence: 0.3288</description>
      <styleUrl>#gapStyle</styleUrl>
      <Polygon>
        <outerBoundaryIs><LinearRing><coordinates>
          114.01085876300613,22.527888472541235,0
          114.01115526315152,22.527888472541235,0
          114.01115526315152,22.52814192459482,0
          114.01085876300613,22.52814192459482,0
          114.01085876300613,22.527888472541235,0
        </coordinates></LinearRing></outerBoundaryIs>
      </Polygon>
    </Placemark>
    <Placemark>
      <name>gap_0098</name>
      <description>confidence: 0.3282</description>
      <styleUrl>#gapStyle</styleUrl>
      <Polygon>
        <outerBoundaryIs><LinearRing><coordinates>
          114.0288614101155,22.514654794922535,0
          114.02920680608077,22.514654794922535,0
          114.02920680608077,22.51483249650846,0
          114.0288614101155,22.51483249650846,0
          114.0288614101155,22.514654794922535,0
        </coordinates></LinearRing></outerBoundaryIs>
      </Polygon>
    </Placemark>
    <Placemark>
      <name>gap_0099</name>
      <description>confidence: 0.3127</description>
      <styleUrl>#gapStyle</styleUrl>
      <Polygon>
        <outerBoundaryIs><LinearRing><coordinates>
          114.03327533616448,22.51327000252786,0
          114.0335281084981,22.51327000252786,0
          114.0335281084981,22.513592175710073,0
          114.03327533616448,22.513592175710073,0
          114.03327533616448,22.51327000252786,0
        </coordinates></LinearRing></outerBoundaryIs>
      </Polygon>
    </Placemark>
    <Placemark>
      <name>gap_0100</name>
      <description>confidence: 0.3112</description>
      <styleUrl>#gapStyle</styleUrl>
      <Polygon>
        <outerBoundaryIs><LinearRing><coordinates>
          114.03382179978507,22.515004365632194,0
          114.03402659914718,22.515004365632194,0
          114.03402659914718,22.515229521886795,0
          114.03382179978507,22.515229521886795,0
          114.03382179978507,22.515004365632194,0
        </coordinates></LinearRing></outerBoundaryIs>
      </Polygon>
    </Placemark>
    <Placemark>
      <name>gap_0101</name>
      <description>confidence: 0.3091</description>
      <styleUrl>#gapStyle</styleUrl>
      <Polygon>
        <outerBoundaryIs><LinearRing><coordinates>
          114.02767047951784,22.510203441670456,0
          114.02776760613051,22.510203441670456,0
          114.02776760613051,22.510310624602425,0
          114.02767047951784,22.510310624602425,0
          114.02767047951784,22.510203441670456,0
        </coordinates></LinearRing></outerBoundaryIs>
      </Polygon>
    </Placemark>
    <Placemark>
      <name>gap_0102</name>
      <description>confidence: 0.3086</description>
      <styleUrl>#gapStyle</styleUrl>
      <Polygon>
        <outerBoundaryIs><LinearRing><coordinates>
          114.02709728667105,22.510165412550123,0
          114.02734046565456,22.510165412550123,0
          114.02734046565456,22.510406822493678,0
          114.02709728667105,22.510406822493678,0
          114.02709728667105,22.510165412550123,0
        </coordinates></LinearRing></outerBoundaryIs>
      </Polygon>
    </Placemark>
    <Placemark>
      <name>gap_0103</name>
      <description>confidence: 0.3069</description>
      <styleUrl>#gapStyle</styleUrl>
      <Polygon>
        <outerBoundaryIs><LinearRing><coordinates>
          114.0329360961914,22.512499315671448,0
          114.03323371365104,22.512499315671448,0
          114.03323371365104,22.512935200829816,0
          114.0329360961914,22.512935200829816,0
          114.0329360961914,22.512499315671448,0
        </coordinates></LinearRing></outerBoundaryIs>
      </Polygon>
    </Placemark>
    <Placemark>
      <name>gap_0104</name>
      <description>confidence: 0.3051</description>
      <styleUrl>#gapStyle</styleUrl>
      <Polygon>
        <outerBoundaryIs><LinearRing><coordinates>
          114.02607168432496,22.521443916302815,0
          114.02624845313767,22.521443916302815,0
          114.02624845313767,22.52175621684728,0
          114.02607168432496,22.52175621684728,0
          114.02607168432496,22.521443916302815,0
        </coordinates></LinearRing></outerBoundaryIs>
      </Polygon>
    </Placemark>
    <Placemark>
      <name>gap_0105</name>
      <description>confidence: 0.3038</description>
      <styleUrl>#gapStyle</styleUrl>
      <Polygon>
        <outerBoundaryIs><LinearRing><coordinates>
          114.0309508001883,22.50752888769057,0
          114.03111336916481,22.50752888769057,0
          114.03111336916481,22.507698849440203,0
          114.0309508001883,22.507698849440203,0
          114.0309508001883,22.50752888769057,0
        </coordinates></LinearRing></outerBoundaryIs>
      </Polygon>
    </Placemark>
    <Placemark>
      <name>gap_0106</name>
      <description>confidence: 0.3018</description>
      <styleUrl>#gapStyle</styleUrl>
      <Polygon>
        <outerBoundaryIs><LinearRing><coordinates>
          114.03048862237483,22.5155930749861,0
          114.03064964086298,22.5155930749861,0
          114.03064964086298,22.51573724895934,0
          114.03048862237483,22.51573724895934,0
          114.03048862237483,22.5155930749861,0
        </coordinates></LinearRing></outerBoundaryIs>
      </Polygon>
    </Placemark>
    <Placemark>
      <name>gap_0107</name>
      <description>confidence: 0.2999</description>
      <styleUrl>#gapStyle</styleUrl>
      <Polygon>
        <outerBoundaryIs><LinearRing><coordinates>
          114.03187268871989,22.515376433566416,0
          114.03221742510141,22.515376433566416,0
          114.03221742510141,22.51567471112139,0
          114.03187268871989,22.51567471112139,0
          114.03187268871989,22.515376433566416,0
        </coordinates></LinearRing></outerBoundaryIs>
      </Polygon>
    </Placemark>
    <Placemark>
      <name>gap_0108</name>
      <description>confidence: 0.2929</description>
      <styleUrl>#gapStyle</styleUrl>
      <Polygon>
        <outerBoundaryIs><LinearRing><coordinates>
          113.9940249106985,22.525603474550735,0
          113.99413477158305,22.525603474550735,0
          113.99413477158305,22.52577981342256,0
          113.9940249106985,22.52577981342256,0
          113.9940249106985,22.525603474550735,0
        </coordinates></LinearRing></outerBoundaryIs>
      </Polygon>
    </Placemark>
    <Placemark>
      <name>gap_0109</name>
      <description>confidence: 0.2927</description>
      <styleUrl>#gapStyle</styleUrl>
      <Polygon>
        <outerBoundaryIs><LinearRing><coordinates>
          114.00939183236005,22.525610822958697,0
          114.00962705770326,22.525610822958697,0
          114.00962705770326,22.525744676713657,0
          114.00939183236005,22.525744676713657,0
          114.00939183236005,22.525610822958697,0
        </coordinates></LinearRing></outerBoundaryIs>
      </Polygon>
    </Placemark>
    <Placemark>
      <name>gap_0110</name>
      <description>confidence: 0.2923</description>
      <styleUrl>#gapStyle</styleUrl>
      <Polygon>
        <outerBoundaryIs><LinearRing><coordinates>
          114.03148515895737,22.51361816059216,0
          114.03167144020699,22.51361816059216,0
          114.03167144020699,22.513780402969132,0
          114.03148515895737,22.513780402969132,0
          114.03148515895737,22.51361816059216,0
        </coordinates></LinearRing></outerBoundaryIs>
      </Polygon>
    </Placemark>
    <Placemark>
      <name>gap_0111</name>
      <description>confidence: 0.2908</description>
      <styleUrl>#gapStyle</styleUrl>
      <Polygon>
        <outerBoundaryIs><LinearRing><coordinates>
          114.02237168687861,22.519218726629333,0
          114.02253911834123,22.519218726629333,0
          114.02253911834123,22.51931679293193,0
          114.02237168687861,22.51931679293193,0
          114.02237168687861,22.519218726629333,0
        </coordinates></LinearRing></outerBoundaryIs>
      </Polygon>
    </Placemark>
    <Placemark>
      <name>gap_0112</name>
      <description>confidence: 0.2831</description>
      <styleUrl>#gapStyle</styleUrl>
      <Polygon>
        <outerBoundaryIs><LinearRing><coordinates>
          114.02950670844803,22.518241928119096,0
          114.02972081565167,22.518241928119096,0
          114.02972081565167,22.51840011394961,0
          114.02950670844803,22.51840011394961,0
          114.02950670844803,22.518241928119096,0
        </coordinates></LinearRing></outerBoundaryIs>
      </Polygon>
    </Placemark>
    <Placemark>
      <name>gap_0113</name>
      <description>confidence: 0.2825</description>
      <styleUrl>#gapStyle</styleUrl>
      <Polygon>
        <outerBoundaryIs><LinearRing><coordinates>
          114.02944810961344,22.51880303465441,0
          114.02965950841462,22.51880303465441,0
          114.02965950841462,22.518971987628902,0
          114.02944810961344,22.518971987628902,0
          114.02944810961344,22.51880303465441,0
        </coordinates></LinearRing></outerBoundaryIs>
      </Polygon>
    </Placemark>
    <Placemark>
      <name>gap_0114</name>
      <description>confidence: 0.2794</description>
      <styleUrl>#gapStyle</styleUrl>
      <Polygon>
        <outerBoundaryIs><LinearRing><coordinates>
          114.0130751180186,22.52538897068007,0
          114.01316809853597,22.52538897068007,0
          114.01316809853597,22.52549490876845,0
          114.0130751180186,22.52549490876845,0
          114.0130751180186,22.52538897068007,0
        </coordinates></LinearRing></outerBoundaryIs>
      </Polygon>
    </Placemark>
    <Placemark>
      <name>gap_0115</name>
      <description>confidence: 0.2759</description>
      <styleUrl>#gapStyle</styleUrl>
      <Polygon>
        <outerBoundaryIs><LinearRing><coordinates>
          114.01673681536522,22.52743615754298,0
          114.0170722853236,22.52743615754298,0
          114.0170722853236,22.52774063279503,0
          114.01673681536522,22.52774063279503,0
          114.01673681536522,22.52743615754298,0
        </coordinates></LinearRing></outerBoundaryIs>
      </Polygon>
    </Placemark>
    <Placemark>
      <name>gap_0116</name>
      <description>confidence: 0.2748</description>
      <styleUrl>#gapStyle</styleUrl>
      <Polygon>
        <outerBoundaryIs><LinearRing><coordinates>
          114.00890935507505,22.528397719652276,0
          114.00925770676622,22.528397719652276,0
          114.00925770676622,22.52865301343263,0
          114.00890935507505,22.52865301343263,0
          114.00890935507505,22.528397719652276,0
        </coordinates></LinearRing></outerBoundaryIs>
      </Polygon>
    </Placemark>
    <Placemark>
      <name>gap_0117</name>
      <description>confidence: 0.2739</description>
      <styleUrl>#gapStyle</styleUrl>
      <Polygon>
        <outerBoundaryIs><LinearRing><coordinates>
          114.0294264145632,22.513144341755833,0
          114.02952563632425,22.513144341755833,0
          114.02952563632425,22.51328349510004,0
          114.0294264145632,22.51328349510004,0
          114.0294264145632,22.513144341755833,0
        </coordinates></LinearRing></outerBoundaryIs>
      </Polygon>
    </Placemark>
    <Placemark>
      <name>gap_0118</name>
      <description>confidence: 0.2717</description>
      <styleUrl>#gapStyle</styleUrl>
      <Polygon>
        <outerBoundaryIs><LinearRing><coordinates>
          114.03804469624447,22.512124952127124,0
          114.03829978768044,22.512124952127124,0
          114.03829978768044,22.512334896046013,0
          114.03804469624447,22.512334896046013,0
          114.03804469624447,22.512124952127124,0
        </coordinates></LinearRing></outerBoundaryIs>
      </Polygon>
    </Placemark>
    <Placemark>
      <name>gap_0119</name>
      <description>confidence: 0.2668</description>
      <styleUrl>#gapStyle</styleUrl>
      <Polygon>
        <outerBoundaryIs><LinearRing><coordinates>
          114.02902570622246,22.50911763847398,0
          114.0293355688118,22.50911763847398,0
          114.0293355688118,22.50933492588956,0
          114.02902570622246,22.50933492588956,0
          114.02902570622246,22.50911763847398,0
        </coordinates></LinearRing></outerBoundaryIs>
      </Polygon>
    </Placemark>
    <Placemark>
      <name>gap_0120</name>
      <description>confidence: 0.2657</description>
      <styleUrl>#gapStyle</styleUrl>
      <Polygon>
        <outerBoundaryIs><LinearRing><coordinates>
          114.02805378433868,22.50922244385947,0
          114.02829307230604,22.50922244385947,0
          114.02829307230604,22.50938709194088,0
          114.02805378433868,22.50938709194088,0
          114.02805378433868,22.50922244385947,0
        </coordinates></LinearRing></outerBoundaryIs>
      </Polygon>
    </Placemark>
    <Placemark>
      <name>gap_0121</name>
      <description>confidence: 0.2657</description>
      <styleUrl>#gapStyle</styleUrl>
      <Polygon>
        <outerBoundaryIs><LinearRing><coordinates>
          114.02883432281669,22.511070496020693,0
          114.02905386581551,22.511070496020693,0
          114.02905386581551,22.511234744979447,0
          114.02883432281669,22.511234744979447,0
          114.02883432281669,22.511070496020693,0
        </coordinates></LinearRing></outerBoundaryIs>
      </Polygon>
    </Placemark>
    <Placemark>
      <name>gap_0122</name>
      <description>confidence: 0.2618</description>
      <styleUrl>#gapStyle</styleUrl>
      <Polygon>
        <outerBoundaryIs><LinearRing><coordinates>
          114.01529037579166,22.52577216935606,0
          114.01553289175354,22.52577216935606,0
          114.01553289175354,22.52603914541396,0
          114.01529037579166,22.52603914541396,0
          114.01529037579166,22.52577216935606,0
        </coordinates></LinearRing></outerBoundaryIs>
      </Polygon>
    </Placemark>
    <Placemark>
      <name>gap_0123</name>
      <description>confidence: 0.2593</description>
      <styleUrl>#gapStyle</styleUrl>
      <Polygon>
        <outerBoundaryIs><LinearRing><coordinates>
          114.02885805571714,22.51467356023568,0
          114.02899448559765,22.51467356023568,0
          114.02899448559765,22.514735563072463,0
          114.02885805571714,22.514735563072463,0
          114.02885805571714,22.51467356023568,0
        </coordinates></LinearRing></outerBoundaryIs>
      </Polygon>
    </Placemark>
    <Placemark>
      <name>gap_0124</name>
      <description>confidence: 0.2510</description>
      <styleUrl>#gapStyle</styleUrl>
      <Polygon>
        <outerBoundaryIs><LinearRing><coordinates>
          114.03133977866332,22.511150901227666,0
          114.03144858828,22.511150901227666,0
          114.03144858828,22.511228150287934,0
          114.03133977866332,22.511228150287934,0
          114.03133977866332,22.511150901227666,0
        </coordinates></LinearRing></outerBoundaryIs>
      </Polygon>
    </Placemark>
    <Placemark>
      <name>gap_0125</name>
      <description>confidence: 0.2504</description>
      <styleUrl>#gapStyle</styleUrl>
      <Polygon>
        <outerBoundaryIs><LinearRing><coordinates>
          114.02091979980469,22.52435361901007,0
          114.02124346441724,22.52435361901007,0
          114.02124346441724,22.524514647157048,0
          114.02091979980469,22.524514647157048,0
          114.02091979980469,22.52435361901007,0
        </coordinates></LinearRing></outerBoundaryIs>
      </Polygon>
    </Placemark>
  </Document>
</kml>