<?xml version="1.0" encoding="UTF-8"?>
<kml xmlns="http://www.opengis.net/kml/2.2">
  <Document>
    <name>Mangrove Gap Detections - 2023-01-01</name>
    <Style id="gapStyle">
      <LineStyle><color>ff00ff00</color><width>2</width></LineStyle>
      <PolyStyle><color>4000ff00</color></PolyStyle>
    </Style>
    <Placemark>
      <name>gap_0001</name>
      <description>confidence: 0.9337</description>
      <styleUrl>#gapStyle</styleUrl>
      <Polygon>
        <outerBoundaryIs><LinearRing><coordinates>
          114.02003451694327,22.523519061069237,0
          114.0201887524745,22.523519061069237,0
          114.0201887524745,22.523681835009484,0
          114.02003451694327,22.523681835009484,0
          114.02003451694327,22.523519061069237,0
        </coordinates></LinearRing></outerBoundaryIs>
      </Polygon>
    </Placemark>
    <Placemark>
      <name>gap_0002</name>
      <description>confidence: 0.9126</description>
      <styleUrl>#gapStyle</styleUrl>
      <Polygon>
        <outerBoundaryIs><LinearRing><coordinates>
          114.01948298673233,22.520838386335527,0
          114.01961195279,22.520838386335527,0
          114.01961195279,22.5209379505759,0
          114.01948298673233,22.5209379505759,0
          114.01948298673233,22.520838386335527,0
        </coordinates></LinearRing></outerBoundaryIs>
      </Polygon>
    </Placemark>
    <Placemark>
      <name>gap_0003</name>
      <description>confidence: 0.9019</description>
      <styleUrl>#gapStyle</styleUrl>
      <Polygon>
        <outerBoundaryIs><LinearRing><coordinates>
          114.03198440966662,22.508230765670305,0
          114.0322349879716,22.508230765670305,0
          114.0322349879716,22.508400364313275,0
          114.03198440966662,22.508400364313275,0
          114.03198440966662,22.508230765670305,0
        </coordinates></LinearRing></outerBoundaryIs>
      </Polygon>
    </Placemark>
    <Placemark>
      <name>gap_0004</name>
      <description>confidence: 0.8946</description>
      <styleUrl>#gapStyle</styleUrl>
      <Polygon>
        <outerBoundaryIs><LinearRing><coordinates>
          114.03175823203128,22.516717206890462,0
          114.03192978503284,22.516717206890462,0
          114.03192978503284,22.516844402925926,0
          114.03175823203128,22.516844402925926,0
          114.03175823203128,22.516717206890462,0
        </coordinates></LinearRing></outerBoundaryIs>
      </Polygon>
    </Placemark>
    <Placemark>
      <name>gap_0005</name>
      <description>confidence: 0.8867</description>
      <styleUrl>#gapStyle</styleUrl>
      <Polygon>
        <outerBoundaryIs><LinearRing><coordinates>
          114.00947559122869,22.526002246049757,0
          114.00969098780479,22.526002246049757,0
          114.00969098780479,22.52616783775011,0
          114.00947559122869,22.52616783775011,0
          114.00947559122869,22.526002246049757,0
        </coordinates></LinearRing></outerBoundaryIs>
      </Polygon>
    </Placemark>
    <Placemark>
      <name>gap_0006</name>
      <description>confidence: 0.8651</description>
      <styleUrl>#gapStyle</styleUrl>
      <Polygon>
        <outerBoundaryIs><LinearRing><coordinates>
          114.03128136542364,22.512940336710017,0
          114.0315252538403,22.512940336710017,0
          114.0315252538403,22.513139921611582,0
          114.03128136542364,22.513139921611582,0
          114.03128136542364,22.512940336710017,0
        </coordinates></LinearRing></outerBoundaryIs>
      </Polygon>
    </Placemark>
    <Placemark>
      <name>gap_0007</name>
      <description>confidence: 0.8560</description>
      <styleUrl>#gapStyle</styleUrl>
      <Polygon>
        <outerBoundaryIs><LinearRing><coordinates>
          114.03473569243943,22.515153759959503,0
          114.03484706108429,22.515153759959503,0
          114.03484706108429,22.51525527331978,0
          114.03473569243943,22.51525527331978,0
          114.03473569243943,22.515153759959503,0
        </coordinates></LinearRing></outerBoundaryIs>
      </Polygon>
    </Placemark>
    <Placemark>
      <name>gap_0008</name>
      <description>confidence: 0.8348</description>
      <styleUrl>#gapStyle</styleUrl>
      <Polygon>
        <outerBoundaryIs><LinearRing><coordinates>
          114.02685131317412,22.51754676384735,0
          114.0272748638381,22.51754676384735,0
          114.0272748638381,22.51785051124898,0
          114.02685131317412,22.51785051124898,0
          114.02685131317412,22.51754676384735,0
        </coordinates></LinearRing></outerBoundaryIs>
      </Polygon>
    </Placemark>
    <Placemark>
      <name>gap_0009</name>
      <description>confidence: 0.8318</description>
      <styleUrl>#gapStyle</styleUrl>
      <Polygon>
        <outerBoundaryIs><LinearRing><coordinates>
          114.0236565871237,22.518490207294235,0
          114.0239057486906,22.518490207294235,0
          114.0239057486906,22.518722657769104,0
          114.0236565871237,22.518722657769104,0
          114.0236565871237,22.518490207294235,0
        </coordinates></LinearRing></outerBoundaryIs>
      </Polygon>
    </Placemark>
    <Placemark>
      <name>gap_0010</name>
      <description>confidence: 0.8315</description>
      <styleUrl>#gapStyle</styleUrl>
      <Polygon>
        <outerBoundaryIs><LinearRing><coordinates>
          114.03557532961713,22.512630699261535,0
          114.03579511195858,22.512630699261535,0
          114.03579511195858,22.512767485536642,0
          114.03557532961713,22.512767485536642,0
          114.03557532961713,22.512630699261535,0
        </coordinates></LinearRing></outerBoundaryIs>
      </Polygon>
    </Placemark>
    <Placemark>
      <name>gap_0011</name>
      <description>confidence: 0.8288</description>
      <styleUrl>#gapStyle</styleUrl>
      <Polygon>
        <outerBoundaryIs><LinearRing><coordinates>
          114.0143866154176,22.527468515372675,0
          114.01450362449395,22.527468515372675,0
          114.01450362449395,22.527573588422456,0
          114.0143866154176,22.527573588422456,0
          114.0143866154176,22.527468515372675,0
        </coordinates></LinearRing></outerBoundaryIs>
      </Polygon>
    </Placemark>
    <Placemark>
      <name>gap_0012</name>
      <description>confidence: 0.8234</description>
      <styleUrl>#gapStyle</styleUrl>
      <Polygon>
        <outerBoundaryIs><LinearRing><coordinates>
          114.0282627704164,22.516675833030604,0
          114.02850163018229,22.516675833030604,0
          114.02850163018229,22.517017501668306,0
          114.0282627704164,22.517017501668306,0
          114.0282627704164,22.516675833030604,0
        </coordinates></LinearRing></outerBoundaryIs>
      </Polygon>
    </Placemark>
    <Placemark>
      <name>gap_0013</name>
      <description>confidence: 0.8167</description>
      <styleUrl>#gapStyle</styleUrl>
      <Polygon>
        <outerBoundaryIs><LinearRing><coordinates>
          114.00288927605288,22.528707053297694,0
          114.0030726000623,22.528707053297694,0
          114.0030726000623,22.528808314218622,0
          114.00288927605288,22.528808314218622,0
          114.00288927605288,22.528707053297694,0
        </coordinates></LinearRing></outerBoundaryIs>
      </Polygon>
    </Placemark>
    <Placemark>
      <name>gap_0014</name>
      <description>confidence: 0.8108</description>
      <styleUrl>#gapStyle</styleUrl>
      <Polygon>
        <outerBoundaryIs><LinearRing><coordinates>
          114.02754595783335,22.518908057609224,0
          114.02778566160123,22.518908057609224,0
          114.02778566160123,22.51927871879161,0
          114.02754595783335,22.51927871879161,0
          114.02754595783335,22.518908057609224,0
        </coordinates></LinearRing></outerBoundaryIs>
      </Polygon>
    </Placemark>
    <Placemark>
      <name>gap_0015</name>
      <description>confidence: 0.8041</description>
      <styleUrl>#gapStyle</styleUrl>
      <Polygon>
        <outerBoundaryIs><LinearRing><coordinates>
          114.02263641357422,22.52252101296108,0
          114.02289749938063,22.52252101296108,0
          114.02289749938063,22.522828633391327,0
          114.02263641357422,22.522828633391327,0
          114.02263641357422,22.52252101296108,0
        </coordinates></LinearRing></outerBoundaryIs>
      </Polygon>
    </Placemark>
    <Placemark>
      <name>gap_0016</name>
      <description>confidence: 0.7972</description>
      <styleUrl>#gapStyle</styleUrl>
      <Polygon>
        <outerBoundaryIs><LinearRing><coordinates>
          114.02200233405893,22.52284843670168,0
          114.02215437654377,22.52284843670168,0
          114.02215437654377,22.52308824065949,0
          114.02200233405893,22.52308824065949,0
          114.02200233405893,22.52284843670168,0
        </coordinates></LinearRing></outerBoundaryIs>
      </Polygon>
    </Placemark>
    <Placemark>
      <name>gap_0017</name>
      <description>confidence: 0.7440</description>
      <styleUrl>#gapStyle</styleUrl>
      <Polygon>
        <outerBoundaryIs><LinearRing><coordinates>
          114.02076396614575,22.51951247312718,0
          114.02096882706246,22.51951247312718,0
          114.02096882706246,22.519692615205713,0
          114.02076396614575,22.519692615205713,0
          114.02076396614575,22.51951247312718,0
        </coordinates></LinearRing></outerBoundaryIs>
      </Polygon>
    </Placemark>
    <Placemark>
      <name>gap_0018</name>
      <description>confidence: 0.7440</description>
      <styleUrl>#gapStyle</styleUrl>
      <Polygon>
        <outerBoundaryIs><LinearRing><coordinates>
          114.01894542057562,22.523669052607147,0
          114.01918596744508,22.523669052607147,0
          114.01918596744508,22.523849050539866,0
          114.01894542057562,22.523849050539866,0
          114.01894542057562,22.523669052607147,0
        </coordinates></LinearRing></outerBoundaryIs>
      </Polygon>
    </Placemark>
    <Placemark>
      <name>gap_0019</name>
      <description>confidence: 0.7381</description>
      <styleUrl>#gapStyle</styleUrl>
      <Polygon>
        <outerBoundaryIs><LinearRing><coordinates>
          114.03344645153084,22.511298429271847,0
          114.03351863862554,22.511298429271847,0
          114.03351863862554,22.511389390929253,0
          114.03344645153084,22.511389390929253,0
          114.03344645153084,22.511298429271847,0
        </coordinates></LinearRing></outerBoundaryIs>
      </Polygon>
    </Placemark>
    <Placemark>
      <name>gap_0020</name>
      <description>confidence: 0.7305</description>
      <styleUrl>#gapStyle</styleUrl>
      <Polygon>
        <outerBoundaryIs><LinearRing><coordinates>
          114.0366486205312,22.508565731568524,0
          114.03690773528069,22.508565731568524,0
          114.03690773528069,22.50890510467798,0
          114.0366486205312,22.50890510467798,0
          114.0366486205312,22.508565731568524,0
        </coordinates></LinearRing></outerBoundaryIs>
      </Polygon>
    </Placemark>
    <Placemark>
      <name>gap_0021</name>
      <description>confidence: 0.7141</description>
      <styleUrl>#gapStyle</styleUrl>
      <Polygon>
        <outerBoundaryIs><LinearRing><coordinates>
          114.01897046183876,22.522829568742964,0
          114.01920350559521,22.522829568742964,0
          114.01920350559521,22.52299605936969,0
          114.01897046183876,22.52299605936969,0
          114.01897046183876,22.522829568742964,0
        </coordinates></LinearRing></outerBoundaryIs>
      </Polygon>
    </Placemark>
    <Placemark>
      <name>gap_0022</name>
      <description>confidence: 0.6975</description>
      <styleUrl>#gapStyle</styleUrl>
      <Polygon>
        <outerBoundaryIs><LinearRing><coordinates>
          114.01223250362818,22.526016771953437,0
          114.01234114193358,22.526016771953437,0
          114.01234114193358,22.52612341530039,0
          114.01223250362818,22.52612341530039,0
          114.01223250362818,22.526016771953437,0
        </coordinates></LinearRing></outerBoundaryIs>
      </Polygon>
    </Placemark>
    <Placemark>
      <name>gap_0023</name>
      <description>confidence: 0.6890</description>
      <styleUrl>#gapStyle</styleUrl>
      <Polygon>
        <outerBoundaryIs><LinearRing><coordinates>
          114.03214619218488,22.51858095449279,0
          114.03231525353476,22.51858095449279,0
          114.03231525353476,22.51875605506939,0
          114.03214619218488,22.51875605506939,0
          114.03214619218488,22.51858095449279,0
        </coordinates></LinearRing></outerBoundaryIs>
      </Polygon>
    </Placemark>
    <Placemark>
      <name>gap_0024</name>
      <description>confidence: 0.6857</description>
      <styleUrl>#gapStyle</styleUrl>
      <Polygon>
        <outerBoundaryIs><LinearRing><coordinates>
          114.03132788441326,22.516701449239918,0
          114.03162972206701,22.516701449239918,0
          114.03162972206701,22.51706450319034,0
          114.03132788441326,22.51706450319034,0
          114.03132788441326,22.516701449239918,0
        </coordinates></LinearRing></outerBoundaryIs>
      </Polygon>
    </Placemark>
    <Placemark>
      <name>gap_0025</name>
      <description>confidence: 0.6818</description>
      <styleUrl>#gapStyle</styleUrl>
      <Polygon>
        <outerBoundaryIs><LinearRing><coordinates>
          114.01158579273215,22.525367515954713,0
          114.01186340431195,22.525367515954713,0
          114.01186340431195,22.525678835063445,0
          114.01158579273215,22.525678835063445,0
          114.01158579273215,22.525367515954713,0
        </coordinates></LinearRing></outerBoundaryIs>
      </Polygon>
    </Placemark>
    <Placemark>
      <name>gap_0026</name>
      <description>confidence: 0.6743</description>
      <styleUrl>#gapStyle</styleUrl>
      <Polygon>
        <outerBoundaryIs><LinearRing><coordinates>
          114.0293887568987,22.515740105845907,0
          114.02963812604867,22.515740105845907,0
          114.02963812604867,22.515850999079703,0
          114.0293887568987,22.515850999079703,0
          114.0293887568987,22.515740105845907,0
        </coordinates></LinearRing></outerBoundaryIs>
      </Polygon>
    </Placemark>
    <Placemark>
      <name>gap_0027</name>
      <description>confidence: 0.6548</description>
      <styleUrl>#gapStyle</styleUrl>
      <Polygon>
        <outerBoundaryIs><LinearRing><coordinates>
          114.02541136245418,22.51681363544776,0
          114.02566334603762,22.51681363544776,0
          114.02566334603762,22.517071195616154,0
          114.02541136245418,22.517071195616154,0
          114.02541136245418,22.51681363544776,0
        </coordinates></LinearRing></outerBoundaryIs>
      </Polygon>
    </Placemark>
    <Placemark>
      <name>gap_0028</name>
      <description>confidence: 0.6513</description>
      <styleUrl>#gapStyle</styleUrl>
      <Polygon>
        <outerBoundaryIs><LinearRing><coordinates>
          114.03391927411576,22.516486116019223,0
          114.03409784532414,22.516486116019223,0
          114.03409784532414,22.516654912815284,0
          114.03391927411576,22.516654912815284,0
          114.03391927411576,22.516486116019223,0
        </coordinates></LinearRing></outerBoundaryIs>
      </Polygon>
    </Placemark>
    <Placemark>
      <name>gap_0029</name>
      <description>confidence: 0.6512</description>
      <styleUrl>#gapStyle</styleUrl>
      <Polygon>
        <outerBoundaryIs><LinearRing><coordinates>
          114.03688439511825,22.51054644028045,0
          114.03720158123178,22.51054644028045,0
          114.03720158123178,22.510802407232404,0
          114.03688439511825,22.510802407232404,0
          114.03688439511825,22.51054644028045,0
        </coordinates></LinearRing></outerBoundaryIs>
      </Polygon>
    </Placemark>
    <Placemark>
      <name>gap_0030</name>
      <description>confidence: 0.6508</description>
      <styleUrl>#gapStyle</styleUrl>
      <Polygon>
        <outerBoundaryIs><LinearRing><coordinates>
          114.0346655709385,22.51384379062074,0
          114.03482048492606,22.51384379062074,0
          114.03482048492606,22.513968195089546,0
          114.0346655709385,22.513968195089546,0
          114.0346655709385,22.51384379062074,0
        </coordinates></LinearRing></outerBoundaryIs>
      </Polygon>
    </Placemark>
    <Placemark>
      <name>gap_0031</name>
      <description>confidence: 0.6379</description>
      <styleUrl>#gapStyle</styleUrl>
      <Polygon>
        <outerBoundaryIs><LinearRing><coordinates>
          114.03341545445073,22.51589857775798,0
          114.03367512106342,22.51589857775798,0
          114.03367512106342,22.516133256067405,0
          114.03341545445073,22.516133256067405,0
          114.03341545445073,22.51589857775798,0
        </coordinates></LinearRing></outerBoundaryIs>
      </Polygon>
    </Placemark>
    <Placemark>
      <name>gap_0032</name>
      <description>confidence: 0.6319</description>
      <styleUrl>#gapStyle</styleUrl>
      <Polygon>
        <outerBoundaryIs><LinearRing><coordinates>
          114.03517684673716,22.5119245816677,0
          114.03526602363854,22.5119245816677,0
          114.03526602363854,22.512037994711136,0
          114.03517684673716,22.512037994711136,0
          114.03517684673716,22.5119245816677,0
        </coordinates></LinearRing></outerBoundaryIs>
      </Polygon>
    </Placemark>
    <Placemark>
      <name>gap_0033</name>
      <description>confidence: 0.6293</description>
      <styleUrl>#gapStyle</styleUrl>
      <Polygon>
        <outerBoundaryIs><LinearRing><coordinates>
          114.0389660969231,22.514091218508838,0
          114.03917710740643,22.514091218508838,0
          114.03917710740643,22.51421832147571,0
          114.0389660969231,22.51421832147571,0
          114.0389660969231,22.514091218508838,0
        </coordinates></LinearRing></outerBoundaryIs>
      </Polygon>
    </Placemark>
    <Placemark>
      <name>gap_0034</name>
      <description>confidence: 0.6203</description>
      <styleUrl>#gapStyle</styleUrl>
      <Polygon>
        <outerBoundaryIs><LinearRing><coordinates>
          114.02647749036078,22.51783899092061,0
          114.02656287739774,22.51783899092061,0
          114.02656287739774,22.517975317664423,0
          114.02647749036078,22.517975317664423,0
          114.02647749036078,22.51783899092061,0
        </coordinates></LinearRing></outerBoundaryIs>
      </Polygon>
    </Placemark>
    <Placemark>
      <name>gap_0035</name>
      <description>confidence: 0.6090</description>
      <styleUrl>#gapStyle</styleUrl>
      <Polygon>
        <outerBoundaryIs><LinearRing><coordinates>
          114.02709228814274,22.52098660899719,0
          114.02738254706492,22.52098660899719,0
          114.02738254706492,22.521198028753133,0
          114.02709228814274,22.521198028753133,0
          114.02709228814274,22.52098660899719,0
        </coordinates></LinearRing></outerBoundaryIs>
      </Polygon>
    </Placemark>
    <Placemark>
      <name>gap_0036</name>
      <description>confidence: 0.6028</description>
      <styleUrl>#gapStyle</styleUrl>
      <Polygon>
        <outerBoundaryIs><LinearRing><coordinates>
          114.02466379033285,22.52173069231503,0
          114.0250233612096,22.52173069231503,0
          114.0250233612096,22.5218820059672,0
          114.02466379033285,22.5218820059672,0
          114.02466379033285,22.52173069231503,0
        </coordinates></LinearRing></outerBoundaryIs>
      </Polygon>
    </Placemark>
    <Placemark>
      <name>gap_0037</name>
      <description>confidence: 0.5944</description>
      <styleUrl>#gapStyle</styleUrl>
      <Polygon>
        <outerBoundaryIs><LinearRing><coordinates>
          114.02614292841463,22.51109720858949,0
          114.02656676556944,22.51109720858949,0
          114.02656676556944,22.51141821649071,0
          114.02614292841463,22.51141821649071,0
          114.02614292841463,22.51109720858949,0
        </coordinates></LinearRing></outerBoundaryIs>
      </Polygon>
    </Placemark>
    <Placemark>
      <name>gap_0038</name>
      <description>confidence: 0.5737</description>
      <styleUrl>#gapStyle</styleUrl>
      <Polygon>
        <outerBoundaryIs><LinearRing><coordinates>
          114.0230140400854,22.52335115452297,0
          114.02330150744092,22.52335115452297,0
          114.02330150744092,22.523435668990714,0
          114.0230140400854,22.523435668990714,0
          114.0230140400854,22.52335115452297,0
        </coordinates></LinearRing></outerBoundaryIs>
      </Polygon>
    </Placemark>
    <Placemark>
      <name>gap_0039</name>
      <description>confidence: 0.5588</description>
      <styleUrl>#gapStyle</styleUrl>
      <Polygon>
        <outerBoundaryIs><LinearRing><coordinates>
          114.01872481772443,22.528610123299586,0
          114.01888104723184,22.528610123299586,0
          114.01888104723184,22.52885257868911,0
          114.01872481772443,22.52885257868911,0
          114.01872481772443,22.528610123299586,0
        </coordinates></LinearRing></outerBoundaryIs>
      </Polygon>
    </Placemark>
    <Placemark>
      <name>gap_0040</name>
      <description>confidence: 0.5534</description>
      <styleUrl>#gapStyle</styleUrl>
      <Polygon>
        <outerBoundaryIs><LinearRing><coordinates>
          114.02091979980469,22.524421954440186,0
          114.02116415299133,22.524421954440186,0
          114.02116415299133,22.524620584590593,0
          114.02091979980469,22.524620584590593,0
          114.02091979980469,22.524421954440186,0
        </coordinates></LinearRing></outerBoundaryIs>
      </Polygon>
    </Placemark>
    <Placemark>
      <name>gap_0041</name>
      <description>confidence: 0.5468</description>
      <styleUrl>#gapStyle</styleUrl>
      <Polygon>
        <outerBoundaryIs><LinearRing><coordinates>
          113.99373919863137,22.52525943573346,0
          113.99395421343797,22.52525943573346,0
          113.99395421343797,22.525434327417315,0
          113.99373919863137,22.525434327417315,0
          113.99373919863137,22.52525943573346,0
        </coordinates></LinearRing></outerBoundaryIs>
      </Polygon>
    </Placemark>
    <Placemark>
      <name>gap_0042</name>
      <description>confidence: 0.5452</description>
      <styleUrl>#gapStyle</styleUrl>
      <Polygon>
        <outerBoundaryIs><LinearRing><coordinates>
          114.0290655055287,22.520579474912665,0
          114.02920551212446,22.520579474912665,0
          114.02920551212446,22.520753819480888,0
          114.0290655055287,22.520753819480888,0
          114.0290655055287,22.520579474912665,0
        </coordinates></LinearRing></outerBoundaryIs>
      </Polygon>
    </Placemark>
    <Placemark>
      <name>gap_0043</name>
      <description>confidence: 0.5350</description>
      <styleUrl>#gapStyle</styleUrl>
      <Polygon>
        <outerBoundaryIs><LinearRing><coordinates>
          114.02935446967604,22.515735109609523,0
          114.02965263623628,22.515735109609523,0
          114.02965263623628,22.5159538411026,0
          114.02935446967604,22.5159538411026,0
          114.02935446967604,22.515735109609523,0
        </coordinates></LinearRing></outerBoundaryIs>
      </Polygon>
    </Placemark>
    <Placemark>
      <name>gap_0044</name>
      <description>confidence: 0.5286</description>
      <styleUrl>#gapStyle</styleUrl>
      <Polygon>
        <outerBoundaryIs><LinearRing><coordinates>
          114.0198195335688,22.52247145012916,0
          114.01996627990229,22.52247145012916,0
          114.01996627990229,22.522669320342175,0
          114.0198195335688,22.522669320342175,0
          114.0198195335688,22.52247145012916,0
        </coordinates></LinearRing></outerBoundaryIs>
      </Polygon>
    </Placemark>
    <Placemark>
      <name>gap_0045</name>
      <description>confidence: 0.5241</description>
      <styleUrl>#gapStyle</styleUrl>
      <Polygon>
        <outerBoundaryIs><LinearRing><coordinates>
          114.0388780397916,22.51341288909316,0
          114.03905869730806,22.51341288909316,0
          114.03905869730806,22.513630424364237,0
          114.0388780397916,22.513630424364237,0
          114.0388780397916,22.51341288909316,0
        </coordinates></LinearRing></outerBoundaryIs>
      </Polygon>
    </Placemark>
    <Placemark>
      <name>gap_0046</name>
      <description>confidence: 0.5185</description>
      <styleUrl>#gapStyle</styleUrl>
      <Polygon>
        <outerBoundaryIs><LinearRing><coordinates>
          114.0268978432141,22.51250642702871,0
          114.02699675949407,22.51250642702871,0
          114.02699675949407,22.51259459188077,0
          114.0268978432141,22.51259459188077,0
          114.0268978432141,22.51250642702871,0
        </coordinates></LinearRing></outerBoundaryIs>
      </Polygon>
    </Placemark>
    <Placemark>
      <name>gap_0047</name>
      <description>confidence: 0.5127</description>
      <styleUrl>#gapStyle</styleUrl>
      <Polygon>
        <outerBoundaryIs><LinearRing><coordinates>
          114.01712046563262,22.52816239735239,0
          114.01722100099505,22.52816239735239,0
          114.01722100099505,22.5282631231903,0
          114.01712046563262,22.5282631231903,0
          114.01712046563262,22.52816239735239,0
        </coordinates></LinearRing></outerBoundaryIs>
      </Polygon>
    </Placemark>
    <Placemark>
      <name>gap_0048</name>
      <description>confidence: 0.5072</description>
      <styleUrl>#gapStyle</styleUrl>
      <Polygon>
        <outerBoundaryIs><LinearRing><coordinates>
          114.0312920643828,22.51934996464115,0
          114.03154862506653,22.51934996464115,0
          114.03154862506653,22.51962930073205,0
          114.0312920643828,22.51962930073205,0
          114.0312920643828,22.51934996464115,0
        </coordinates></LinearRing></outerBoundaryIs>
      </Polygon>
    </Placemark>
    <Placemark>
      <name>gap_0049</name>
      <description>confidence: 0.5007</description>
      <styleUrl>#gapStyle</styleUrl>
      <Polygon>
        <outerBoundaryIs><LinearRing><coordinates>
          114.02036026700443,22.525841713286354,0
          114.02063777610238,22.525841713286354,0
          114.02063777610238,22.52605360976304,0
          114.02036026700443,22.52605360976304,0
          114.02036026700443,22.525841713286354,0
        </coordinates></LinearRing></outerBoundaryIs>
      </Polygon>
    </Placemark>
    <Placemark>
      <name>gap_0050</name>
      <description>confidence: 0.4988</description>
      <styleUrl>#gapStyle</styleUrl>
      <Polygon>
        <outerBoundaryIs><LinearRing><coordinates>
          114.03645165984472,22.514306865232356,0
          114.03668520144038,22.514306865232356,0
          114.03668520144038,22.514504332373235,0
          114.03645165984472,22.514504332373235,0
          114.03645165984472,22.514306865232356,0
        </coordinates></LinearRing></outerBoundaryIs>
      </Polygon>
    </Placemark>
    <Placemark>
      <name>gap_0051</name>
      <description>confidence: 0.4850</description>
      <styleUrl>#gapStyle</styleUrl>
      <Polygon>
        <outerBoundaryIs><LinearRing><coordinates>
          114.02736875277697,22.508366861584364,0
          114.02761704439399,22.508366861584364,0
          114.02761704439399,22.508485403304803,0
          114.02736875277697,22.508485403304803,0
          114.02736875277697,22.508366861584364,0
        </coordinates></LinearRing></outerBoundaryIs>
      </Polygon>
    </Placemark>
    <Placemark>
      <name>gap_0052</name>
      <description>confidence: 0.4816</description>
      <styleUrl>#gapStyle</styleUrl>
      <Polygon>
        <outerBoundaryIs><LinearRing><coordinates>
          114.02359258310753,22.52117149429978,0
          114.02397682526498,22.52117149429978,0
          114.02397682526498,22.521447772960528,0
          114.02359258310753,22.521447772960528,0
          114.02359258310753,22.52117149429978,0
        </coordinates></LinearRing></outerBoundaryIs>
      </Polygon>
    </Placemark>
    <Placemark>
      <name>gap_0053</name>
      <description>confidence: 0.4809</description>
      <styleUrl>#gapStyle</styleUrl>
      <Polygon>
        <outerBoundaryIs><LinearRing><coordinates>
          114.02676583503307,22.517974901966227,0
          114.02690410418472,22.517974901966227,0
          114.02690410418472,22.518074124054692,0
          114.02676583503307,22.518074124054692,0
          114.02676583503307,22.517974901966227,0
        </coordinates></LinearRing></outerBoundaryIs>
      </Polygon>
    </Placemark>
    <Placemark>
      <name>gap_0054</name>
      <description>confidence: 0.4758</description>
      <styleUrl>#gapStyle</styleUrl>
      <Polygon>
        <outerBoundaryIs><LinearRing><coordinates>
          114.02035942439397,22.52026764814218,0
          114.02046184601204,22.52026764814218,0
          114.02046184601204,22.520362222203403,0
          114.02035942439397,22.520362222203403,0
          114.02035942439397,22.52026764814218,0
        </coordinates></LinearRing></outerBoundaryIs>
      </Polygon>
    </Placemark>
    <Placemark>
      <name>gap_0055</name>
      <description>confidence: 0.4725</description>
      <styleUrl>#gapStyle</styleUrl>
      <Polygon>
        <outerBoundaryIs><LinearRing><coordinates>
          114.02116575950913,22.51966391615042,0
          114.02133358665651,22.51966391615042,0
          114.02133358665651,22.519775774950404,0
          114.02116575950913,22.519775774950404,0
          114.02116575950913,22.51966391615042,0
        </coordinates></LinearRing></outerBoundaryIs>
      </Polygon>
    </Placemark>
    <Placemark>
      <name>gap_0056</name>
      <description>confidence: 0.4687</description>
      <styleUrl>#gapStyle</styleUrl>
      <Polygon>
        <outerBoundaryIs><LinearRing><coordinates>
          114.02305235569656,22.52187124962802,0
          114.02317485942149,22.52187124962802,0
          114.02317485942149,22.5220429096953,0
          114.02305235569656,22.5220429096953,0
          114.02305235569656,22.52187124962802,0
        </coordinates></LinearRing></outerBoundaryIs>
      </Polygon>
    </Placemark>
    <Placemark>
      <name>gap_0057</name>
      <description>confidence: 0.4602</description>
      <styleUrl>#gapStyle</styleUrl>
      <Polygon>
        <outerBoundaryIs><LinearRing><coordinates>
          114.03351745996133,22.50813047734482,0
          114.03383055805534,22.50813047734482,0
          114.03383055805534,22.508446964584437,0
          114.03351745996133,22.508446964584437,0
          114.03351745996133,22.50813047734482,0
        </coordinates></LinearRing></outerBoundaryIs>
      </Polygon>
    </Placemark>
    <Placemark>
      <name>gap_0058</name>
      <description>confidence: 0.4373</description>
      <styleUrl>#gapStyle</styleUrl>
      <Polygon>
        <outerBoundaryIs><LinearRing><coordinates>
          114.02176545623661,22.523976546326594,0
          114.02199444491998,22.523976546326594,0
          114.02199444491998,22.524153774465958,0
          114.02176545623661,22.524153774465958,0
          114.02176545623661,22.523976546326594,0
        </coordinates></LinearRing></outerBoundaryIs>
      </Polygon>
    </Placemark>
    <Placemark>
      <name>gap_0059</name>
      <description>confidence: 0.4364</description>
      <styleUrl>#gapStyle</styleUrl>
      <Polygon>
        <outerBoundaryIs><LinearRing><coordinates>
          114.02192197583645,22.523845772266213,0
          114.02220957514146,22.523845772266213,0
          114.02220957514146,22.52411558310996,0
          114.02192197583645,22.52411558310996,0
          114.02192197583645,22.523845772266213,0
        </coordinates></LinearRing></outerBoundaryIs>
      </Polygon>
    </Placemark>
    <Placemark>
      <name>gap_0060</name>
      <description>confidence: 0.4315</description>
      <styleUrl>#gapStyle</styleUrl>
      <Polygon>
        <outerBoundaryIs><LinearRing><coordinates>
          114.02777504703408,22.512174797111584,0
          114.0280264294779,22.512174797111584,0
          114.0280264294779,22.512374391344565,0
          114.02777504703408,22.512374391344565,0
          114.02777504703408,22.512174797111584,0
        </coordinates></LinearRing></outerBoundaryIs>
      </Polygon>
    </Placemark>
    <Placemark>
      <name>gap_0061</name>
      <description>confidence: 0.4271</description>
      <styleUrl>#gapStyle</styleUrl>
      <Polygon>
        <outerBoundaryIs><LinearRing><coordinates>
          114.02699634498276,22.51242562138941,0
          114.02720334524929,22.51242562138941,0
          114.02720334524929,22.512625357885554,0
          114.02699634498276,22.512625357885554,0
          114.02699634498276,22.51242562138941,0
        </coordinates></LinearRing></outerBoundaryIs>
      </Polygon>
    </Placemark>
    <Placemark>
      <name>gap_0062</name>
      <description>confidence: 0.4265</description>
      <styleUrl>#gapStyle</styleUrl>
      <Polygon>
        <outerBoundaryIs><LinearRing><coordinates>
          114.03370808453474,22.516116735860123,0
          114.0338840295226,22.516116735860123,0
          114.0338840295226,22.516222060367,0
          114.03370808453474,22.516222060367,0
          114.03370808453474,22.516116735860123,0
        </coordinates></LinearRing></outerBoundaryIs>
      </Polygon>
    </Placemark>
    <Placemark>
      <name>gap_0063</name>
      <description>confidence: 0.4222</description>
      <styleUrl>#gapStyle</styleUrl>
      <Polygon>
        <outerBoundaryIs><LinearRing><coordinates>
          114.03460855615776,22.51309489049163,0
          114.03489980633822,22.51309489049163,0
          114.03489980633822,22.513252626777103,0
          114.03460855615776,22.513252626777103,0
          114.03460855615776,22.51309489049163,0
        </coordinates></LinearRing></outerBoundaryIs>
      </Polygon>
    </Placemark>
    <Placemark>
      <name>gap_0064</name>
      <description>confidence: 0.4072</description>
      <styleUrl>#gapStyle</styleUrl>
      <Polygon>
        <outerBoundaryIs><LinearRing><coordinates>
          114.0355647225806,22.514759787591174,0
          114.03577218712599,22.514759787591174,0
          114.03577218712599,22.514919830209692,0
          114.0355647225806,22.514919830209692,0
          114.0355647225806,22.514759787591174,0
        </coordinates></LinearRing></outerBoundaryIs>
      </Polygon>
    </Placemark>
    <Placemark>
      <name>gap_0065</name>
      <description>confidence: 0.4050</description>
      <styleUrl>#gapStyle</styleUrl>
      <Polygon>
        <outerBoundaryIs><LinearRing><coordinates>
          114.01179472042713,22.52620992014272,0
          114.01202881388599,22.52620992014272,0
          114.01202881388599,22.5263716686095,0
          114.01179472042713,22.5263716686095,0
          114.01179472042713,22.52620992014272,0
        </coordinates></LinearRing></outerBoundaryIs>
      </Polygon>
    </Placemark>
    <Placemark>
      <name>gap_0066</name>
      <description>confidence: 0.3912</description>
      <styleUrl>#gapStyle</styleUrl>
      <Polygon>
        <outerBoundaryIs><LinearRing><coordinates>
          114.00234604228899,22.529327946704143,0
          114.00244277665479,22.529327946704143,0
          114.00244277665479,22.529465891220752,0
          114.00234604228899,22.529465891220752,0
          114.00234604228899,22.529327946704143,0
        </coordinates></LinearRing></outerBoundaryIs>
      </Polygon>
    </Placemark>
    <Placemark>
      <name>gap_0067</name>
      <description>confidence: 0.3827</description>
      <styleUrl>#gapStyle</styleUrl>
      <Polygon>
        <outerBoundaryIs><LinearRing><coordinates>
          114.03874548130261,22.512994341213926,0
          114.03891279718664,22.512994341213926,0
          114.03891279718664,22.51322554291619,0
          114.03874548130261,22.51322554291619,0
          114.03874548130261,22.512994341213926,0
        </coordinates></LinearRing></outerBoundaryIs>
      </Polygon>
    </Placemark>
    <Placemark>
      <name>gap_0068</name>
      <description>confidence: 0.3761</description>
      <styleUrl>#gapStyle</styleUrl>
      <Polygon>
        <outerBoundaryIs><LinearRing><coordinates>
          113.9928800645248,22.524837982018653,0
          113.99295489527503,22.524837982018653,0
          113.99295489527503,22.52493603326002,0
          113.9928800645248,22.52493603326002,0
          113.9928800645248,22.524837982018653,0
        </coordinates></LinearRing></outerBoundaryIs>
      </Polygon>
    </Placemark>
    <Placemark>
      <name>gap_0069</name>
      <description>confidence: 0.3598</description>
      <styleUrl>#gapStyle</styleUrl>
      <Polygon>
        <outerBoundaryIs><LinearRing><coordinates>
          114.02418131063314,22.517583616227057,0
          114.02444667775853,22.517583616227057,0
          114.02444667775853,22.517765004868124,0
          114.02418131063314,22.517765004868124,0
          114.02418131063314,22.517583616227057,0
        </coordinates></LinearRing></outerBoundaryIs>
      </Polygon>
    </Placemark>
    <Placemark>
      <name>gap_0070</name>
      <description>confidence: 0.3588</description>
      <styleUrl>#gapStyle</styleUrl>
      <Polygon>
        <outerBoundaryIs><LinearRing><coordinates>
          114.02263750219845,22.5232855579452,0
          114.02285229530207,22.5232855579452,0
          114.02285229530207,22.523669472357142,0
          114.02263750219845,22.523669472357142,0
          114.02263750219845,22.5232855579452,0
        </coordinates></LinearRing></outerBoundaryIs>
      </Polygon>
    </Placemark>
    <Placemark>
      <name>gap_0071</name>
      <description>confidence: 0.3572</description>
      <styleUrl>#gapStyle</styleUrl>
      <Polygon>
        <outerBoundaryIs><LinearRing><coordinates>
          114.01920318603516,22.5253121849164,0
          114.0193809454513,22.5253121849164,0
          114.0193809454513,22.52564488491771,0
          114.01920318603516,22.52564488491771,0
          114.01920318603516,22.5253121849164,0
        </coordinates></LinearRing></outerBoundaryIs>
      </Polygon>
    </Placemark>
    <Placemark>
      <name>gap_0072</name>
      <description>confidence: 0.3563</description>
      <styleUrl>#gapStyle</styleUrl>
      <Polygon>
        <outerBoundaryIs><LinearRing><coordinates>
          114.02852949264343,22.521424839615065,0
          114.02875248269993,22.521424839615065,0
          114.02875248269993,22.521629333496094,0
          114.02852949264343,22.521629333496094,0
          114.02852949264343,22.521424839615065,0
        </coordinates></LinearRing></outerBoundaryIs>
      </Polygon>
    </Placemark>
    <Placemark>
      <name>gap_0073</name>
      <description>confidence: 0.3557</description>
      <styleUrl>#gapStyle</styleUrl>
      <Polygon>
        <outerBoundaryIs><LinearRing><coordinates>
          114.03368743353894,22.514813496927673,0
          114.03389934049301,22.514813496927673,0
          114.03389934049301,22.5150053737525,0
          114.03368743353894,22.5150053737525,0
          114.03368743353894,22.514813496927673,0
        </coordinates></LinearRing></outerBoundaryIs>
      </Polygon>
    </Placemark>
    <Placemark>
      <name>gap_0074</name>
      <description>confidence: 0.3488</description>
      <styleUrl>#gapStyle</styleUrl>
      <Polygon>
        <outerBoundaryIs><LinearRing><coordinates>
          114.03607053415499,22.512510609303718,0
          114.03627397982746,22.512510609303718,0
          114.03627397982746,22.512683138011198,0
          114.03607053415499,22.512683138011198,0
          114.03607053415499,22.512510609303718,0
        </coordinates></LinearRing></outerBoundaryIs>
      </Polygon>
    </Placemark>
    <Placemark>
      <name>gap_0075</name>
      <description>confidence: 0.3474</description>
      <styleUrl>#gapStyle</styleUrl>
      <Polygon>
        <outerBoundaryIs><LinearRing><coordinates>
          114.03397431276971,22.517455234365116,0
          114.0341954204996,22.517455234365116,0
          114.0341954204996,22.517651859407124,0
          114.03397431276971,22.517651859407124,0
          114.03397431276971,22.517455234365116,0
        </coordinates></LinearRing></outerBoundaryIs>
      </Polygon>
    </Placemark>
    <Placemark>
      <name>gap_0076</name>
      <description>confidence: 0.3376</description>
      <styleUrl>#gapStyle</styleUrl>
      <Polygon>
        <outerBoundaryIs><LinearRing><coordinates>
          113.99674090484041,22.527710345966625,0
          113.99685497730388,22.527710345966625,0
          113.99685497730388,22.527822035481222,0
          113.99674090484041,22.527822035481222,0
          113.99674090484041,22.527710345966625,0
        </coordinates></LinearRing></outerBoundaryIs>
      </Polygon>
    </Placemark>
    <Placemark>
      <name>gap_0077</name>
      <description>confidence: 0.3369</description>
      <styleUrl>#gapStyle</styleUrl>
      <Polygon>
        <outerBoundaryIs><LinearRing><coordinates>
          114.03275047337956,22.508534748812963,0
          114.03304269042565,22.508534748812963,0
          114.03304269042565,22.508723376013222,0
          114.03275047337956,22.508723376013222,0
          114.03275047337956,22.508534748812963,0
        </coordinates></LinearRing></outerBoundaryIs>
      </Polygon>
    </Placemark>
    <Placemark>
      <name>gap_0078</name>
      <description>confidence: 0.3306</description>
      <styleUrl>#gapStyle</styleUrl>
      <Polygon>
        <outerBoundaryIs><LinearRing><coordinates>
          114.03875771740786,22.51310874355113,0
          114.03892047972477,22.51310874355113,0
          114.03892047972477,22.51322685046034,0
          114.03875771740786,22.51322685046034,0
          114.03875771740786,22.51310874355113,0
        </coordinates></LinearRing></outerBoundaryIs>
      </Polygon>
    </Placemark>
    <Placemark>
      <name>gap_0079</name>
      <description>confidence: 0.3275</description>
      <styleUrl>#gapStyle</styleUrl>
      <Polygon>
        <outerBoundaryIs><LinearRing><coordinates>
          114.0375974192284,22.513579430960817,0
          114.03780597276636,22.513579430960817,0
          114.03780597276636,22.513773724622297,0
          114.0375974192284,22.513773724622297,0
          114.0375974192284,22.513579430960817,0
        </coordinates></LinearRing></outerBoundaryIs>
      </Polygon>
    </Placemark>
    <Placemark>
      <name>gap_0080</name>
      <description>confidence: 0.3252</description>
      <styleUrl>#gapStyle</styleUrl>
      <Polygon>
        <outerBoundaryIs><LinearRing><coordinates>
          114.02621133292996,22.511832989403047,0
          114.02653478140564,22.511832989403047,0
          114.02653478140564,22.512040137007716,0
          114.02621133292996,22.512040137007716,0
          114.02621133292996,22.511832989403047,0
        </coordinates></LinearRing></outerBoundaryIs>
      </Polygon>
    </Placemark>
    <Placemark>
      <name>gap_0081</name>
      <description>confidence: 0.3220</description>
      <styleUrl>#gapStyle</styleUrl>
      <Polygon>
        <outerBoundaryIs><LinearRing><coordinates>
          114.02607102234697,22.521629333496094,0
          114.0263098535047,22.521629333496094,0
          114.0263098535047,22.521858576910745,0
          114.02607102234697,22.521858576910745,0
          114.02607102234697,22.521629333496094,0
        </coordinates></LinearRing></outerBoundaryIs>
      </Polygon>
    </Placemark>
    <Placemark>
      <name>gap_0082</name>
      <description>confidence: 0.3182</description>
      <styleUrl>#gapStyle</styleUrl>
      <Polygon>
        <outerBoundaryIs><LinearRing><coordinates>
          114.03121948242188,22.518535925337346,0
          114.03150950277904,22.518535925337346,0
          114.03150950277904,22.518949748409796,0
          114.03121948242188,22.518949748409796,0
          114.03121948242188,22.518535925337346,0
        </coordinates></LinearRing></outerBoundaryIs>
      </Polygon>
    </Placemark>
    <Placemark>
      <name>gap_0083</name>
      <description>confidence: 0.3130</description>
      <styleUrl>#gapStyle</styleUrl>
      <Polygon>
        <outerBoundaryIs><LinearRing><coordinates>
          114.03197493877087,22.51540173889225,0
          114.03205440183228,22.51540173889225,0
          114.03205440183228,22.515533542027697,0
          114.03197493877087,22.515533542027697,0
          114.03197493877087,22.51540173889225,0
        </coordinates></LinearRing></outerBoundaryIs>
      </Polygon>
    </Placemark>
    <Placemark>
      <name>gap_0084</name>
      <description>confidence: 0.3073</description>
      <styleUrl>#gapStyle</styleUrl>
      <Polygon>
        <outerBoundaryIs><LinearRing><coordinates>
          114.032002042768,22.51742949889376,0
          114.0320902066378,22.51742949889376,0
          114.0320902066378,22.517510633751954,0
          114.032002042768,22.517510633751954,0
          114.032002042768,22.51742949889376,0
        </coordinates></LinearRing></outerBoundaryIs>
      </Polygon>
    </Placemark>
    <Placemark>
      <name>gap_0085</name>
      <description>confidence: 0.3023</description>
      <styleUrl>#gapStyle</styleUrl>
      <Polygon>
        <outerBoundaryIs><LinearRing><coordinates>
          114.03083186884032,22.519432633616816,0
          114.03113126551034,22.519432633616816,0
          114.03113126551034,22.519760196100833,0
          114.03083186884032,22.519760196100833,0
          114.03083186884032,22.519432633616816,0
        </coordinates></LinearRing></outerBoundaryIs>
      </Polygon>
    </Placemark>
    <Placemark>
      <name>gap_0086</name>
      <description>confidence: 0.2907</description>
      <styleUrl>#gapStyle</styleUrl>
      <Polygon>
        <outerBoundaryIs><LinearRing><coordinates>
          114.02993161028462,22.519991901208414,0
          114.03025754181726,22.519991901208414,0
          114.03025754181726,22.52023743400059,0
          114.02993161028462,22.52023743400059,0
          114.02993161028462,22.519991901208414,0
        </coordinates></LinearRing></outerBoundaryIs>
      </Polygon>
    </Placemark>
    <Placemark>
      <name>gap_0087</name>
      <description>confidence: 0.2891</description>
      <styleUrl>#gapStyle</styleUrl>
      <Polygon>
        <outerBoundaryIs><LinearRing><coordinates>
          114.03366178090437,22.51797381381266,0
          114.03398726100932,22.51797381381266,0
          114.03398726100932,22.51819610595703,0
          114.03366178090437,22.51819610595703,0
          114.03366178090437,22.51797381381266,0
        </coordinates></LinearRing></outerBoundaryIs>
      </Polygon>
    </Placemark>
    <Placemark>
      <name>gap_0088</name>
      <description>confidence: 0.2874</description>
      <styleUrl>#gapStyle</styleUrl>
      <Polygon>
        <outerBoundaryIs><LinearRing><coordinates>
          114.01236047914381,22.52818085886247,0
          114.01263208736964,22.52818085886247,0
          114.01263208736964,22.52838182972482,0
          114.01236047914381,22.52838182972482,0
          114.01236047914381,22.52818085886247,0
        </coordinates></LinearRing></outerBoundaryIs>
      </Polygon>
    </Placemark>
    <Placemark>
      <name>gap_0089</name>
      <description>confidence: 0.2840</description>
      <styleUrl>#gapStyle</styleUrl>
      <Polygon>
        <outerBoundaryIs><LinearRing><coordinates>
          114.02555290071177,22.517601994368306,0
          114.02570460006245,22.517601994368306,0
          114.02570460006245,22.517799031629693,0
          114.02555290071177,22.517799031629693,0
          114.02555290071177,22.517601994368306,0
        </coordinates></LinearRing></outerBoundaryIs>
      </Polygon>
    </Placemark>
    <Placemark>
      <name>gap_0090</name>
      <description>confidence: 0.2820</description>
      <styleUrl>#gapStyle</styleUrl>
      <Polygon>
        <outerBoundaryIs><LinearRing><coordinates>
          114.02897166030016,22.513725397220696,0
          114.02924457244808,22.513725397220696,0
          114.02924457244808,22.513958721901872,0
          114.02897166030016,22.513958721901872,0
          114.02897166030016,22.513725397220696,0
        </coordinates></LinearRing></outerBoundaryIs>
      </Polygon>
    </Placemark>
    <Placemark>
      <name>gap_0091</name>
      <description>confidence: 0.2790</description>
      <styleUrl>#gapStyle</styleUrl>
      <Polygon>
        <outerBoundaryIs><LinearRing><coordinates>
          114.0376941120121,22.514028512950972,0
          114.03792193967092,22.514028512950972,0
          114.03792193967092,22.514209058163033,0
          114.0376941120121,22.514209058163033,0
          114.0376941120121,22.514028512950972,0
        </coordinates></LinearRing></outerBoundaryIs>
      </Polygon>
    </Placemark>
    <Placemark>
      <name>gap_0092</name>
      <description>confidence: 0.2699</description>
      <styleUrl>#gapStyle</styleUrl>
      <Polygon>
        <outerBoundaryIs><LinearRing><coordinates>
          114.02734821924241,22.517312408945145,0
          114.02743191909394,22.517312408945145,0
          114.02743191909394,22.517408371913916,0
          114.02734821924241,22.517408371913916,0
          114.02734821924241,22.517312408945145,0
        </coordinates></LinearRing></outerBoundaryIs>
      </Polygon>
    </Placemark>
    <Placemark>
      <name>gap_0093</name>
      <description>confidence: 0.2654</description>
      <styleUrl>#gapStyle</styleUrl>
      <Polygon>
        <outerBoundaryIs><LinearRing><coordinates>
          114.0312704885946,22.513046264648438,0
          114.03153937808383,22.513046264648438,0
          114.03153937808383,22.51315247351158,0
          114.0312704885946,22.51315247351158,0
          114.0312704885946,22.513046264648438,0
        </coordinates></LinearRing></outerBoundaryIs>
      </Polygon>
    </Placemark>
    <Placemark>
      <name>gap_0094</name>
      <description>confidence: 0.2648</description>
      <styleUrl>#gapStyle</styleUrl>
      <Polygon>
        <outerBoundaryIs><LinearRing><coordinates>
          114.03822546082665,22.51152177392214,0
          114.03844684260548,22.51152177392214,0
          114.03844684260548,22.511636390554486,0
          114.03822546082665,22.511636390554486,0
          114.03822546082665,22.51152177392214,0
        </coordinates></LinearRing></outerBoundaryIs>
      </Polygon>
    </Placemark>
    <Placemark>
      <name>gap_0095</name>
      <description>confidence: 0.2624</description>
      <styleUrl>#gapStyle</styleUrl>
      <Polygon>
        <outerBoundaryIs><LinearRing><coordinates>
          114.01058775256388,22.5273577500775,0
          114.0107724720292,22.5273577500775,0
          114.0107724720292,22.52751677246124,0
          114.01058775256388,22.52751677246124,0
          114.01058775256388,22.5273577500775,0
        </coordinates></LinearRing></outerBoundaryIs>
      </Polygon>
    </Placemark>
    <Placemark>
      <name>gap_0096</name>
      <description>confidence: 0.2609</description>
      <styleUrl>#gapStyle</styleUrl>
      <Polygon>
        <outerBoundaryIs><LinearRing><coordinates>
          114.03240014813491,22.513248221694084,0
          114.03251167066628,22.513248221694084,0
          114.03251167066628,22.5133373448989,0
          114.03240014813491,22.5133373448989,0
          114.03240014813491,22.513248221694084,0
        </coordinates></LinearRing></outerBoundaryIs>
      </Polygon>
    </Placemark>
  </Document>
</kml>